# 2016 10 14 00 24 01.270 42.8215 13.2300 5.40 0.00 0 0 0 85
MC2 2.03 1 P
MC2 3.91 1 S
MMO1 2.21 1 P
MMO1 4.25 1 S
NRCA 1.88 1 P
NRCA 3.62 1 S
T1202 2.43 1 P
T1202 4.67 1 S
T1204 3.15 1 P
T1204 6.03 1 S
T1212 3.05 1 P
T1212 5.84 1 S
T1214 1.53 1 P
T1214 2.95 1 S
T1216 3.34 1 P
T1216 6.39 1 S
T1218 3.42 1 P
T1218 6.53 1 S
T1241 3.02 1 P
T1241 5.79 1 S
T1244 1.81 1 P
T1244 3.48 1 S
T1245 1.29 1 P
T1245 2.48 1 S
T1299 3.74 1 P
T1299 7.13 1 S
ED09 2.88 1 P
ED09 5.52 1 S
ED10 1.77 1 P
ED10 3.4 1 S
ED11 3.83 1 P
ED11 7.3 1 S
ED12 3.64 1 P
ED12 6.96 1 S
ED16 1.45 1 P
ED16 2.8 1 S
ED17 3.09 1 P
ED17 5.92 1 S
ED18 3.36 1 P
ED18 6.42 1 S
ED19 2.44 1 P
ED19 4.68 1 S
ED20 3.31 1 P
ED20 6.32 1 S
ED22 3.86 1 P
ED22 7.36 1 S
ED23 1.93 1 P
ED23 3.71 1 S
ED24 3.32 1 P
ED24 6.35 1 S
# 2016 10 14 00 24 10.420 42.9079 13.2648 3.29 0.00 0 0 0 86
CSP1 3.68 1 P
CSP1 7.11 1 S
FDMO 3.57 1 P
FDMO 6.89 1 S
GUMA 3.2 1 P
GUMA 6.19 1 S
MC2 1.23 1 P
MC2 2.4 1 S
MMO1 1.07 1 P
MMO1 2.1 1 S
NRCA 2.64 1 P
NRCA 5.12 1 S
T1214 3.03 1 P
T1214 5.87 1 S
T1216 3.53 1 P
T1216 6.82 1 S
T1241 2.62 1 P
T1241 5.1 1 S
T1244 3.01 1 P
T1244 5.83 1 S
T1245 1.59 1 P
T1245 3.11 1 S
ED09 3.12 1 P
ED09 6.04 1 S
ED10 3.12 1 P
ED10 6.05 1 S
ED16 1.61 1 P
ED16 3.15 1 S
ED17 1.41 1 P
ED17 2.76 1 S
ED18 1.75 1 P
ED18 3.42 1 S
ED19 1.89 1 P
ED19 3.69 1 S
ED21 2.44 1 P
ED21 4.74 1 S
ED22 2.18 1 P
ED22 4.24 1 S
ED23 3.24 1 P
ED23 6.28 1 S
# 2016 10 14 00 25 04.370 42.8690 13.0796 3.78 0.00 0 0 0 87
CESI 3.64 1 P
CESI 7.01 1 S
FDMO 3.28 1 P
FDMO 6.34 1 S
MC2 1.87 1 P
MC2 3.64 1 S
MMO1 3.58 1 P
MMO1 6.9 1 S
NRCA 1.07 1 P
NRCA 2.09 1 S
T1202 3.83 1 P
T1202 7.36 1 S
T1212 2.41 1 P
T1212 4.67 1 S
T1214 2.86 1 P
T1214 5.54 1 S
T1215 3.3 1 P
T1215 6.38 1 S
T1216 1.16 1 P
T1216 2.27 1 S
T1217 3.72 1 P
T1217 7.16 1 S
T1244 3.8 1 P
T1244 7.31 1 S
T1245 1.69 1 P
T1245 3.29 1 S
ED10 2.08 1 P
ED10 4.05 1 S
ED11 3.58 1 P
ED11 6.9 1 S
ED12 2 1 P
ED12 3.89 1 S
ED16 3.32 1 P
ED16 6.42 1 S
ED17 3.77 1 P
ED17 7.25 1 S
ED18 3.35 1 P
ED18 6.47 1 S
ED19 1.45 1 P
ED19 2.83 1 S
ED23 3.84 1 P
ED23 7.39 1 S
# 2016 10 14 00 25 19.680 42.8831 13.2583 4.01 -0.03 0 0 0 88
FDMO 3.85 1 P
FDMO 7.39 1 S
GUMA 3.67 1 P
GUMA 7.05 1 S
MC2 1.32 1 P
MC2 2.57 1 S
MMO1 1.23 1 P
MMO1 2.41 1 S
NRCA 2.35 1 P
NRCA 4.55 1 S
T1202 3.54 1 P
T1202 6.81 1 S
T1214 2.57 1 P
T1214 4.98 1 S
T1216 3.43 1 P
T1216 6.61 1 S
T1241 2.58 1 P
T1241 5 1 S
T1244 2.58 1 P
T1244 5 1 S
T1245 1.32 1 P
T1245 2.57 1 S
ED09 2.9 1 P
ED09 5.61 1 S
ED10 2.71 1 P
ED10 5.25 1 S
ED16 1.32 1 P
ED16 2.58 1 S
ED17 1.88 1 P
ED17 3.65 1 S
ED18 2.21 1 P
ED18 4.28 1 S
ED19 1.95 1 P
ED19 3.79 1 S
ED20 3.64 1 P
ED20 7 1 S
ED21 2.91 1 P
ED21 5.63 1 S
ED22 2.65 1 P
ED22 5.12 1 S
ED23 2.8 1 P
ED23 5.42 1 S
# 2016 10 14 00 25 28.880 42.8328 13.1553 9.35 0.42 0 0 0 89
MC2 2.19 1 P
MC2 4.13 1 S
MMO1 3.06 1 P
MMO1 5.77 1 S
NRCA 1.66 1 P
NRCA 3.14 1 S
T1202 3.01 1 P
T1202 5.67 1 S
T1204 3.95 1 P
T1204 7.42 1 S
T1212 2.64 1 P
T1212 4.98 1 S
T1214 2.19 1 P
T1214 4.14 1 S
T1216 2.65 1 P
T1216 5 1 S
T1218 3.44 1 P
T1218 6.46 1 S
T1244 2.86 1 P
T1244 5.38 1 S
T1245 1.68 1 P
T1245 3.18 1 S
ED09 4 1 P
ED09 7.52 1 S
ED10 1.88 1 P
ED10 3.56 1 S
ED11 3.51 1 P
ED11 6.6 1 S
ED12 2.92 1 P
ED12 5.5 1 S
ED16 2.59 1 P
ED16 4.88 1 S
ED17 3.58 1 P
ED17 6.73 1 S
ED18 3.53 1 P
ED18 6.64 1 S
ED19 2.25 1 P
ED19 4.26 1 S
ED23 2.9 1 P
ED23 5.46 1 S
ED24 3.66 1 P
ED24 6.88 1 S
# 2016 10 14 00 25 56.920 42.8685 13.0786 3.16 0.18 0 0 0 90
CESI 3.64 1 P
CESI 7.03 1 S
FDMO 3.29 1 P
FDMO 6.37 1 S
MC2 1.86 1 P
MC2 3.64 1 S
MMO1 3.6 1 P
MMO1 6.95 1 S
NRCA 1.02 1 P
NRCA 1.99 1 S
T1202 3.83 1 P
T1202 7.39 1 S
T1212 2.38 1 P
T1212 4.64 1 S
T1214 2.86 1 P
T1214 5.55 1 S
T1215 3.29 1 P
T1215 6.36 1 S
T1216 1.1 1 P
T1216 2.17 1 S
T1217 3.71 1 P
T1217 7.16 1 S
T1244 3.81 1 P
T1244 7.35 1 S
T1245 1.67 1 P
T1245 3.27 1 S
ED10 2.06 1 P
ED10 4.03 1 S
ED11 3.57 1 P
ED11 6.9 1 S
ED12 1.96 1 P
ED12 3.83 1 S
ED16 3.33 1 P
ED16 6.46 1 S
ED17 3.79 1 P
ED17 7.31 1 S
ED18 3.37 1 P
ED18 6.52 1 S
ED19 1.43 1 P
ED19 2.8 1 S
ED23 3.85 1 P
ED23 7.42 1 S
# 2016 10 14 00 26 00.150 42.8685 13.0786 3.16 0.14 0 0 0 91
CESI 3.64 1 P
CESI 7.03 1 S
FDMO 3.29 1 P
FDMO 6.37 1 S
MC2 1.86 1 P
MC2 3.64 1 S
MMO1 3.6 1 P
MMO1 6.95 1 S
NRCA 1.02 1 P
NRCA 1.99 1 S
T1202 3.83 1 P
T1202 7.39 1 S
T1212 2.38 1 P
T1212 4.64 1 S
T1214 2.86 1 P
T1214 5.55 1 S
T1215 3.29 1 P
T1215 6.36 1 S
T1216 1.1 1 P
T1216 2.17 1 S
T1217 3.71 1 P
T1217 7.16 1 S
T1244 3.81 1 P
T1244 7.35 1 S
T1245 1.67 1 P
T1245 3.27 1 S
ED10 2.06 1 P
ED10 4.03 1 S
ED11 3.57 1 P
ED11 6.9 1 S
ED12 1.96 1 P
ED12 3.83 1 S
ED16 3.33 1 P
ED16 6.46 1 S
ED17 3.79 1 P
ED17 7.31 1 S
ED18 3.37 1 P
ED18 6.52 1 S
ED19 1.43 1 P
ED19 2.8 1 S
ED23 3.85 1 P
ED23 7.42 1 S
# 2016 10 14 00 26 09.340 42.8658 13.2400 4.48 0.06 0 0 0 92
MC2 1.37 1 P
MC2 2.67 1 S
MMO1 1.58 1 P
MMO1 3.07 1 S
NRCA 2.03 1 P
NRCA 3.92 1 S
T1202 3.2 1 P
T1202 6.16 1 S
T1204 3.85 1 P
T1204 7.38 1 S
T1212 3.58 1 P
T1212 6.87 1 S
T1214 2.22 1 P
T1214 4.3 1 S
T1216 3.22 1 P
T1216 6.2 1 S
T1241 2.8 1 P
T1241 5.39 1 S
T1244 2.37 1 P
T1244 4.58 1 S
T1245 1.08 1 P
T1245 2.1 1 S
ED09 2.97 1 P
ED09 5.72 1 S
ED10 2.33 1 P
ED10 4.5 1 S
ED16 1.34 1 P
ED16 2.6 1 S
ED17 2.28 1 P
ED17 4.41 1 S
ED18 2.53 1 P
ED18 4.88 1 S
ED19 1.92 1 P
ED19 3.71 1 S
ED20 3.61 1 P
ED20 6.93 1 S
ED21 3.26 1 P
ED21 6.27 1 S
ED22 3.05 1 P
ED22 5.86 1 S
ED23 2.56 1 P
ED23 4.94 1 S
# 2016 10 14 00 26 21.150 42.8129 13.2134 6.21 0.04 0 0 0 93
MC2 2.17 1 P
MC2 4.15 1 S
MMO1 2.5 1 P
MMO1 4.78 1 S
NRCA 1.78 1 P
NRCA 3.41 1 S
T1202 2.33 1 P
T1202 4.46 1 S
T1204 3.14 1 P
T1204 5.98 1 S
T1212 2.82 1 P
T1212 5.38 1 S
T1214 1.47 1 P
T1214 2.81 1 S
T1216 3.24 1 P
T1216 6.17 1 S
T1218 3.2 1 P
T1218 6.1 1 S
T1241 3.3 1 P
T1241 6.28 1 S
T1244 1.9 1 P
T1244 3.64 1 S
T1245 1.39 1 P
T1245 2.67 1 S
T1299 3.66 1 P
T1299 6.95 1 S
ED09 3.11 1 P
ED09 5.92 1 S
ED10 1.61 1 P
ED10 3.09 1 S
ED11 3.58 1 P
ED11 6.81 1 S
ED12 3.44 1 P
ED12 6.54 1 S
ED16 1.74 1 P
ED16 3.34 1 S
ED17 3.34 1 P
ED17 6.36 1 S
ED18 3.55 1 P
ED18 6.75 1 S
ED19 2.5 1 P
ED19 4.78 1 S
ED20 3.47 1 P
ED20 6.59 1 S
ED23 1.98 1 P
ED23 3.79 1 S
ED24 3.16 1 P
ED24 6.03 1 S
# 2016 10 14 00 26 31.260 42.7883 13.1297 0.02 0.00 0 0 0 94
MC2 2.65 1 P
MC2 5.26 1 S
MMO1 3.66 1 P
MMO1 7.25 1 S
NRCA 0.97 1 P
NRCA 1.88 1 S
T1202 2.25 1 P
T1202 4.43 1 S
T1204 3.57 1 P
T1204 7.07 1 S
T1212 1.5 1 P
T1212 2.93 1 S
T1214 1.34 1 P
T1214 2.61 1 S
T1215 3.85 1 P
T1215 7.6 1 S
T1216 2.65 1 P
T1216 5.27 1 S
T1217 3.32 1 P
T1217 6.59 1 S
T1218 2.42 1 P
T1218 4.79 1 S
T1244 2.59 1 P
T1244 5.13 1 S
T1245 1.66 1 P
T1245 3.25 1 S
T1299 3.82 1 P
T1299 7.55 1 S
ED03 3.82 1 P
ED03 7.55 1 S
ED10 0.29 1 P
ED10 0.57 1 S
ED11 2.49 1 P
ED11 4.93 1 S
ED12 2.31 1 P
ED12 4.57 1 S
ED16 2.82 1 P
ED16 5.6 1 S
ED19 2.67 1 P
ED19 5.3 1 S
ED23 2.52 1 P
ED23 5 1 S
ED24 2.85 1 P
ED24 5.66 1 S
# 2016 10 14 00 26 34.590 42.8184 13.3458 16.25 0.29 0 0 0 95
MC2 3.72 1 P
MC2 6.95 1 S
MMO1 3.01 1 P
MMO1 5.62 1 S
NRCA 4.02 1 P
NRCA 7.5 1 S
SMA1 4.26 1 P
SMA1 7.95 1 S
T1202 3.69 1 P
T1202 6.89 1 S
T1204 3.67 1 P
T1204 6.86 1 S
T1214 3.35 1 P
T1214 6.26 1 S
T1241 2.93 1 P
T1241 5.48 1 S
T1244 2.91 1 P
T1244 5.44 1 S
T1245 3.41 1 P
T1245 6.37 1 S
T1299 4.29 1 P
T1299 8 1 S
ED09 2.83 1 P
ED09 5.3 1 S
ED10 3.82 1 P
ED10 7.14 1 S
ED16 2.69 1 P
ED16 5.03 1 S
ED17 3.75 1 P
ED17 7 1 S
ED18 4.27 1 P
ED18 7.96 1 S
ED19 4.18 1 P
ED19 7.79 1 S
ED20 3.13 1 P
ED20 5.85 1 S
ED22 4.27 1 P
ED22 7.97 1 S
ED23 3.05 1 P
ED23 5.69 1 S
ED24 4.4 1 P
ED24 8.21 1 S
# 2016 10 14 00 26 43.700 42.8658 13.2400 4.48 0.00 0 0 0 96
MC2 1.37 1 P
MC2 2.67 1 S
MMO1 1.58 1 P
MMO1 3.07 1 S
NRCA 2.03 1 P
NRCA 3.92 1 S
T1202 3.2 1 P
T1202 6.16 1 S
T1204 3.85 1 P
T1204 7.38 1 S
T1212 3.58 1 P
T1212 6.87 1 S
T1214 2.22 1 P
T1214 4.3 1 S
T1216 3.22 1 P
T1216 6.2 1 S
T1241 2.8 1 P
T1241 5.39 1 S
T1244 2.37 1 P
T1244 4.58 1 S
T1245 1.08 1 P
T1245 2.1 1 S
ED09 2.97 1 P
ED09 5.72 1 S
ED10 2.33 1 P
ED10 4.5 1 S
ED16 1.34 1 P
ED16 2.6 1 S
ED17 2.28 1 P
ED17 4.41 1 S
ED18 2.53 1 P
ED18 4.88 1 S
ED19 1.92 1 P
ED19 3.71 1 S
ED20 3.61 1 P
ED20 6.93 1 S
ED21 3.26 1 P
ED21 6.27 1 S
ED22 3.05 1 P
ED22 5.86 1 S
ED23 2.56 1 P
ED23 4.94 1 S
# 2016 10 14 00 27 29.030 42.7990 13.2412 2.58 0.00 0 0 0 97
MC2 2.36 1 P
MC2 4.63 1 S
MMO1 2.36 1 P
MMO1 4.62 1 S
NRCA 2 1 P
NRCA 3.92 1 S
SMA1 3.56 1 P
SMA1 6.9 1 S
T1202 1.94 1 P
T1202 3.81 1 S
T1204 2.67 1 P
T1204 5.21 1 S
T1212 2.99 1 P
T1212 5.82 1 S
T1214 1.02 1 P
T1214 2 1 S
T1216 3.65 1 P
T1216 7.08 1 S
T1218 3.12 1 P
T1218 6.07 1 S
T1241 2.97 1 P
T1241 5.78 1 S
T1244 1.25 1 P
T1244 2.46 1 S
T1245 1.44 1 P
T1245 2.84 1 S
T1299 3.29 1 P
T1299 6.38 1 S
ED03 3.89 1 P
ED03 7.52 1 S
ED09 2.65 1 P
ED09 5.18 1 S
ED10 1.57 1 P
ED10 3.09 1 S
ED11 3.68 1 P
ED11 7.13 1 S
ED12 3.78 1 P
ED12 7.32 1 S
ED16 1.29 1 P
ED16 2.55 1 S
ED17 3.41 1 P
ED17 6.61 1 S
ED18 3.75 1 P
ED18 7.27 1 S
ED19 2.8 1 P
ED19 5.47 1 S
ED20 2.98 1 P
ED20 5.79 1 S
ED23 1.36 1 P
ED23 2.68 1 S
ED24 2.91 1 P
ED24 5.68 1 S
# 2016 10 14 00 27 40.630 42.8944 13.2383 3.99 -0.00 0 0 0 98
CSP1 3.87 1 P
CSP1 7.43 1 S
FDMO 3.52 1 P
FDMO 6.77 1 S
GUMA 3.56 1 P
GUMA 6.86 1 S
MC2 1.04 1 P
MC2 2.02 1 S
MMO1 1.43 1 P
MMO1 2.79 1 S
NRCA 2.22 1 P
NRCA 4.3 1 S
T1202 3.72 1 P
T1202 7.16 1 S
T1214 2.71 1 P
T1214 5.25 1 S
T1216 3.16 1 P
T1216 6.09 1 S
T1241 2.89 1 P
T1241 5.59 1 S
T1244 2.85 1 P
T1244 5.52 1 S
T1245 1.23 1 P
T1245 2.4 1 S
ED09 3.25 1 P
ED09 6.26 1 S
ED10 2.73 1 P
ED10 5.27 1 S
ED16 1.63 1 P
ED16 3.17 1 S
ED17 1.83 1 P
ED17 3.56 1 S
ED18 2 1 P
ED18 3.88 1 S
ED19 1.64 1 P
ED19 3.18 1 S
ED21 2.74 1 P
ED21 5.3 1 S
ED22 2.58 1 P
ED22 4.99 1 S
ED23 3.06 1 P
ED23 5.91 1 S
# 2016 10 14 00 28 14.400 42.7439 13.1846 3.93 0.39 0 0 0 99
MC2 3.28 1 P
MC2 6.33 1 S
MMO1 3.65 1 P
MMO1 7.02 1 S
NRCA 2.11 1 P
NRCA 4.09 1 S
SMA1 3.12 1 P
SMA1 6.02 1 S
T1202 1.18 1 P
T1202 2.31 1 S
T1204 2.38 1 P
T1204 4.61 1 S
T1212 2.1 1 P
T1212 4.08 1 S
T1214 0.82 1 P
T1214 1.61 1 S
T1216 3.71 1 P
T1216 7.14 1 S
T1217 3.68 1 P
T1217 7.08 1 S
T1218 1.86 1 P
T1218 3.62 1 S
T1244 1.76 1 P
T1244 3.43 1 S
T1245 2.27 1 P
T1245 4.41 1 S
T1299 2.61 1 P
T1299 5.06 1 S
ED03 2.79 1 P
ED03 5.4 1 S
ED04 3.68 1 P
ED04 7.07 1 S
ED09 3.59 1 P
ED09 6.92 1 S
ED10 1.12 1 P
ED10 2.19 1 S
ED11 2.48 1 P
ED11 4.81 1 S
ED12 3.23 1 P
ED12 6.23 1 S
ED16 2.58 1 P
ED16 5 1 S
ED19 3.49 1 P
ED19 6.73 1 S
ED20 3.59 1 P
ED20 6.92 1 S
ED23 1.61 1 P
ED23 3.13 1 S
ED24 1.84 1 P
ED24 3.57 1 S
ED25 3.7 1 P
ED25 7.13 1 S
# 2016 10 14 00 28 25.340 42.7435 13.1846 3.93 0.92 0 0 0 100
MC2 3.29 1 P
MC2 6.35 1 S
MMO1 3.65 1 P
MMO1 7.03 1 S
NRCA 2.11 1 P
NRCA 4.1 1 S
SMA1 3.11 1 P
SMA1 6.01 1 S
T1202 1.18 1 P
T1202 2.3 1 S
T1204 2.38 1 P
T1204 4.61 1 S
T1212 2.1 1 P
T1212 4.08 1 S
T1214 0.83 1 P
T1214 1.61 1 S
T1216 3.72 1 P
T1216 7.15 1 S
T1217 3.68 1 P
T1217 7.07 1 S
T1218 1.86 1 P
T1218 3.61 1 S
T1244 1.76 1 P
T1244 3.43 1 S
T1245 2.28 1 P
T1245 4.43 1 S
T1299 2.6 1 P
T1299 5.04 1 S
ED03 2.79 1 P
ED03 5.39 1 S
ED04 3.67 1 P
ED04 7.06 1 S
ED09 3.6 1 P
ED09 6.92 1 S
ED10 1.13 1 P
ED10 2.2 1 S
ED11 2.48 1 P
ED11 4.81 1 S
ED12 3.23 1 P
ED12 6.23 1 S
ED16 2.59 1 P
ED16 5.01 1 S
ED19 3.5 1 P
ED19 6.74 1 S
ED20 3.59 1 P
ED20 6.92 1 S
ED23 1.61 1 P
ED23 3.13 1 S
ED24 1.83 1 P
ED24 3.56 1 S
ED25 3.7 1 P
ED25 7.12 1 S
# 2016 10 14 00 29 12.050 42.8035 13.1397 6.41 0.01 0 0 0 101
MC2 2.41 1 P
MC2 4.6 1 S
MMO1 3.34 1 P
MMO1 6.34 1 S
NRCA 1.28 1 P
NRCA 2.46 1 S
T1202 2.48 1 P
T1202 4.73 1 S
T1204 3.6 1 P
T1204 6.83 1 S
T1212 1.97 1 P
T1212 3.78 1 S
T1214 1.67 1 P
T1214 3.21 1 S
T1215 3.9 1 P
T1215 7.39 1 S
T1216 2.59 1 P
T1216 4.94 1 S
T1217 3.53 1 P
T1217 6.7 1 S
T1218 2.77 1 P
T1218 5.27 1 S
T1244 2.6 1 P
T1244 4.96 1 S
T1245 1.63 1 P
T1245 3.12 1 S
T1299 3.9 1 P
T1299 7.39 1 S
ED10 1.2 1 P
ED10 2.3 1 S
ED11 2.84 1 P
ED11 5.41 1 S
ED12 2.5 1 P
ED12 4.78 1 S
ED16 2.64 1 P
ED16 5.03 1 S
ED19 2.45 1 P
ED19 4.68 1 S
ED23 2.58 1 P
ED23 4.92 1 S
ED24 3.08 1 P
ED24 5.86 1 S
# 2016 10 14 00 29 18.470 42.8184 13.3458 16.25 0.43 0 0 0 102
MC2 3.72 1 P
MC2 6.95 1 S
MMO1 3.01 1 P
MMO1 5.62 1 S
NRCA 4.02 1 P
NRCA 7.5 1 S
SMA1 4.26 1 P
SMA1 7.95 1 S
T1202 3.69 1 P
T1202 6.89 1 S
T1204 3.67 1 P
T1204 6.86 1 S
T1214 3.35 1 P
T1214 6.26 1 S
T1241 2.93 1 P
T1241 5.48 1 S
T1244 2.91 1 P
T1244 5.44 1 S
T1245 3.41 1 P
T1245 6.37 1 S
T1299 4.29 1 P
T1299 8 1 S
ED09 2.83 1 P
ED09 5.3 1 S
ED10 3.82 1 P
ED10 7.14 1 S
ED16 2.69 1 P
ED16 5.03 1 S
ED17 3.75 1 P
ED17 7 1 S
ED18 4.27 1 P
ED18 7.96 1 S
ED19 4.18 1 P
ED19 7.79 1 S
ED20 3.13 1 P
ED20 5.85 1 S
ED22 4.27 1 P
ED22 7.97 1 S
ED23 3.05 1 P
ED23 5.69 1 S
ED24 4.4 1 P
ED24 8.21 1 S
# 2016 10 14 00 29 29.580 42.8965 13.2389 4.01 0.14 0 0 0 103
CSP1 3.83 1 P
CSP1 7.36 1 S
FDMO 3.49 1 P
FDMO 6.72 1 S
GUMA 3.53 1 P
GUMA 6.79 1 S
MC2 1.03 1 P
MC2 2.01 1 S
MMO1 1.43 1 P
MMO1 2.78 1 S
NRCA 2.25 1 P
NRCA 4.35 1 S
T1202 3.76 1 P
T1202 7.23 1 S
T1214 2.75 1 P
T1214 5.33 1 S
T1216 3.17 1 P
T1216 6.11 1 S
T1241 2.9 1 P
T1241 5.6 1 S
T1244 2.89 1 P
T1244 5.58 1 S
T1245 1.27 1 P
T1245 2.46 1 S
ED09 3.26 1 P
ED09 6.29 1 S
ED10 2.76 1 P
ED10 5.34 1 S
ED16 1.65 1 P
ED16 3.21 1 S
ED17 1.8 1 P
ED17 3.5 1 S
ED18 1.96 1 P
ED18 3.8 1 S
ED19 1.63 1 P
ED19 3.18 1 S
ED21 2.7 1 P
ED21 5.22 1 S
ED22 2.54 1 P
ED22 4.92 1 S
ED23 3.1 1 P
ED23 5.98 1 S
# 2016 10 14 00 29 34.630 42.7370 13.1897 3.98 0.28 0 0 0 104
MC2 3.41 1 P
MC2 6.57 1 S
MMO1 3.72 1 P
MMO1 7.15 1 S
NRCA 2.25 1 P
NRCA 4.37 1 S
SMA1 2.98 1 P
SMA1 5.75 1 S
T1202 1.07 1 P
T1202 2.09 1 S
T1204 2.25 1 P
T1204 4.37 1 S
T1212 2.18 1 P
T1212 4.23 1 S
T1214 0.86 1 P
T1214 1.68 1 S
T1216 3.85 1 P
T1216 7.4 1 S
T1217 3.73 1 P
T1217 7.17 1 S
T1218 1.81 1 P
T1218 3.51 1 S
T1244 1.72 1 P
T1244 3.35 1 S
T1245 2.4 1 P
T1245 4.65 1 S
T1299 2.47 1 P
T1299 4.78 1 S
ED03 2.67 1 P
ED03 5.16 1 S
ED04 3.53 1 P
ED04 6.8 1 S
ED09 3.57 1 P
ED09 6.87 1 S
ED10 1.25 1 P
ED10 2.43 1 S
ED11 2.49 1 P
ED11 4.83 1 S
ED12 3.34 1 P
ED12 6.44 1 S
ED16 2.63 1 P
ED16 5.09 1 S
ED19 3.63 1 P
ED19 6.99 1 S
ED20 3.53 1 P
ED20 6.79 1 S
ED23 1.55 1 P
ED23 3.01 1 S
ED24 1.72 1 P
ED24 3.34 1 S
ED25 3.56 1 P
ED25 6.86 1 S
# 2016 10 14 00 29 55.130 42.8023 13.1570 1.75 0.12 0 0 0 105
MC2 2.23 1 P
MC2 4.41 1 S
MMO1 3.12 1 P
MMO1 6.11 1 S
NRCA 0.94 1 P
NRCA 1.86 1 S
T1202 2.21 1 P
T1202 4.37 1 S
T1204 3.4 1 P
T1204 6.64 1 S
T1212 1.94 1 P
T1212 3.85 1 S
T1214 1.18 1 P
T1214 2.34 1 S
T1216 2.67 1 P
T1216 5.26 1 S
T1217 3.71 1 P
T1217 7.22 1 S
T1218 2.7 1 P
T1218 5.31 1 S
T1244 2.25 1 P
T1244 4.46 1 S
T1245 1.21 1 P
T1245 2.4 1 S
T1299 3.76 1 P
T1299 7.32 1 S
ED09 3.84 1 P
ED09 7.47 1 S
ED10 0.64 1 P
ED10 1.26 1 S
ED11 2.88 1 P
ED11 5.67 1 S
ED12 2.62 1 P
ED12 5.17 1 S
ED16 2.3 1 P
ED16 4.56 1 S
ED17 3.88 1 P
ED17 7.54 1 S
ED18 3.91 1 P
ED18 7.6 1 S
ED19 2.35 1 P
ED19 4.65 1 S
ED23 2.24 1 P
ED23 4.44 1 S
ED24 2.95 1 P
ED24 5.79 1 S
# 2016 10 14 00 30 00.120 42.7435 13.1846 3.93 0.34 0 0 0 106
MC2 3.29 1 P
MC2 6.35 1 S
MMO1 3.65 1 P
MMO1 7.03 1 S
NRCA 2.11 1 P
NRCA 4.1 1 S
SMA1 3.11 1 P
SMA1 6.01 1 S
T1202 1.18 1 P
T1202 2.3 1 S
T1204 2.38 1 P
T1204 4.61 1 S
T1212 2.1 1 P
T1212 4.08 1 S
T1214 0.83 1 P
T1214 1.61 1 S
T1216 3.72 1 P
T1216 7.15 1 S
T1217 3.68 1 P
T1217 7.07 1 S
T1218 1.86 1 P
T1218 3.61 1 S
T1244 1.76 1 P
T1244 3.43 1 S
T1245 2.28 1 P
T1245 4.43 1 S
T1299 2.6 1 P
T1299 5.04 1 S
ED03 2.79 1 P
ED03 5.39 1 S
ED04 3.67 1 P
ED04 7.06 1 S
ED09 3.6 1 P
ED09 6.92 1 S
ED10 1.13 1 P
ED10 2.2 1 S
ED11 2.48 1 P
ED11 4.81 1 S
ED12 3.23 1 P
ED12 6.23 1 S
ED16 2.59 1 P
ED16 5.01 1 S
ED19 3.5 1 P
ED19 6.74 1 S
ED20 3.59 1 P
ED20 6.92 1 S
ED23 1.61 1 P
ED23 3.13 1 S
ED24 1.83 1 P
ED24 3.56 1 S
ED25 3.7 1 P
ED25 7.12 1 S
# 2016 10 14 00 30 32.110 42.7474 13.1902 6.35 -0.06 0 0 0 107
MC2 3.28 1 P
MC2 6.23 1 S
MMO1 3.59 1 P
MMO1 6.83 1 S
NRCA 2.22 1 P
NRCA 4.25 1 S
SMA1 3.17 1 P
SMA1 6.04 1 S
T1202 1.45 1 P
T1202 2.77 1 S
T1204 2.46 1 P
T1204 4.71 1 S
T1212 2.29 1 P
T1212 4.38 1 S
T1214 1.14 1 P
T1214 2.18 1 S
T1216 3.75 1 P
T1216 7.11 1 S
T1217 3.8 1 P
T1217 7.2 1 S
T1218 2.1 1 P
T1218 4.01 1 S
T1244 1.85 1 P
T1244 3.55 1 S
T1245 2.33 1 P
T1245 4.45 1 S
T1299 2.71 1 P
T1299 5.18 1 S
ED03 2.93 1 P
ED03 5.59 1 S
ED04 3.74 1 P
ED04 7.09 1 S
ED09 3.55 1 P
ED09 6.74 1 S
ED10 1.4 1 P
ED10 2.68 1 S
ED11 2.67 1 P
ED11 5.1 1 S
ED12 3.33 1 P
ED12 6.33 1 S
ED16 2.58 1 P
ED16 4.93 1 S
ED19 3.49 1 P
ED19 6.63 1 S
ED20 3.56 1 P
ED20 6.76 1 S
ED23 1.73 1 P
ED23 3.31 1 S
ED24 2.04 1 P
ED24 3.91 1 S
ED25 3.74 1 P
ED25 7.1 1 S
# 2016 10 14 00 30 54.340 42.7383 13.1876 3.80 0.00 0 0 0 108
MC2 3.39 1 P
MC2 6.53 1 S
MMO1 3.71 1 P
MMO1 7.15 1 S
NRCA 2.21 1 P
NRCA 4.29 1 S
SMA1 3.01 1 P
SMA1 5.83 1 S
T1202 1.08 1 P
T1202 2.11 1 S
T1204 2.29 1 P
T1204 4.44 1 S
T1212 2.15 1 P
T1212 4.17 1 S
T1214 0.84 1 P
T1214 1.63 1 S
T1216 3.82 1 P
T1216 7.34 1 S
T1217 3.7 1 P
T1217 7.13 1 S
T1218 1.8 1 P
T1218 3.5 1 S
T1244 1.74 1 P
T1244 3.38 1 S
T1245 2.37 1 P
T1245 4.6 1 S
T1299 2.5 1 P
T1299 4.85 1 S
ED03 2.69 1 P
ED03 5.21 1 S
ED04 3.57 1 P
ED04 6.87 1 S
ED09 3.59 1 P
ED09 6.91 1 S
ED10 1.2 1 P
ED10 2.34 1 S
ED11 2.47 1 P
ED11 4.8 1 S
ED12 3.31 1 P
ED12 6.38 1 S
ED16 2.63 1 P
ED16 5.09 1 S
ED19 3.6 1 P
ED19 6.94 1 S
ED20 3.56 1 P
ED20 6.85 1 S
ED23 1.56 1 P
ED23 3.05 1 S
ED24 1.73 1 P
ED24 3.37 1 S
ED25 3.6 1 P
ED25 6.93 1 S
# 2016 10 14 00 31 11.230 42.8603 13.0652 7.83 0.10 0 0 0 109
CESI 3.72 1 P
CESI 7.01 1 S
FDMO 3.56 1 P
FDMO 6.71 1 S
MC2 2.35 1 P
MC2 4.46 1 S
MMO1 3.88 1 P
MMO1 7.31 1 S
NRCA 1.57 1 P
NRCA 2.98 1 S
T1202 3.88 1 P
T1202 7.31 1 S
T1212 2.44 1 P
T1212 4.63 1 S
T1214 3.03 1 P
T1214 5.72 1 S
T1215 3.19 1 P
T1215 6.03 1 S
T1216 1.57 1 P
T1216 2.99 1 S
T1217 3.57 1 P
T1217 6.74 1 S
T1218 3.85 1 P
T1218 7.25 1 S
T1244 3.95 1 P
T1244 7.43 1 S
T1245 2.14 1 P
T1245 4.06 1 S
ED10 2.29 1 P
ED10 4.35 1 S
ED11 3.5 1 P
ED11 6.6 1 S
ED12 2.05 1 P
ED12 3.9 1 S
ED16 3.59 1 P
ED16 6.77 1 S
ED18 3.69 1 P
ED18 6.96 1 S
ED19 2 1 P
ED19 3.8 1 S
# 2016 10 14 00 31 23.100 42.7990 13.2412 2.58 0.06 0 0 0 110
MC2 2.36 1 P
MC2 4.63 1 S
MMO1 2.36 1 P
MMO1 4.62 1 S
NRCA 2 1 P
NRCA 3.92 1 S
SMA1 3.56 1 P
SMA1 6.9 1 S
T1202 1.94 1 P
T1202 3.81 1 S
T1204 2.67 1 P
T1204 5.21 1 S
T1212 2.99 1 P
T1212 5.82 1 S
T1214 1.02 1 P
T1214 2 1 S
T1216 3.65 1 P
T1216 7.08 1 S
T1218 3.12 1 P
T1218 6.07 1 S
T1241 2.97 1 P
T1241 5.78 1 S
T1244 1.25 1 P
T1244 2.46 1 S
T1245 1.44 1 P
T1245 2.84 1 S
T1299 3.29 1 P
T1299 6.38 1 S
ED03 3.89 1 P
ED03 7.52 1 S
ED09 2.65 1 P
ED09 5.18 1 S
ED10 1.57 1 P
ED10 3.09 1 S
ED11 3.68 1 P
ED11 7.13 1 S
ED12 3.78 1 P
ED12 7.32 1 S
ED16 1.29 1 P
ED16 2.55 1 S
ED17 3.41 1 P
ED17 6.61 1 S
ED18 3.75 1 P
ED18 7.27 1 S
ED19 2.8 1 P
ED19 5.47 1 S
ED20 2.98 1 P
ED20 5.79 1 S
ED23 1.36 1 P
ED23 2.68 1 S
ED24 2.91 1 P
ED24 5.68 1 S
# 2016 10 14 00 32 05.780 42.7845 13.1275 2.17 0.00 0 0 0 111
MC2 2.67 1 P
MC2 5.24 1 S
MMO1 3.64 1 P
MMO1 7.07 1 S
NRCA 1.06 1 P
NRCA 2.1 1 S
T1202 2.16 1 P
T1202 4.26 1 S
T1204 3.46 1 P
T1204 6.73 1 S
T1212 1.42 1 P
T1212 2.81 1 S
T1214 1.33 1 P
T1214 2.64 1 S
T1215 3.74 1 P
T1215 7.25 1 S
T1216 2.63 1 P
T1216 5.16 1 S
T1217 3.18 1 P
T1217 6.19 1 S
T1218 2.29 1 P
T1218 4.51 1 S
T1244 2.54 1 P
T1244 4.99 1 S
T1245 1.71 1 P
T1245 3.38 1 S
T1299 3.69 1 P
T1299 7.16 1 S
ED03 3.67 1 P
ED03 7.12 1 S
ED10 0.46 1 P
ED10 0.91 1 S
ED11 2.36 1 P
ED11 4.64 1 S
ED12 2.24 1 P
ED12 4.42 1 S
ED16 2.81 1 P
ED16 5.5 1 S
ED19 2.68 1 P
ED19 5.26 1 S
ED23 2.47 1 P
ED23 4.85 1 S
ED24 2.72 1 P
ED24 5.33 1 S
# 2016 10 14 00 32 46.130 42.7350 13.1852 4.64 0.10 0 0 0 112
MC2 3.46 1 P
MC2 6.63 1 S
MMO1 3.79 1 P
MMO1 7.25 1 S
NRCA 2.28 1 P
NRCA 4.4 1 S
SMA1 3.01 1 P
SMA1 5.79 1 S
T1202 1.15 1 P
T1202 2.23 1 S
T1204 2.31 1 P
T1204 4.46 1 S
T1212 2.16 1 P
T1212 4.17 1 S
T1214 0.99 1 P
T1214 1.92 1 S
T1216 3.85 1 P
T1216 7.37 1 S
T1217 3.67 1 P
T1217 7.03 1 S
T1218 1.78 1 P
T1218 3.45 1 S
T1244 1.83 1 P
T1244 3.53 1 S
T1245 2.46 1 P
T1245 4.74 1 S
T1299 2.49 1 P
T1299 4.81 1 S
ED03 2.65 1 P
ED03 5.11 1 S
ED04 3.53 1 P
ED04 6.78 1 S
ED09 3.65 1 P
ED09 6.99 1 S
ED10 1.3 1 P
ED10 2.51 1 S
ED11 2.45 1 P
ED11 4.72 1 S
ED12 3.31 1 P
ED12 6.36 1 S
ED16 2.71 1 P
ED16 5.23 1 S
ED19 3.66 1 P
ED19 7.02 1 S
ED20 3.6 1 P
ED20 6.9 1 S
ED23 1.65 1 P
ED23 3.2 1 S
ED24 1.72 1 P
ED24 3.34 1 S
ED25 3.58 1 P
ED25 6.87 1 S
