# 2016 10 14 00 15 20.230 42.9142 13.2446 3.30 0.00 0 0 0 56
CSP1 3.51 1 P
CSP1 6.79 1 S
FDMO 3.29 1 P
FDMO 6.36 1 S
GUMA 3.19 1 P
GUMA 6.17 1 S
MC2 0.98 1 P
MC2 1.93 1 S
MMO1 1.34 1 P
MMO1 2.62 1 S
NRCA 2.49 1 P
NRCA 4.84 1 S
T1214 3.08 1 P
T1214 5.97 1 S
T1216 3.27 1 P
T1216 6.33 1 S
T1241 2.92 1 P
T1241 5.67 1 S
T1244 3.18 1 P
T1244 6.15 1 S
T1245 1.5 1 P
T1245 2.93 1 S
ED09 3.4 1 P
ED09 6.57 1 S
ED10 3.08 1 P
ED10 5.96 1 S
ED16 1.83 1 P
ED16 3.58 1 S
ED17 1.47 1 P
ED17 2.88 1 S
ED18 1.61 1 P
ED18 3.15 1 S
ED19 1.61 1 P
ED19 3.15 1 S
ED21 2.35 1 P
ED21 4.58 1 S
ED22 2.2 1 P
ED22 4.3 1 S
ED23 3.4 1 P
ED23 6.57 1 S
# 2016 10 14 00 16 15.670 42.8523 13.2503 3.60 0.00 0 0 0 57
MC2 1.57 1 P
MC2 3.06 1 S
MMO1 1.55 1 P
MMO1 3.03 1 S
NRCA 2.06 1 P
NRCA 4.01 1 S
T1202 2.95 1 P
T1202 5.72 1 S
T1204 3.57 1 P
T1204 6.88 1 S
T1212 3.54 1 P
T1212 6.83 1 S
T1214 1.99 1 P
T1214 3.88 1 S
T1216 3.4 1 P
T1216 6.56 1 S
T1241 2.63 1 P
T1241 5.11 1 S
T1244 2.06 1 P
T1244 4.01 1 S
T1245 1.09 1 P
T1245 2.13 1 S
ED09 2.72 1 P
ED09 5.28 1 S
ED10 2.21 1 P
ED10 4.3 1 S
ED16 1.07 1 P
ED16 2.08 1 S
ED17 2.42 1 P
ED17 4.71 1 S
ED18 2.76 1 P
ED18 5.34 1 S
ED19 2.14 1 P
ED19 4.16 1 S
ED20 3.34 1 P
ED20 6.45 1 S
ED21 3.49 1 P
ED21 6.73 1 S
ED22 3.21 1 P
ED22 6.21 1 S
ED23 2.26 1 P
ED23 4.39 1 S
# 2016 10 14 00 16 35.360 42.7667 13.1698 7.89 -0.01 0 0 0 58
MC2 3.02 1 P
MC2 5.72 1 S
MMO1 3.54 1 P
MMO1 6.67 1 S
NRCA 1.98 1 P
NRCA 3.76 1 S
SMA1 3.66 1 P
SMA1 6.89 1 S
T1202 1.93 1 P
T1202 3.67 1 S
T1204 2.95 1 P
T1204 5.58 1 S
T1212 2.19 1 P
T1212 4.16 1 S
T1214 1.44 1 P
T1214 2.74 1 S
T1216 3.37 1 P
T1216 6.37 1 S
T1217 3.67 1 P
T1217 6.92 1 S
T1218 2.37 1 P
T1218 4.49 1 S
T1244 2.21 1 P
T1244 4.2 1 S
T1245 2.16 1 P
T1245 4.09 1 S
T1299 3.2 1 P
T1299 6.05 1 S
ED03 3.34 1 P
ED03 6.31 1 S
ED09 3.77 1 P
ED09 7.11 1 S
ED10 1.4 1 P
ED10 2.67 1 S
ED11 2.72 1 P
ED11 5.15 1 S
ED12 3.05 1 P
ED12 5.76 1 S
ED16 2.65 1 P
ED16 5.03 1 S
ED19 3.18 1 P
ED19 6 1 S
ED20 3.88 1 P
ED20 7.31 1 S
ED23 2.14 1 P
ED23 4.05 1 S
ED24 2.49 1 P
ED24 4.71 1 S
# 2016 10 14 00 16 54.790 42.6133 13.2623 8.68 -0.03 0 0 0 59
CAMP 2.87 1 P
CAMP 5.42 1 S
RM33 2.51 1 P
RM33 4.75 1 S
SMA1 1.8 1 P
SMA1 3.4 1 S
T1202 2.28 1 P
T1202 4.31 1 S
T1204 2.01 1 P
T1204 3.8 1 S
T1214 3.17 1 P
T1214 5.97 1 S
T1218 2.7 1 P
T1218 5.1 1 S
T1244 3.08 1 P
T1244 5.81 1 S
T1246 3.52 1 P
T1246 6.62 1 S
T1247 3.54 1 P
T1247 6.66 1 S
T1299 1.53 1 P
T1299 2.9 1 S
ED01 3.18 1 P
ED01 5.99 1 S
ED03 1.77 1 P
ED03 3.35 1 S
ED04 1.7 1 P
ED04 3.21 1 S
ED05 3.15 1 P
ED05 5.94 1 S
ED06 3.17 1 P
ED06 5.97 1 S
ED07 3.14 1 P
ED07 5.93 1 S
ED10 3.75 1 P
ED10 7.06 1 S
ED11 3.72 1 P
ED11 6.99 1 S
ED20 3.74 1 P
ED20 7.04 1 S
ED23 2.84 1 P
ED23 5.36 1 S
ED24 1.91 1 P
ED24 3.62 1 S
ED25 1.92 1 P
ED25 3.64 1 S
# 2016 10 14 00 17 10.360 42.8534 13.1554 2.97 0.72 0 0 0 60
FDMO 3.7 1 P
FDMO 7.15 1 S
MC2 1.34 1 P
MC2 2.63 1 S
MMO1 2.65 1 P
MMO1 5.15 1 S
NRCA 0.88 1 P
NRCA 1.73 1 S
T1202 3.11 1 P
T1202 6.03 1 S
T1212 2.58 1 P
T1212 5.03 1 S
T1214 2.05 1 P
T1214 4 1 S
T1216 2.14 1 P
T1216 4.18 1 S
T1218 3.62 1 P
T1218 7.01 1 S
T1244 2.81 1 P
T1244 5.46 1 S
T1245 0.7 1 P
T1245 1.39 1 S
ED10 1.59 1 P
ED10 3.12 1 S
ED11 3.66 1 P
ED11 7.08 1 S
ED12 2.74 1 P
ED12 5.34 1 S
ED16 2.25 1 P
ED16 4.39 1 S
ED17 3.12 1 P
ED17 6.05 1 S
ED18 3 1 P
ED18 5.82 1 S
ED19 1.41 1 P
ED19 2.78 1 S
ED21 3.82 1 P
ED21 7.38 1 S
ED22 3.84 1 P
ED22 7.42 1 S
ED23 2.89 1 P
ED23 5.61 1 S
ED24 3.88 1 P
ED24 7.5 1 S
# 2016 10 14 00 17 46.710 42.8831 13.2583 4.01 0.00 0 0 0 61
FDMO 3.85 1 P
FDMO 7.39 1 S
GUMA 3.67 1 P
GUMA 7.05 1 S
MC2 1.32 1 P
MC2 2.57 1 S
MMO1 1.23 1 P
MMO1 2.41 1 S
NRCA 2.35 1 P
NRCA 4.55 1 S
T1202 3.54 1 P
T1202 6.81 1 S
T1214 2.57 1 P
T1214 4.98 1 S
T1216 3.43 1 P
T1216 6.61 1 S
T1241 2.58 1 P
T1241 5 1 S
T1244 2.58 1 P
T1244 5 1 S
T1245 1.32 1 P
T1245 2.57 1 S
ED09 2.9 1 P
ED09 5.61 1 S
ED10 2.71 1 P
ED10 5.25 1 S
ED16 1.32 1 P
ED16 2.58 1 S
ED17 1.88 1 P
ED17 3.65 1 S
ED18 2.21 1 P
ED18 4.28 1 S
ED19 1.95 1 P
ED19 3.79 1 S
ED20 3.64 1 P
ED20 7 1 S
ED21 2.91 1 P
ED21 5.63 1 S
ED22 2.65 1 P
ED22 5.12 1 S
ED23 2.8 1 P
ED23 5.42 1 S
# 2016 10 14 00 17 54.280 42.8831 13.2583 4.01 -0.05 0 0 0 62
FDMO 3.85 1 P
FDMO 7.39 1 S
GUMA 3.67 1 P
GUMA 7.05 1 S
MC2 1.32 1 P
MC2 2.57 1 S
MMO1 1.23 1 P
MMO1 2.41 1 S
NRCA 2.35 1 P
NRCA 4.55 1 S
T1202 3.54 1 P
T1202 6.81 1 S
T1214 2.57 1 P
T1214 4.98 1 S
T1216 3.43 1 P
T1216 6.61 1 S
T1241 2.58 1 P
T1241 5 1 S
T1244 2.58 1 P
T1244 5 1 S
T1245 1.32 1 P
T1245 2.57 1 S
ED09 2.9 1 P
ED09 5.61 1 S
ED10 2.71 1 P
ED10 5.25 1 S
ED16 1.32 1 P
ED16 2.58 1 S
ED17 1.88 1 P
ED17 3.65 1 S
ED18 2.21 1 P
ED18 4.28 1 S
ED19 1.95 1 P
ED19 3.79 1 S
ED20 3.64 1 P
ED20 7 1 S
ED21 2.91 1 P
ED21 5.63 1 S
ED22 2.65 1 P
ED22 5.12 1 S
ED23 2.8 1 P
ED23 5.42 1 S
# 2016 10 14 00 18 13.740 42.8953 13.2414 3.48 0.03 0 0 0 63
CSP1 3.86 1 P
CSP1 7.43 1 S
FDMO 3.53 1 P
FDMO 6.81 1 S
GUMA 3.53 1 P
GUMA 6.82 1 S
MC2 1.01 1 P
MC2 1.98 1 S
MMO1 1.36 1 P
MMO1 2.66 1 S
NRCA 2.25 1 P
NRCA 4.37 1 S
T1202 3.74 1 P
T1202 7.21 1 S
T1214 2.73 1 P
T1214 5.29 1 S
T1216 3.2 1 P
T1216 6.18 1 S
T1241 2.85 1 P
T1241 5.53 1 S
T1244 2.85 1 P
T1244 5.52 1 S
T1245 1.23 1 P
T1245 2.41 1 S
ED09 3.22 1 P
ED09 6.22 1 S
ED10 2.75 1 P
ED10 5.34 1 S
ED16 1.59 1 P
ED16 3.1 1 S
ED17 1.77 1 P
ED17 3.46 1 S
ED18 1.96 1 P
ED18 3.82 1 S
ED19 1.64 1 P
ED19 3.21 1 S
ED21 2.71 1 P
ED21 5.25 1 S
ED22 2.53 1 P
ED22 4.92 1 S
ED23 3.06 1 P
ED23 5.93 1 S
# 2016 10 14 00 18 18.920 42.8831 13.2583 4.01 -0.12 0 0 0 64
FDMO 3.85 1 P
FDMO 7.39 1 S
GUMA 3.67 1 P
GUMA 7.05 1 S
MC2 1.32 1 P
MC2 2.57 1 S
MMO1 1.23 1 P
MMO1 2.41 1 S
NRCA 2.35 1 P
NRCA 4.55 1 S
T1202 3.54 1 P
T1202 6.81 1 S
T1214 2.57 1 P
T1214 4.98 1 S
T1216 3.43 1 P
T1216 6.61 1 S
T1241 2.58 1 P
T1241 5 1 S
T1244 2.58 1 P
T1244 5 1 S
T1245 1.32 1 P
T1245 2.57 1 S
ED09 2.9 1 P
ED09 5.61 1 S
ED10 2.71 1 P
ED10 5.25 1 S
ED16 1.32 1 P
ED16 2.58 1 S
ED17 1.88 1 P
ED17 3.65 1 S
ED18 2.21 1 P
ED18 4.28 1 S
ED19 1.95 1 P
ED19 3.79 1 S
ED20 3.64 1 P
ED20 7 1 S
ED21 2.91 1 P
ED21 5.63 1 S
ED22 2.65 1 P
ED22 5.12 1 S
ED23 2.8 1 P
ED23 5.42 1 S
# 2016 10 14 00 18 42.500 42.8587 13.1588 2.17 0.00 0 0 0 65
FDMO 3.63 1 P
FDMO 7.05 1 S
MC2 1.19 1 P
MC2 2.36 1 S
MMO1 2.57 1 P
MMO1 5.05 1 S
NRCA 0.9 1 P
NRCA 1.79 1 S
T1202 3.2 1 P
T1202 6.24 1 S
T1212 2.69 1 P
T1212 5.28 1 S
T1214 2.11 1 P
T1214 4.17 1 S
T1216 2.15 1 P
T1216 4.23 1 S
T1218 3.75 1 P
T1218 7.27 1 S
T1241 3.9 1 P
T1241 7.57 1 S
T1244 2.85 1 P
T1244 5.57 1 S
T1245 0.58 1 P
T1245 1.14 1 S
ED10 1.67 1 P
ED10 3.31 1 S
ED11 3.79 1 P
ED11 7.35 1 S
ED12 2.83 1 P
ED12 5.54 1 S
ED16 2.21 1 P
ED16 4.36 1 S
ED17 3.02 1 P
ED17 5.91 1 S
ED18 2.89 1 P
ED18 5.66 1 S
ED19 1.3 1 P
ED19 2.56 1 S
ED21 3.73 1 P
ED21 7.24 1 S
ED22 3.75 1 P
ED22 7.28 1 S
ED23 2.94 1 P
ED23 5.75 1 S
# 2016 10 14 00 18 59.300 42.8685 13.0786 3.16 -0.11 0 0 0 66
CESI 3.64 1 P
CESI 7.03 1 S
FDMO 3.29 1 P
FDMO 6.37 1 S
MC2 1.86 1 P
MC2 3.64 1 S
MMO1 3.6 1 P
MMO1 6.95 1 S
NRCA 1.02 1 P
NRCA 1.99 1 S
T1202 3.83 1 P
T1202 7.39 1 S
T1212 2.38 1 P
T1212 4.64 1 S
T1214 2.86 1 P
T1214 5.55 1 S
T1215 3.29 1 P
T1215 6.36 1 S
T1216 1.1 1 P
T1216 2.17 1 S
T1217 3.71 1 P
T1217 7.16 1 S
T1244 3.81 1 P
T1244 7.35 1 S
T1245 1.67 1 P
T1245 3.27 1 S
ED10 2.06 1 P
ED10 4.03 1 S
ED11 3.57 1 P
ED11 6.9 1 S
ED12 1.96 1 P
ED12 3.83 1 S
ED16 3.33 1 P
ED16 6.46 1 S
ED17 3.79 1 P
ED17 7.31 1 S
ED18 3.37 1 P
ED18 6.52 1 S
ED19 1.43 1 P
ED19 2.8 1 S
ED23 3.85 1 P
ED23 7.42 1 S
# 2016 10 14 00 19 12.560 42.7250 13.2382 8.31 0.00 0 0 0 67
MC2 3.8 1 P
MC2 7.15 1 S
MMO1 3.73 1 P
MMO1 7.03 1 S
NRCA 2.99 1 P
NRCA 5.64 1 S
SMA1 2.61 1 P
SMA1 4.94 1 S
T1202 1.47 1 P
T1202 2.78 1 S
T1204 1.99 1 P
T1204 3.77 1 S
T1212 3.03 1 P
T1212 5.73 1 S
T1214 1.59 1 P
T1214 3.02 1 S
T1218 2.42 1 P
T1218 4.58 1 S
T1241 3.85 1 P
T1241 7.25 1 S
T1244 1.73 1 P
T1244 3.27 1 S
T1245 2.9 1 P
T1245 5.49 1 S
T1299 2.28 1 P
T1299 4.31 1 S
ED03 2.75 1 P
ED03 5.2 1 S
ED04 3.24 1 P
ED04 6.11 1 S
ED07 3.85 1 P
ED07 7.24 1 S
ED09 3.22 1 P
ED09 6.07 1 S
ED10 2.16 1 P
ED10 4.09 1 S
ED11 3.2 1 P
ED11 6.04 1 S
ED16 2.68 1 P
ED16 5.08 1 S
ED20 3.07 1 P
ED20 5.79 1 S
ED23 1.59 1 P
ED23 3.01 1 S
ED24 2.01 1 P
ED24 3.8 1 S
ED25 3.15 1 P
ED25 5.94 1 S
# 2016 10 14 00 19 28.450 42.8725 13.0792 3.39 0.00 0 0 0 68
CESI 3.59 1 P
CESI 6.93 1 S
FDMO 3.22 1 P
FDMO 6.22 1 S
MC2 1.83 1 P
MC2 3.57 1 S
MMO1 3.58 1 P
MMO1 6.91 1 S
NRCA 1.08 1 P
NRCA 2.12 1 S
T1202 3.89 1 P
T1202 7.49 1 S
T1212 2.46 1 P
T1212 4.79 1 S
T1214 2.91 1 P
T1214 5.64 1 S
T1215 3.32 1 P
T1215 6.43 1 S
T1216 1.1 1 P
T1216 2.16 1 S
T1217 3.77 1 P
T1217 7.27 1 S
T1244 3.84 1 P
T1244 7.41 1 S
T1245 1.69 1 P
T1245 3.29 1 S
ED10 2.13 1 P
ED10 4.15 1 S
ED11 3.65 1 P
ED11 7.04 1 S
ED12 2.02 1 P
ED12 3.94 1 S
ED16 3.34 1 P
ED16 6.46 1 S
ED17 3.74 1 P
ED17 7.21 1 S
ED18 3.31 1 P
ED18 6.4 1 S
ED19 1.38 1 P
ED19 2.71 1 S
ED23 3.89 1 P
ED23 7.49 1 S
# 2016 10 14 00 19 50.320 42.8184 13.3458 16.25 0.75 0 0 0 69
MC2 3.72 1 P
MC2 6.95 1 S
MMO1 3.01 1 P
MMO1 5.62 1 S
NRCA 4.02 1 P
NRCA 7.5 1 S
SMA1 4.26 1 P
SMA1 7.95 1 S
T1202 3.69 1 P
T1202 6.89 1 S
T1204 3.67 1 P
T1204 6.86 1 S
T1214 3.35 1 P
T1214 6.26 1 S
T1241 2.93 1 P
T1241 5.48 1 S
T1244 2.91 1 P
T1244 5.44 1 S
T1245 3.41 1 P
T1245 6.37 1 S
T1299 4.29 1 P
T1299 8 1 S
ED09 2.83 1 P
ED09 5.3 1 S
ED10 3.82 1 P
ED10 7.14 1 S
ED16 2.69 1 P
ED16 5.03 1 S
ED17 3.75 1 P
ED17 7 1 S
ED18 4.27 1 P
ED18 7.96 1 S
ED19 4.18 1 P
ED19 7.79 1 S
ED20 3.13 1 P
ED20 5.85 1 S
ED22 4.27 1 P
ED22 7.97 1 S
ED23 3.05 1 P
ED23 5.69 1 S
ED24 4.4 1 P
ED24 8.21 1 S
# 2016 10 14 00 20 12.210 42.8689 13.0797 3.84 0.07 0 0 0 70
CESI 3.64 1 P
CESI 7.01 1 S
FDMO 3.29 1 P
FDMO 6.34 1 S
MC2 1.87 1 P
MC2 3.64 1 S
MMO1 3.58 1 P
MMO1 6.9 1 S
NRCA 1.08 1 P
NRCA 2.1 1 S
T1202 3.82 1 P
T1202 7.36 1 S
T1212 2.41 1 P
T1212 4.67 1 S
T1214 2.86 1 P
T1214 5.53 1 S
T1215 3.31 1 P
T1215 6.38 1 S
T1216 1.17 1 P
T1216 2.28 1 S
T1217 3.72 1 P
T1217 7.16 1 S
T1244 3.8 1 P
T1244 7.3 1 S
T1245 1.69 1 P
T1245 3.29 1 S
ED10 2.08 1 P
ED10 4.05 1 S
ED11 3.58 1 P
ED11 6.9 1 S
ED12 2 1 P
ED12 3.89 1 S
ED16 3.32 1 P
ED16 6.41 1 S
ED17 3.77 1 P
ED17 7.25 1 S
ED18 3.35 1 P
ED18 6.47 1 S
ED19 1.45 1 P
ED19 2.84 1 S
ED23 3.84 1 P
ED23 7.38 1 S
# 2016 10 14 00 20 25.300 42.8252 13.3502 18.01 0.00 0 0 0 71
MC2 3.88 1 P
MC2 7.23 1 S
MMO1 3.18 1 P
MMO1 5.94 1 S
NRCA 4.21 1 P
NRCA 7.85 1 S
SMA1 4.5 1 P
SMA1 8.38 1 S
T1202 3.95 1 P
T1202 7.37 1 S
T1204 3.94 1 P
T1204 7.34 1 S
T1214 3.61 1 P
T1214 6.74 1 S
T1241 3.12 1 P
T1241 5.82 1 S
T1244 3.2 1 P
T1244 5.97 1 S
T1245 3.62 1 P
T1245 6.75 1 S
T1299 4.53 1 P
T1299 8.45 1 S
ED09 3.07 1 P
ED09 5.73 1 S
ED10 4.05 1 P
ED10 7.56 1 S
ED16 2.95 1 P
ED16 5.5 1 S
ED17 3.85 1 P
ED17 7.18 1 S
ED18 4.35 1 P
ED18 8.11 1 S
ED19 4.31 1 P
ED19 8.04 1 S
ED20 3.37 1 P
ED20 6.3 1 S
ED22 4.33 1 P
ED22 8.07 1 S
ED23 3.33 1 P
ED23 6.22 1 S
# 2016 10 14 00 20 41.590 42.8689 13.0797 3.84 0.39 0 0 0 72
CESI 3.64 1 P
CESI 7.01 1 S
FDMO 3.29 1 P
FDMO 6.34 1 S
MC2 1.87 1 P
MC2 3.64 1 S
MMO1 3.58 1 P
MMO1 6.9 1 S
NRCA 1.08 1 P
NRCA 2.1 1 S
T1202 3.82 1 P
T1202 7.36 1 S
T1212 2.41 1 P
T1212 4.67 1 S
T1214 2.86 1 P
T1214 5.53 1 S
T1215 3.31 1 P
T1215 6.38 1 S
T1216 1.17 1 P
T1216 2.28 1 S
T1217 3.72 1 P
T1217 7.16 1 S
T1244 3.8 1 P
T1244 7.3 1 S
T1245 1.69 1 P
T1245 3.29 1 S
ED10 2.08 1 P
ED10 4.05 1 S
ED11 3.58 1 P
ED11 6.9 1 S
ED12 2 1 P
ED12 3.89 1 S
ED16 3.32 1 P
ED16 6.41 1 S
ED17 3.77 1 P
ED17 7.25 1 S
ED18 3.35 1 P
ED18 6.47 1 S
ED19 1.45 1 P
ED19 2.84 1 S
ED23 3.84 1 P
ED23 7.38 1 S
# 2016 10 14 00 20 56.400 42.8534 13.1558 2.96 0.21 0 0 0 73
FDMO 3.7 1 P
FDMO 7.15 1 S
MC2 1.33 1 P
MC2 2.62 1 S
MMO1 2.64 1 P
MMO1 5.15 1 S
NRCA 0.88 1 P
NRCA 1.73 1 S
T1202 3.11 1 P
T1202 6.03 1 S
T1212 2.59 1 P
T1212 5.04 1 S
T1214 2.05 1 P
T1214 4 1 S
T1216 2.15 1 P
T1216 4.19 1 S
T1218 3.62 1 P
T1218 7.01 1 S
T1244 2.8 1 P
T1244 5.45 1 S
T1245 0.7 1 P
T1245 1.38 1 S
ED10 1.59 1 P
ED10 3.12 1 S
ED11 3.66 1 P
ED11 7.08 1 S
ED12 2.75 1 P
ED12 5.35 1 S
ED16 2.24 1 P
ED16 4.38 1 S
ED17 3.11 1 P
ED17 6.04 1 S
ED18 2.99 1 P
ED18 5.81 1 S
ED19 1.41 1 P
ED19 2.78 1 S
ED21 3.82 1 P
ED21 7.38 1 S
ED22 3.84 1 P
ED22 7.42 1 S
ED23 2.88 1 P
ED23 5.61 1 S
ED24 3.88 1 P
ED24 7.5 1 S
# 2016 10 14 00 21 09.540 42.8534 13.1558 2.96 0.07 0 0 0 74
FDMO 3.7 1 P
FDMO 7.15 1 S
MC2 1.33 1 P
MC2 2.62 1 S
MMO1 2.64 1 P
MMO1 5.15 1 S
NRCA 0.88 1 P
NRCA 1.73 1 S
T1202 3.11 1 P
T1202 6.03 1 S
T1212 2.59 1 P
T1212 5.04 1 S
T1214 2.05 1 P
T1214 4 1 S
T1216 2.15 1 P
T1216 4.19 1 S
T1218 3.62 1 P
T1218 7.01 1 S
T1244 2.8 1 P
T1244 5.45 1 S
T1245 0.7 1 P
T1245 1.38 1 S
ED10 1.59 1 P
ED10 3.12 1 S
ED11 3.66 1 P
ED11 7.08 1 S
ED12 2.75 1 P
ED12 5.35 1 S
ED16 2.24 1 P
ED16 4.38 1 S
ED17 3.11 1 P
ED17 6.04 1 S
ED18 2.99 1 P
ED18 5.81 1 S
ED19 1.41 1 P
ED19 2.78 1 S
ED21 3.82 1 P
ED21 7.38 1 S
ED22 3.84 1 P
ED22 7.42 1 S
ED23 2.88 1 P
ED23 5.61 1 S
ED24 3.88 1 P
ED24 7.5 1 S
# 2016 10 14 00 21 16.180 42.7352 13.1878 4.31 0.12 0 0 0 75
MC2 3.45 1 P
MC2 6.63 1 S
MMO1 3.76 1 P
MMO1 7.22 1 S
NRCA 2.28 1 P
NRCA 4.41 1 S
SMA1 2.98 1 P
SMA1 5.74 1 S
T1202 1.1 1 P
T1202 2.14 1 S
T1204 2.27 1 P
T1204 4.39 1 S
T1212 2.17 1 P
T1212 4.21 1 S
T1214 0.93 1 P
T1214 1.81 1 S
T1216 3.86 1 P
T1216 7.41 1 S
T1217 3.7 1 P
T1217 7.1 1 S
T1218 1.78 1 P
T1218 3.46 1 S
T1244 1.77 1 P
T1244 3.44 1 S
T1245 2.44 1 P
T1245 4.73 1 S
T1299 2.47 1 P
T1299 4.77 1 S
ED03 2.64 1 P
ED03 5.1 1 S
ED04 3.52 1 P
ED04 6.76 1 S
ED09 3.61 1 P
ED09 6.93 1 S
ED10 1.28 1 P
ED10 2.49 1 S
ED11 2.47 1 P
ED11 4.77 1 S
ED12 3.34 1 P
ED12 6.42 1 S
ED16 2.68 1 P
ED16 5.18 1 S
ED19 3.66 1 P
ED19 7.03 1 S
ED20 3.56 1 P
ED20 6.84 1 S
ED23 1.6 1 P
ED23 3.1 1 S
ED24 1.7 1 P
ED24 3.31 1 S
ED25 3.56 1 P
ED25 6.83 1 S
# 2016 10 14 00 21 21.170 42.5822 13.2825 11.61 0.34 0 0 0 76
CAMP 2.7 1 P
CAMP 5.07 1 S
RM33 2.51 1 P
RM33 4.72 1 S
SMA1 2.23 1 P
SMA1 4.19 1 S
T1202 3.03 1 P
T1202 5.69 1 S
T1204 2.61 1 P
T1204 4.91 1 S
T1214 3.89 1 P
T1214 7.28 1 S
T1218 3.36 1 P
T1218 6.3 1 S
T1244 3.73 1 P
T1244 6.98 1 S
T1246 3.42 1 P
T1246 6.41 1 S
T1247 3.21 1 P
T1247 6.03 1 S
T1299 2.14 1 P
T1299 4.02 1 S
ED01 3.35 1 P
ED01 6.28 1 S
ED03 2.32 1 P
ED03 4.35 1 S
ED04 1.93 1 P
ED04 3.63 1 S
ED05 2.86 1 P
ED05 5.36 1 S
ED06 2.98 1 P
ED06 5.59 1 S
ED07 3.23 1 P
ED07 6.05 1 S
ED14 3.75 1 P
ED14 7.03 1 S
ED23 3.51 1 P
ED23 6.58 1 S
ED24 2.64 1 P
ED24 4.95 1 S
ED25 2.15 1 P
ED25 4.05 1 S
# 2016 10 14 00 21 36.860 42.8725 13.0792 3.39 0.26 0 0 0 77
CESI 3.59 1 P
CESI 6.93 1 S
FDMO 3.22 1 P
FDMO 6.22 1 S
MC2 1.83 1 P
MC2 3.57 1 S
MMO1 3.58 1 P
MMO1 6.91 1 S
NRCA 1.08 1 P
NRCA 2.12 1 S
T1202 3.89 1 P
T1202 7.49 1 S
T1212 2.46 1 P
T1212 4.79 1 S
T1214 2.91 1 P
T1214 5.64 1 S
T1215 3.32 1 P
T1215 6.43 1 S
T1216 1.1 1 P
T1216 2.16 1 S
T1217 3.77 1 P
T1217 7.27 1 S
T1244 3.84 1 P
T1244 7.41 1 S
T1245 1.69 1 P
T1245 3.29 1 S
ED10 2.13 1 P
ED10 4.15 1 S
ED11 3.65 1 P
ED11 7.04 1 S
ED12 2.02 1 P
ED12 3.94 1 S
ED16 3.34 1 P
ED16 6.46 1 S
ED17 3.74 1 P
ED17 7.21 1 S
ED18 3.31 1 P
ED18 6.4 1 S
ED19 1.38 1 P
ED19 2.71 1 S
ED23 3.89 1 P
ED23 7.49 1 S
# 2016 10 14 00 21 40.830 42.7755 13.1809 7.34 0.36 0 0 0 78
MC2 2.84 1 P
MC2 5.38 1 S
MMO1 3.31 1 P
MMO1 6.26 1 S
NRCA 1.89 1 P
NRCA 3.6 1 S
SMA1 3.66 1 P
SMA1 6.92 1 S
T1202 1.93 1 P
T1202 3.68 1 S
T1204 2.92 1 P
T1204 5.53 1 S
T1212 2.3 1 P
T1212 4.36 1 S
T1214 1.33 1 P
T1214 2.55 1 S
T1216 3.34 1 P
T1216 6.31 1 S
T1217 3.83 1 P
T1217 7.24 1 S
T1218 2.51 1 P
T1218 4.76 1 S
T1244 2.06 1 P
T1244 3.93 1 S
T1245 1.97 1 P
T1245 3.74 1 S
T1299 3.24 1 P
T1299 6.13 1 S
ED03 3.46 1 P
ED03 6.55 1 S
ED09 3.59 1 P
ED09 6.78 1 S
ED10 1.36 1 P
ED10 2.59 1 S
ED11 2.89 1 P
ED11 5.47 1 S
ED12 3.12 1 P
ED12 5.9 1 S
ED16 2.43 1 P
ED16 4.61 1 S
ED19 3.03 1 P
ED19 5.74 1 S
ED20 3.74 1 P
ED20 7.06 1 S
ED23 2.01 1 P
ED23 3.83 1 S
ED24 2.57 1 P
ED24 4.89 1 S
# 2016 10 14 00 21 47.080 42.8534 13.1558 2.96 0.51 0 0 0 79
FDMO 3.7 1 P
FDMO 7.15 1 S
MC2 1.33 1 P
MC2 2.62 1 S
MMO1 2.64 1 P
MMO1 5.15 1 S
NRCA 0.88 1 P
NRCA 1.73 1 S
T1202 3.11 1 P
T1202 6.03 1 S
T1212 2.59 1 P
T1212 5.04 1 S
T1214 2.05 1 P
T1214 4 1 S
T1216 2.15 1 P
T1216 4.19 1 S
T1218 3.62 1 P
T1218 7.01 1 S
T1244 2.8 1 P
T1244 5.45 1 S
T1245 0.7 1 P
T1245 1.38 1 S
ED10 1.59 1 P
ED10 3.12 1 S
ED11 3.66 1 P
ED11 7.08 1 S
ED12 2.75 1 P
ED12 5.35 1 S
ED16 2.24 1 P
ED16 4.38 1 S
ED17 3.11 1 P
ED17 6.04 1 S
ED18 2.99 1 P
ED18 5.81 1 S
ED19 1.41 1 P
ED19 2.78 1 S
ED21 3.82 1 P
ED21 7.38 1 S
ED22 3.84 1 P
ED22 7.42 1 S
ED23 2.88 1 P
ED23 5.61 1 S
ED24 3.88 1 P
ED24 7.5 1 S
# 2016 10 14 00 22 04.200 42.8904 13.2361 3.18 0.37 0 0 0 80
FDMO 3.55 1 P
FDMO 6.87 1 S
GUMA 3.64 1 P
GUMA 7.04 1 S
MC2 0.97 1 P
MC2 1.9 1 S
MMO1 1.42 1 P
MMO1 2.78 1 S
NRCA 2.13 1 P
NRCA 4.16 1 S
T1202 3.65 1 P
T1202 7.04 1 S
T1212 3.84 1 P
T1212 7.41 1 S
T1214 2.62 1 P
T1214 5.1 1 S
T1216 3.12 1 P
T1216 6.05 1 S
T1241 2.9 1 P
T1241 5.62 1 S
T1244 2.78 1 P
T1244 5.41 1 S
T1245 1.1 1 P
T1245 2.17 1 S
ED09 3.22 1 P
ED09 6.25 1 S
ED10 2.63 1 P
ED10 5.12 1 S
ED16 1.55 1 P
ED16 3.04 1 S
ED17 1.88 1 P
ED17 3.67 1 S
ED18 2.04 1 P
ED18 3.99 1 S
ED19 1.59 1 P
ED19 3.12 1 S
ED21 2.81 1 P
ED21 5.45 1 S
ED22 2.64 1 P
ED22 5.14 1 S
ED23 2.99 1 P
ED23 5.8 1 S
# 2016 10 14 00 22 11.850 42.8904 13.2361 3.18 0.10 0 0 0 81
FDMO 3.55 1 P
FDMO 6.87 1 S
GUMA 3.64 1 P
GUMA 7.04 1 S
MC2 0.97 1 P
MC2 1.9 1 S
MMO1 1.42 1 P
MMO1 2.78 1 S
NRCA 2.13 1 P
NRCA 4.16 1 S
T1202 3.65 1 P
T1202 7.04 1 S
T1212 3.84 1 P
T1212 7.41 1 S
T1214 2.62 1 P
T1214 5.1 1 S
T1216 3.12 1 P
T1216 6.05 1 S
T1241 2.9 1 P
T1241 5.62 1 S
T1244 2.78 1 P
T1244 5.41 1 S
T1245 1.1 1 P
T1245 2.17 1 S
ED09 3.22 1 P
ED09 6.25 1 S
ED10 2.63 1 P
ED10 5.12 1 S
ED16 1.55 1 P
ED16 3.04 1 S
ED17 1.88 1 P
ED17 3.67 1 S
ED18 2.04 1 P
ED18 3.99 1 S
ED19 1.59 1 P
ED19 3.12 1 S
ED21 2.81 1 P
ED21 5.45 1 S
ED22 2.64 1 P
ED22 5.14 1 S
ED23 2.99 1 P
ED23 5.8 1 S
# 2016 10 14 00 22 34.070 42.5617 13.2343 2.53 0.00 0 0 0 82
CAMP 2.6 1 P
CAMP 5.09 1 S
RM33 1.17 1 P
RM33 2.3 1 S
SMA1 2.03 1 P
SMA1 4 1 S
T1202 2.8 1 P
T1202 5.47 1 S
T1204 2.57 1 P
T1204 5.02 1 S
T1214 3.87 1 P
T1214 7.5 1 S
T1218 2.75 1 P
T1218 5.38 1 S
T1246 3.74 1 P
T1246 7.25 1 S
T1247 2.56 1 P
T1247 5.01 1 S
T1299 1.64 1 P
T1299 3.24 1 S
ED01 2.2 1 P
ED01 4.32 1 S
ED03 1.12 1 P
ED03 2.22 1 S
ED04 1.04 1 P
ED04 2.06 1 S
ED05 2.46 1 P
ED05 4.82 1 S
ED06 1.97 1 P
ED06 3.87 1 S
ED07 3.57 1 P
ED07 6.92 1 S
ED08 3.29 1 P
ED08 6.4 1 S
ED11 3.8 1 P
ED11 7.35 1 S
ED14 3.66 1 P
ED14 7.1 1 S
ED23 3.63 1 P
ED23 7.03 1 S
ED24 1.99 1 P
ED24 3.91 1 S
ED25 1.9 1 P
ED25 3.74 1 S
# 2016 10 14 00 22 50.500 42.8729 13.0813 3.00 0.00 0 0 0 83
CESI 3.6 1 P
CESI 6.97 1 S
FDMO 3.21 1 P
FDMO 6.22 1 S
MC2 1.79 1 P
MC2 3.51 1 S
MMO1 3.55 1 P
MMO1 6.87 1 S
NRCA 1.05 1 P
NRCA 2.05 1 S
T1202 3.88 1 P
T1202 7.49 1 S
T1212 2.47 1 P
T1212 4.81 1 S
T1214 2.89 1 P
T1214 5.62 1 S
T1215 3.35 1 P
T1215 6.5 1 S
T1216 1.09 1 P
T1216 2.15 1 S
T1217 3.8 1 P
T1217 7.33 1 S
T1244 3.83 1 P
T1244 7.39 1 S
T1245 1.64 1 P
T1245 3.22 1 S
ED10 2.12 1 P
ED10 4.14 1 S
ED11 3.66 1 P
ED11 7.08 1 S
ED12 2.04 1 P
ED12 3.99 1 S
ED16 3.31 1 P
ED16 6.42 1 S
ED17 3.71 1 P
ED17 7.18 1 S
ED18 3.28 1 P
ED18 6.36 1 S
ED19 1.34 1 P
ED19 2.63 1 S
ED23 3.87 1 P
ED23 7.48 1 S
# 2016 10 14 00 23 14.590 42.7379 13.1902 3.94 0.00 0 0 0 84
MC2 3.4 1 P
MC2 6.54 1 S
MMO1 3.7 1 P
MMO1 7.12 1 S
NRCA 2.24 1 P
NRCA 4.34 1 S
SMA1 2.99 1 P
SMA1 5.77 1 S
T1202 1.07 1 P
T1202 2.1 1 S
T1204 2.26 1 P
T1204 4.38 1 S
T1212 2.19 1 P
T1212 4.24 1 S
T1214 0.85 1 P
T1214 1.65 1 S
T1216 3.84 1 P
T1216 7.39 1 S
T1217 3.74 1 P
T1217 7.19 1 S
T1218 1.82 1 P
T1218 3.54 1 S
T1244 1.71 1 P
T1244 3.33 1 S
T1245 2.38 1 P
T1245 4.62 1 S
T1299 2.48 1 P
T1299 4.8 1 S
ED03 2.68 1 P
ED03 5.19 1 S
ED04 3.54 1 P
ED04 6.82 1 S
ED09 3.56 1 P
ED09 6.85 1 S
ED10 1.24 1 P
ED10 2.41 1 S
ED11 2.51 1 P
ED11 4.85 1 S
ED12 3.34 1 P
ED12 6.44 1 S
ED16 2.61 1 P
ED16 5.06 1 S
ED19 3.62 1 P
ED19 6.96 1 S
ED20 3.52 1 P
ED20 6.78 1 S
ED23 1.54 1 P
ED23 3 1 S
ED24 1.73 1 P
ED24 3.36 1 S
ED25 3.57 1 P
ED25 6.87 1 S
