# 2016 10 14 00 06 51.600 42.7772 13.2342 8.47 0.08 0 0 0 28
MC2 2.94 1 P
MC2 5.55 1 S
MMO1 2.96 1 P
MMO1 5.6 1 S
NRCA 2.41 1 P
NRCA 4.56 1 S
SMA1 3.37 1 P
SMA1 6.36 1 S
T1202 1.98 1 P
T1202 3.76 1 S
T1204 2.62 1 P
T1204 4.95 1 S
T1212 2.99 1 P
T1212 5.65 1 S
T1214 1.5 1 P
T1214 2.85 1 S
T1216 3.88 1 P
T1216 7.3 1 S
T1218 2.94 1 P
T1218 5.55 1 S
T1241 3.38 1 P
T1241 6.37 1 S
T1244 1.71 1 P
T1244 3.24 1 S
T1245 2.15 1 P
T1245 4.07 1 S
T1299 3.09 1 P
T1299 5.83 1 S
ED03 3.59 1 P
ED03 6.76 1 S
ED09 2.98 1 P
ED09 5.63 1 S
ED10 1.91 1 P
ED10 3.62 1 S
ED11 3.5 1 P
ED11 6.6 1 S
ED12 3.82 1 P
ED12 7.19 1 S
ED16 2.07 1 P
ED16 3.91 1 S
ED17 3.91 1 P
ED17 7.36 1 S
ED19 3.27 1 P
ED19 6.17 1 S
ED20 3.14 1 P
ED20 5.92 1 S
ED23 1.72 1 P
ED23 3.26 1 S
ED24 2.73 1 P
ED24 5.17 1 S
ED25 3.95 1 P
ED25 7.42 1 S
# 2016 10 14 00 07 26.760 42.7585 13.1323 0.02 0.00 0 0 0 29
MC2 3.2 1 P
MC2 6.36 1 S
NRCA 1.58 1 P
NRCA 3.08 1 S
SMA1 3.94 1 P
SMA1 7.76 1 S
T1202 1.8 1 P
T1202 3.53 1 S
T1204 3.2 1 P
T1204 6.37 1 S
T1212 1.34 1 P
T1212 2.62 1 S
T1214 1.17 1 P
T1214 2.27 1 S
T1215 3.98 1 P
T1215 7.83 1 S
T1216 3.15 1 P
T1216 6.27 1 S
T1217 3.13 1 P
T1217 6.22 1 S
T1218 1.84 1 P
T1218 3.61 1 S
T1244 2.48 1 P
T1244 4.9 1 S
T1245 2.17 1 P
T1245 4.29 1 S
T1299 3.35 1 P
T1299 6.65 1 S
ED03 3.25 1 P
ED03 6.47 1 S
ED10 0.41 1 P
ED10 0.8 1 S
ED11 2.07 1 P
ED11 4.07 1 S
ED12 2.51 1 P
ED12 4.98 1 S
ED16 3.04 1 P
ED16 6.06 1 S
ED19 3.25 1 P
ED19 6.46 1 S
ED23 2.34 1 P
ED23 4.63 1 S
ED24 2.29 1 P
ED24 4.51 1 S
# 2016 10 14 00 07 33.590 42.8184 13.3458 16.25 0.35 0 0 0 30
MC2 3.72 1 P
MC2 6.95 1 S
MMO1 3.01 1 P
MMO1 5.62 1 S
NRCA 4.02 1 P
NRCA 7.5 1 S
SMA1 4.26 1 P
SMA1 7.95 1 S
T1202 3.69 1 P
T1202 6.89 1 S
T1204 3.67 1 P
T1204 6.86 1 S
T1214 3.35 1 P
T1214 6.26 1 S
T1241 2.93 1 P
T1241 5.48 1 S
T1244 2.91 1 P
T1244 5.44 1 S
T1245 3.41 1 P
T1245 6.37 1 S
T1299 4.29 1 P
T1299 8 1 S
ED09 2.83 1 P
ED09 5.3 1 S
ED10 3.82 1 P
ED10 7.14 1 S
ED16 2.69 1 P
ED16 5.03 1 S
ED17 3.75 1 P
ED17 7 1 S
ED18 4.27 1 P
ED18 7.96 1 S
ED19 4.18 1 P
ED19 7.79 1 S
ED20 3.13 1 P
ED20 5.85 1 S
ED22 4.27 1 P
ED22 7.97 1 S
ED23 3.05 1 P
ED23 5.69 1 S
ED24 4.4 1 P
ED24 8.21 1 S
# 2016 10 14 00 08 00.210 42.6537 13.2316 9.30 0.45 0 0 0 31
CAMP 3.61 1 P
CAMP 6.78 1 S
NRCA 4 1 P
NRCA 7.51 1 S
RM33 3.11 1 P
RM33 5.85 1 S
SMA1 2.15 1 P
SMA1 4.05 1 S
T1202 1.81 1 P
T1202 3.42 1 S
T1204 1.98 1 P
T1204 3.75 1 S
T1212 3.49 1 P
T1212 6.56 1 S
T1214 2.52 1 P
T1214 4.76 1 S
T1218 2.24 1 P
T1218 4.23 1 S
T1244 2.63 1 P
T1244 4.95 1 S
T1299 1.74 1 P
T1299 3.29 1 S
ED01 3.4 1 P
ED01 6.39 1 S
ED03 1.9 1 P
ED03 3.6 1 S
ED04 2.32 1 P
ED04 4.38 1 S
ED05 3.95 1 P
ED05 7.42 1 S
ED06 3.84 1 P
ED06 7.2 1 S
ED07 3.57 1 P
ED07 6.71 1 S
ED10 3.03 1 P
ED10 5.7 1 S
ED11 3.18 1 P
ED11 5.98 1 S
ED16 3.87 1 P
ED16 7.26 1 S
ED20 3.63 1 P
ED20 6.82 1 S
ED23 2.4 1 P
ED23 4.52 1 S
ED24 1.65 1 P
ED24 3.11 1 S
ED25 2.48 1 P
ED25 4.68 1 S
# 2016 10 14 00 08 05.030 42.8965 13.2389 4.01 0.05 0 0 0 32
CSP1 3.83 1 P
CSP1 7.36 1 S
FDMO 3.49 1 P
FDMO 6.72 1 S
GUMA 3.53 1 P
GUMA 6.79 1 S
MC2 1.03 1 P
MC2 2.01 1 S
MMO1 1.43 1 P
MMO1 2.78 1 S
NRCA 2.25 1 P
NRCA 4.35 1 S
T1202 3.76 1 P
T1202 7.23 1 S
T1214 2.75 1 P
T1214 5.33 1 S
T1216 3.17 1 P
T1216 6.11 1 S
T1241 2.9 1 P
T1241 5.6 1 S
T1244 2.89 1 P
T1244 5.58 1 S
T1245 1.27 1 P
T1245 2.46 1 S
ED09 3.26 1 P
ED09 6.29 1 S
ED10 2.76 1 P
ED10 5.34 1 S
ED16 1.65 1 P
ED16 3.21 1 S
ED17 1.8 1 P
ED17 3.5 1 S
ED18 1.96 1 P
ED18 3.8 1 S
ED19 1.63 1 P
ED19 3.18 1 S
ED21 2.7 1 P
ED21 5.22 1 S
ED22 2.54 1 P
ED22 4.92 1 S
ED23 3.1 1 P
ED23 5.98 1 S
# 2016 10 14 00 08 30.660 42.7667 13.1698 7.89 0.23 0 0 0 33
MC2 3.02 1 P
MC2 5.72 1 S
MMO1 3.54 1 P
MMO1 6.67 1 S
NRCA 1.98 1 P
NRCA 3.76 1 S
SMA1 3.66 1 P
SMA1 6.89 1 S
T1202 1.93 1 P
T1202 3.67 1 S
T1204 2.95 1 P
T1204 5.58 1 S
T1212 2.19 1 P
T1212 4.16 1 S
T1214 1.44 1 P
T1214 2.74 1 S
T1216 3.37 1 P
T1216 6.37 1 S
T1217 3.67 1 P
T1217 6.92 1 S
T1218 2.37 1 P
T1218 4.49 1 S
T1244 2.21 1 P
T1244 4.2 1 S
T1245 2.16 1 P
T1245 4.09 1 S
T1299 3.2 1 P
T1299 6.05 1 S
ED03 3.34 1 P
ED03 6.31 1 S
ED09 3.77 1 P
ED09 7.11 1 S
ED10 1.4 1 P
ED10 2.67 1 S
ED11 2.72 1 P
ED11 5.15 1 S
ED12 3.05 1 P
ED12 5.76 1 S
ED16 2.65 1 P
ED16 5.03 1 S
ED19 3.18 1 P
ED19 6 1 S
ED20 3.88 1 P
ED20 7.31 1 S
ED23 2.14 1 P
ED23 4.05 1 S
ED24 2.49 1 P
ED24 4.71 1 S
# 2016 10 14 00 09 03.030 42.6892 13.3053 10.76 0.07 0 0 0 34
CAMP 3.62 1 P
CAMP 6.78 1 S
RM33 3.95 1 P
RM33 7.4 1 S
SMA1 2.13 1 P
SMA1 4 1 S
T1202 2.11 1 P
T1202 3.97 1 S
T1204 1.81 1 P
T1204 3.4 1 S
T1214 2.56 1 P
T1214 4.82 1 S
T1218 3.15 1 P
T1218 5.91 1 S
T1241 3.93 1 P
T1241 7.36 1 S
T1244 2.18 1 P
T1244 4.1 1 S
T1245 3.89 1 P
T1245 7.28 1 S
T1246 3.66 1 P
T1246 6.86 1 S
T1299 2.07 1 P
T1299 3.91 1 S
ED03 2.85 1 P
ED03 5.35 1 S
ED04 2.77 1 P
ED04 5.2 1 S
ED07 3.02 1 P
ED07 5.66 1 S
ED09 3.14 1 P
ED09 5.9 1 S
ED10 3.27 1 P
ED10 6.14 1 S
ED11 4.08 1 P
ED11 7.63 1 S
ED16 3.25 1 P
ED16 6.1 1 S
ED20 2.73 1 P
ED20 5.14 1 S
ED23 2.06 1 P
ED23 3.87 1 S
ED24 2.43 1 P
ED24 4.57 1 S
ED25 2.52 1 P
ED25 4.74 1 S
# 2016 10 14 00 09 29.050 42.9057 13.2582 3.83 0.00 0 0 0 35
CSP1 3.7 1 P
CSP1 7.13 1 S
FDMO 3.53 1 P
FDMO 6.81 1 S
GUMA 3.27 1 P
GUMA 6.31 1 S
MC2 1.19 1 P
MC2 2.32 1 S
MMO1 1.19 1 P
MMO1 2.31 1 S
NRCA 2.55 1 P
NRCA 4.94 1 S
T1214 2.97 1 P
T1214 5.74 1 S
T1216 3.44 1 P
T1216 6.63 1 S
T1241 2.7 1 P
T1241 5.23 1 S
T1244 2.99 1 P
T1244 5.77 1 S
T1245 1.53 1 P
T1245 2.98 1 S
ED09 3.16 1 P
ED09 6.1 1 S
ED10 3.04 1 P
ED10 5.88 1 S
ED16 1.64 1 P
ED16 3.19 1 S
ED17 1.52 1 P
ED17 2.96 1 S
ED18 1.8 1 P
ED18 3.5 1 S
ED19 1.83 1 P
ED19 3.56 1 S
ED21 2.49 1 P
ED21 4.83 1 S
ED22 2.26 1 P
ED22 4.4 1 S
ED23 3.22 1 P
ED23 6.21 1 S
# 2016 10 14 00 09 45.120 42.8437 13.4563 16.56 0.23 0 0 0 36
MMO1 3.31 1 P
MMO1 6.19 1 S
T1204 4.4 1 P
T1204 8.21 1 S
T1241 2.7 1 P
T1241 5.04 1 S
T1244 3.72 1 P
T1244 6.94 1 S
T1245 4.41 1 P
T1245 8.23 1 S
ED09 2.81 1 P
ED09 5.26 1 S
ED16 3.31 1 P
ED16 6.18 1 S
ED17 3.95 1 P
ED17 7.37 1 S
ED20 3.17 1 P
ED20 5.93 1 S
ED22 4.3 1 P
ED22 8.02 1 S
ED23 3.9 1 P
ED23 7.29 1 S
# 2016 10 14 00 09 51.500 42.7350 13.1852 4.64 -0.04 0 0 0 37
MC2 3.46 1 P
MC2 6.63 1 S
MMO1 3.79 1 P
MMO1 7.25 1 S
NRCA 2.28 1 P
NRCA 4.4 1 S
SMA1 3.01 1 P
SMA1 5.79 1 S
T1202 1.15 1 P
T1202 2.23 1 S
T1204 2.31 1 P
T1204 4.46 1 S
T1212 2.16 1 P
T1212 4.17 1 S
T1214 0.99 1 P
T1214 1.92 1 S
T1216 3.85 1 P
T1216 7.37 1 S
T1217 3.67 1 P
T1217 7.03 1 S
T1218 1.78 1 P
T1218 3.45 1 S
T1244 1.83 1 P
T1244 3.53 1 S
T1245 2.46 1 P
T1245 4.74 1 S
T1299 2.49 1 P
T1299 4.81 1 S
ED03 2.65 1 P
ED03 5.11 1 S
ED04 3.53 1 P
ED04 6.78 1 S
ED09 3.65 1 P
ED09 6.99 1 S
ED10 1.3 1 P
ED10 2.51 1 S
ED11 2.45 1 P
ED11 4.72 1 S
ED12 3.31 1 P
ED12 6.36 1 S
ED16 2.71 1 P
ED16 5.23 1 S
ED19 3.66 1 P
ED19 7.02 1 S
ED20 3.6 1 P
ED20 6.9 1 S
ED23 1.65 1 P
ED23 3.2 1 S
ED24 1.72 1 P
ED24 3.34 1 S
ED25 3.58 1 P
ED25 6.87 1 S
# 2016 10 14 00 10 08.320 42.8716 13.2330 4.66 0.00 0 0 0 38
FDMO 3.82 1 P
FDMO 7.32 1 S
MC2 1.27 1 P
MC2 2.46 1 S
MMO1 1.63 1 P
MMO1 3.16 1 S
NRCA 1.99 1 P
NRCA 3.85 1 S
T1202 3.31 1 P
T1202 6.35 1 S
T1212 3.58 1 P
T1212 6.86 1 S
T1214 2.32 1 P
T1214 4.47 1 S
T1216 3.12 1 P
T1216 6 1 S
T1241 2.9 1 P
T1241 5.59 1 S
T1244 2.51 1 P
T1244 4.83 1 S
T1245 1.06 1 P
T1245 2.07 1 S
ED09 3.1 1 P
ED09 5.96 1 S
ED10 2.36 1 P
ED10 4.56 1 S
ED12 3.86 1 P
ED12 7.39 1 S
ED16 1.47 1 P
ED16 2.86 1 S
ED17 2.24 1 P
ED17 4.33 1 S
ED18 2.43 1 P
ED18 4.7 1 S
ED19 1.8 1 P
ED19 3.48 1 S
ED20 3.75 1 P
ED20 7.19 1 S
ED21 3.18 1 P
ED21 6.1 1 S
ED22 2.99 1 P
ED22 5.76 1 S
ED23 2.69 1 P
ED23 5.19 1 S
# 2016 10 14 00 10 20.540 42.8689 13.0797 3.84 0.25 0 0 0 39
CESI 3.64 1 P
CESI 7.01 1 S
FDMO 3.29 1 P
FDMO 6.34 1 S
MC2 1.87 1 P
MC2 3.64 1 S
MMO1 3.58 1 P
MMO1 6.9 1 S
NRCA 1.08 1 P
NRCA 2.1 1 S
T1202 3.82 1 P
T1202 7.36 1 S
T1212 2.41 1 P
T1212 4.67 1 S
T1214 2.86 1 P
T1214 5.53 1 S
T1215 3.31 1 P
T1215 6.38 1 S
T1216 1.17 1 P
T1216 2.28 1 S
T1217 3.72 1 P
T1217 7.16 1 S
T1244 3.8 1 P
T1244 7.3 1 S
T1245 1.69 1 P
T1245 3.29 1 S
ED10 2.08 1 P
ED10 4.05 1 S
ED11 3.58 1 P
ED11 6.9 1 S
ED12 2 1 P
ED12 3.89 1 S
ED16 3.32 1 P
ED16 6.41 1 S
ED17 3.77 1 P
ED17 7.25 1 S
ED18 3.35 1 P
ED18 6.47 1 S
ED19 1.45 1 P
ED19 2.84 1 S
ED23 3.84 1 P
ED23 7.38 1 S
# 2016 10 14 00 10 23.930 42.7439 13.1846 3.93 0.79 0 0 0 40
MC2 3.28 1 P
MC2 6.33 1 S
MMO1 3.65 1 P
MMO1 7.02 1 S
NRCA 2.11 1 P
NRCA 4.09 1 S
SMA1 3.12 1 P
SMA1 6.02 1 S
T1202 1.18 1 P
T1202 2.31 1 S
T1204 2.38 1 P
T1204 4.61 1 S
T1212 2.1 1 P
T1212 4.08 1 S
T1214 0.82 1 P
T1214 1.61 1 S
T1216 3.71 1 P
T1216 7.14 1 S
T1217 3.68 1 P
T1217 7.08 1 S
T1218 1.86 1 P
T1218 3.62 1 S
T1244 1.76 1 P
T1244 3.43 1 S
T1245 2.27 1 P
T1245 4.41 1 S
T1299 2.61 1 P
T1299 5.06 1 S
ED03 2.79 1 P
ED03 5.4 1 S
ED04 3.68 1 P
ED04 7.07 1 S
ED09 3.59 1 P
ED09 6.92 1 S
ED10 1.12 1 P
ED10 2.19 1 S
ED11 2.48 1 P
ED11 4.81 1 S
ED12 3.23 1 P
ED12 6.23 1 S
ED16 2.58 1 P
ED16 5 1 S
ED19 3.49 1 P
ED19 6.73 1 S
ED20 3.59 1 P
ED20 6.92 1 S
ED23 1.61 1 P
ED23 3.13 1 S
ED24 1.84 1 P
ED24 3.57 1 S
ED25 3.7 1 P
ED25 7.13 1 S
# 2016 10 14 00 11 46.280 42.8692 13.2421 4.28 0.01 0 0 0 41
MC2 1.33 1 P
MC2 2.59 1 S
MMO1 1.52 1 P
MMO1 2.96 1 S
NRCA 2.06 1 P
NRCA 4 1 S
T1202 3.26 1 P
T1202 6.28 1 S
T1212 3.64 1 P
T1212 6.99 1 S
T1214 2.28 1 P
T1214 4.41 1 S
T1216 3.24 1 P
T1216 6.24 1 S
T1241 2.77 1 P
T1241 5.34 1 S
T1244 2.41 1 P
T1244 4.66 1 S
T1245 1.09 1 P
T1245 2.13 1 S
ED09 2.97 1 P
ED09 5.72 1 S
ED10 2.39 1 P
ED10 4.62 1 S
ED16 1.33 1 P
ED16 2.59 1 S
ED17 2.21 1 P
ED17 4.27 1 S
ED18 2.46 1 P
ED18 4.76 1 S
ED19 1.89 1 P
ED19 3.67 1 S
ED20 3.63 1 P
ED20 6.97 1 S
ED21 3.19 1 P
ED21 6.15 1 S
ED22 2.97 1 P
ED22 5.73 1 S
ED23 2.61 1 P
ED23 5.03 1 S
# 2016 10 14 00 11 50.300 42.8692 13.2421 4.28 0.09 0 0 0 42
MC2 1.33 1 P
MC2 2.59 1 S
MMO1 1.52 1 P
MMO1 2.96 1 S
NRCA 2.06 1 P
NRCA 4 1 S
T1202 3.26 1 P
T1202 6.28 1 S
T1212 3.64 1 P
T1212 6.99 1 S
T1214 2.28 1 P
T1214 4.41 1 S
T1216 3.24 1 P
T1216 6.24 1 S
T1241 2.77 1 P
T1241 5.34 1 S
T1244 2.41 1 P
T1244 4.66 1 S
T1245 1.09 1 P
T1245 2.13 1 S
ED09 2.97 1 P
ED09 5.72 1 S
ED10 2.39 1 P
ED10 4.62 1 S
ED16 1.33 1 P
ED16 2.59 1 S
ED17 2.21 1 P
ED17 4.27 1 S
ED18 2.46 1 P
ED18 4.76 1 S
ED19 1.89 1 P
ED19 3.67 1 S
ED20 3.63 1 P
ED20 6.97 1 S
ED21 3.19 1 P
ED21 6.15 1 S
ED22 2.97 1 P
ED22 5.73 1 S
ED23 2.61 1 P
ED23 5.03 1 S
# 2016 10 14 00 12 00.200 42.8184 13.3458 16.25 0.41 0 0 0 43
MC2 3.72 1 P
MC2 6.95 1 S
MMO1 3.01 1 P
MMO1 5.62 1 S
NRCA 4.02 1 P
NRCA 7.5 1 S
SMA1 4.26 1 P
SMA1 7.95 1 S
T1202 3.69 1 P
T1202 6.89 1 S
T1204 3.67 1 P
T1204 6.86 1 S
T1214 3.35 1 P
T1214 6.26 1 S
T1241 2.93 1 P
T1241 5.48 1 S
T1244 2.91 1 P
T1244 5.44 1 S
T1245 3.41 1 P
T1245 6.37 1 S
T1299 4.29 1 P
T1299 8 1 S
ED09 2.83 1 P
ED09 5.3 1 S
ED10 3.82 1 P
ED10 7.14 1 S
ED16 2.69 1 P
ED16 5.03 1 S
ED17 3.75 1 P
ED17 7 1 S
ED18 4.27 1 P
ED18 7.96 1 S
ED19 4.18 1 P
ED19 7.79 1 S
ED20 3.13 1 P
ED20 5.85 1 S
ED22 4.27 1 P
ED22 7.97 1 S
ED23 3.05 1 P
ED23 5.69 1 S
ED24 4.4 1 P
ED24 8.21 1 S
# 2016 10 14 00 12 10.280 42.7370 13.1897 3.98 1.55 0 0 0 44
MC2 3.41 1 P
MC2 6.57 1 S
MMO1 3.72 1 P
MMO1 7.15 1 S
NRCA 2.25 1 P
NRCA 4.37 1 S
SMA1 2.98 1 P
SMA1 5.75 1 S
T1202 1.07 1 P
T1202 2.09 1 S
T1204 2.25 1 P
T1204 4.37 1 S
T1212 2.18 1 P
T1212 4.23 1 S
T1214 0.86 1 P
T1214 1.68 1 S
T1216 3.85 1 P
T1216 7.4 1 S
T1217 3.73 1 P
T1217 7.17 1 S
T1218 1.81 1 P
T1218 3.51 1 S
T1244 1.72 1 P
T1244 3.35 1 S
T1245 2.4 1 P
T1245 4.65 1 S
T1299 2.47 1 P
T1299 4.78 1 S
ED03 2.67 1 P
ED03 5.16 1 S
ED04 3.53 1 P
ED04 6.8 1 S
ED09 3.57 1 P
ED09 6.87 1 S
ED10 1.25 1 P
ED10 2.43 1 S
ED11 2.49 1 P
ED11 4.83 1 S
ED12 3.34 1 P
ED12 6.44 1 S
ED16 2.63 1 P
ED16 5.09 1 S
ED19 3.63 1 P
ED19 6.99 1 S
ED20 3.53 1 P
ED20 6.79 1 S
ED23 1.55 1 P
ED23 3.01 1 S
ED24 1.72 1 P
ED24 3.34 1 S
ED25 3.56 1 P
ED25 6.86 1 S
# 2016 10 14 00 12 49.740 42.7687 13.1423 1.90 0.10 0 0 0 45
MC2 2.9 1 P
MC2 5.7 1 S
MMO1 3.69 1 P
MMO1 7.18 1 S
NRCA 1.39 1 P
NRCA 2.76 1 S
SMA1 3.88 1 P
SMA1 7.54 1 S
T1202 1.79 1 P
T1202 3.55 1 S
T1204 3.12 1 P
T1204 6.11 1 S
T1212 1.5 1 P
T1212 2.97 1 S
T1214 1.04 1 P
T1214 2.07 1 S
T1216 3 1 P
T1216 5.88 1 S
T1217 3.25 1 P
T1217 6.35 1 S
T1218 2.02 1 P
T1218 3.99 1 S
T1244 2.29 1 P
T1244 4.52 1 S
T1245 1.89 1 P
T1245 3.74 1 S
T1299 3.33 1 P
T1299 6.51 1 S
ED03 3.34 1 P
ED03 6.51 1 S
ED10 0.38 1 P
ED10 0.75 1 S
ED11 2.26 1 P
ED11 4.46 1 S
ED12 2.52 1 P
ED12 4.97 1 S
ED16 2.75 1 P
ED16 5.41 1 S
ED19 2.98 1 P
ED19 5.85 1 S
ED23 2.18 1 P
ED23 4.32 1 S
ED24 2.37 1 P
ED24 4.67 1 S
# 2016 10 14 00 12 56.610 42.8690 13.0796 3.78 -0.12 0 0 0 46
CESI 3.64 1 P
CESI 7.01 1 S
FDMO 3.28 1 P
FDMO 6.34 1 S
MC2 1.87 1 P
MC2 3.64 1 S
MMO1 3.58 1 P
MMO1 6.9 1 S
NRCA 1.07 1 P
NRCA 2.09 1 S
T1202 3.83 1 P
T1202 7.36 1 S
T1212 2.41 1 P
T1212 4.67 1 S
T1214 2.86 1 P
T1214 5.54 1 S
T1215 3.3 1 P
T1215 6.38 1 S
T1216 1.16 1 P
T1216 2.27 1 S
T1217 3.72 1 P
T1217 7.16 1 S
T1244 3.8 1 P
T1244 7.31 1 S
T1245 1.69 1 P
T1245 3.29 1 S
ED10 2.08 1 P
ED10 4.05 1 S
ED11 3.58 1 P
ED11 6.9 1 S
ED12 2 1 P
ED12 3.89 1 S
ED16 3.32 1 P
ED16 6.42 1 S
ED17 3.77 1 P
ED17 7.25 1 S
ED18 3.35 1 P
ED18 6.47 1 S
ED19 1.45 1 P
ED19 2.83 1 S
ED23 3.84 1 P
ED23 7.39 1 S
# 2016 10 14 00 13 02.700 42.7370 13.1897 3.98 0.43 0 0 0 47
MC2 3.41 1 P
MC2 6.57 1 S
MMO1 3.72 1 P
MMO1 7.15 1 S
NRCA 2.25 1 P
NRCA 4.37 1 S
SMA1 2.98 1 P
SMA1 5.75 1 S
T1202 1.07 1 P
T1202 2.09 1 S
T1204 2.25 1 P
T1204 4.37 1 S
T1212 2.18 1 P
T1212 4.23 1 S
T1214 0.86 1 P
T1214 1.68 1 S
T1216 3.85 1 P
T1216 7.4 1 S
T1217 3.73 1 P
T1217 7.17 1 S
T1218 1.81 1 P
T1218 3.51 1 S
T1244 1.72 1 P
T1244 3.35 1 S
T1245 2.4 1 P
T1245 4.65 1 S
T1299 2.47 1 P
T1299 4.78 1 S
ED03 2.67 1 P
ED03 5.16 1 S
ED04 3.53 1 P
ED04 6.8 1 S
ED09 3.57 1 P
ED09 6.87 1 S
ED10 1.25 1 P
ED10 2.43 1 S
ED11 2.49 1 P
ED11 4.83 1 S
ED12 3.34 1 P
ED12 6.44 1 S
ED16 2.63 1 P
ED16 5.09 1 S
ED19 3.63 1 P
ED19 6.99 1 S
ED20 3.53 1 P
ED20 6.79 1 S
ED23 1.55 1 P
ED23 3.01 1 S
ED24 1.72 1 P
ED24 3.34 1 S
ED25 3.56 1 P
ED25 6.86 1 S
# 2016 10 14 00 13 06.730 42.7387 13.1843 4.36 0.00 0 0 0 48
MC2 3.39 1 P
MC2 6.51 1 S
MMO1 3.73 1 P
MMO1 7.16 1 S
NRCA 2.2 1 P
NRCA 4.26 1 S
SMA1 3.06 1 P
SMA1 5.89 1 S
T1202 1.17 1 P
T1202 2.27 1 S
T1204 2.34 1 P
T1204 4.53 1 S
T1212 2.12 1 P
T1212 4.11 1 S
T1214 0.92 1 P
T1214 1.79 1 S
T1216 3.78 1 P
T1216 7.26 1 S
T1217 3.66 1 P
T1217 7.03 1 S
T1218 1.81 1 P
T1218 3.5 1 S
T1244 1.8 1 P
T1244 3.5 1 S
T1245 2.38 1 P
T1245 4.61 1 S
T1299 2.55 1 P
T1299 4.92 1 S
ED03 2.71 1 P
ED03 5.23 1 S
ED04 3.6 1 P
ED04 6.9 1 S
ED09 3.63 1 P
ED09 6.97 1 S
ED10 1.22 1 P
ED10 2.37 1 S
ED11 2.45 1 P
ED11 4.74 1 S
ED12 3.27 1 P
ED12 6.29 1 S
ED16 2.66 1 P
ED16 5.15 1 S
ED19 3.59 1 P
ED19 6.9 1 S
ED20 3.6 1 P
ED20 6.92 1 S
ED23 1.64 1 P
ED23 3.18 1 S
ED24 1.77 1 P
ED24 3.43 1 S
ED25 3.64 1 P
ED25 6.98 1 S
# 2016 10 14 00 13 15.400 42.7416 13.1914 2.55 0.00 0 0 0 49
MC2 3.33 1 P
MC2 6.47 1 S
MMO1 3.64 1 P
MMO1 7.06 1 S
NRCA 2.16 1 P
NRCA 4.24 1 S
SMA1 3.02 1 P
SMA1 5.88 1 S
T1202 1 1 P
T1202 1.97 1 S
T1204 2.26 1 P
T1204 4.43 1 S
T1212 2.16 1 P
T1212 4.25 1 S
T1214 0.63 1 P
T1214 1.24 1 S
T1216 3.81 1 P
T1216 7.38 1 S
T1217 3.77 1 P
T1217 7.31 1 S
T1218 1.84 1 P
T1218 3.62 1 S
T1244 1.63 1 P
T1244 3.2 1 S
T1245 2.29 1 P
T1245 4.5 1 S
T1299 2.51 1 P
T1299 4.91 1 S
ED03 2.74 1 P
ED03 5.35 1 S
ED04 3.61 1 P
ED04 6.99 1 S
ED09 3.53 1 P
ED09 6.84 1 S
ED10 1.1 1 P
ED10 2.18 1 S
ED11 2.53 1 P
ED11 4.95 1 S
ED12 3.33 1 P
ED12 6.47 1 S
ED16 2.54 1 P
ED16 4.96 1 S
ED19 3.56 1 P
ED19 6.9 1 S
ED20 3.51 1 P
ED20 6.8 1 S
ED23 1.45 1 P
ED23 2.86 1 S
ED24 1.74 1 P
ED24 3.43 1 S
ED25 3.62 1 P
ED25 7.02 1 S
# 2016 10 14 00 13 29.360 42.7364 13.1894 4.01 0.00 0 0 0 50
MC2 3.42 1 P
MC2 6.59 1 S
MMO1 3.73 1 P
MMO1 7.17 1 S
NRCA 2.26 1 P
NRCA 4.38 1 S
SMA1 2.97 1 P
SMA1 5.74 1 S
T1202 1.07 1 P
T1202 2.08 1 S
T1204 2.25 1 P
T1204 4.37 1 S
T1212 2.18 1 P
T1212 4.23 1 S
T1214 0.87 1 P
T1214 1.7 1 S
T1216 3.86 1 P
T1216 7.41 1 S
T1217 3.72 1 P
T1217 7.16 1 S
T1218 1.8 1 P
T1218 3.49 1 S
T1244 1.73 1 P
T1244 3.37 1 S
T1245 2.41 1 P
T1245 4.68 1 S
T1299 2.46 1 P
T1299 4.77 1 S
ED03 2.66 1 P
ED03 5.14 1 S
ED04 3.52 1 P
ED04 6.78 1 S
ED09 3.58 1 P
ED09 6.89 1 S
ED10 1.25 1 P
ED10 2.44 1 S
ED11 2.49 1 P
ED11 4.82 1 S
ED12 3.34 1 P
ED12 6.44 1 S
ED16 2.64 1 P
ED16 5.11 1 S
ED19 3.64 1 P
ED19 7.01 1 S
ED20 3.53 1 P
ED20 6.8 1 S
ED23 1.56 1 P
ED23 3.03 1 S
ED24 1.71 1 P
ED24 3.32 1 S
ED25 3.56 1 P
ED25 6.85 1 S
# 2016 10 14 00 13 37.440 42.7439 13.1846 3.93 0.30 0 0 0 51
MC2 3.28 1 P
MC2 6.33 1 S
MMO1 3.65 1 P
MMO1 7.02 1 S
NRCA 2.11 1 P
NRCA 4.09 1 S
SMA1 3.12 1 P
SMA1 6.02 1 S
T1202 1.18 1 P
T1202 2.31 1 S
T1204 2.38 1 P
T1204 4.61 1 S
T1212 2.1 1 P
T1212 4.08 1 S
T1214 0.82 1 P
T1214 1.61 1 S
T1216 3.71 1 P
T1216 7.14 1 S
T1217 3.68 1 P
T1217 7.08 1 S
T1218 1.86 1 P
T1218 3.62 1 S
T1244 1.76 1 P
T1244 3.43 1 S
T1245 2.27 1 P
T1245 4.41 1 S
T1299 2.61 1 P
T1299 5.06 1 S
ED03 2.79 1 P
ED03 5.4 1 S
ED04 3.68 1 P
ED04 7.07 1 S
ED09 3.59 1 P
ED09 6.92 1 S
ED10 1.12 1 P
ED10 2.19 1 S
ED11 2.48 1 P
ED11 4.81 1 S
ED12 3.23 1 P
ED12 6.23 1 S
ED16 2.58 1 P
ED16 5 1 S
ED19 3.49 1 P
ED19 6.73 1 S
ED20 3.59 1 P
ED20 6.92 1 S
ED23 1.61 1 P
ED23 3.13 1 S
ED24 1.84 1 P
ED24 3.57 1 S
ED25 3.7 1 P
ED25 7.13 1 S
# 2016 10 14 00 14 01.620 42.8172 13.2130 11.63 0.00 0 0 0 52
MC2 2.6 1 P
MC2 4.88 1 S
MMO1 2.88 1 P
MMO1 5.4 1 S
NRCA 2.35 1 P
NRCA 4.42 1 S
T1202 2.84 1 P
T1202 5.32 1 S
T1204 3.5 1 P
T1204 6.57 1 S
T1212 3.2 1 P
T1212 6 1 S
T1214 2.19 1 P
T1214 4.12 1 S
T1216 3.5 1 P
T1216 6.56 1 S
T1218 3.56 1 P
T1218 6.66 1 S
T1241 3.57 1 P
T1241 6.69 1 S
T1244 2.49 1 P
T1244 4.68 1 S
T1245 2.08 1 P
T1245 3.91 1 S
T1299 3.96 1 P
T1299 7.42 1 S
ED09 3.43 1 P
ED09 6.43 1 S
ED10 2.27 1 P
ED10 4.27 1 S
ED11 3.87 1 P
ED11 7.25 1 S
ED12 3.7 1 P
ED12 6.93 1 S
ED16 2.33 1 P
ED16 4.37 1 S
ED17 3.56 1 P
ED17 6.68 1 S
ED18 3.74 1 P
ED18 7 1 S
ED19 2.86 1 P
ED19 5.37 1 S
ED20 3.76 1 P
ED20 7.04 1 S
ED23 2.55 1 P
ED23 4.79 1 S
ED24 3.53 1 P
ED24 6.62 1 S
# 2016 10 14 00 14 18.450 42.8184 13.3458 16.25 0.42 0 0 0 53
MC2 3.72 1 P
MC2 6.95 1 S
MMO1 3.01 1 P
MMO1 5.62 1 S
NRCA 4.02 1 P
NRCA 7.5 1 S
SMA1 4.26 1 P
SMA1 7.95 1 S
T1202 3.69 1 P
T1202 6.89 1 S
T1204 3.67 1 P
T1204 6.86 1 S
T1214 3.35 1 P
T1214 6.26 1 S
T1241 2.93 1 P
T1241 5.48 1 S
T1244 2.91 1 P
T1244 5.44 1 S
T1245 3.41 1 P
T1245 6.37 1 S
T1299 4.29 1 P
T1299 8 1 S
ED09 2.83 1 P
ED09 5.3 1 S
ED10 3.82 1 P
ED10 7.14 1 S
ED16 2.69 1 P
ED16 5.03 1 S
ED17 3.75 1 P
ED17 7 1 S
ED18 4.27 1 P
ED18 7.96 1 S
ED19 4.18 1 P
ED19 7.79 1 S
ED20 3.13 1 P
ED20 5.85 1 S
ED22 4.27 1 P
ED22 7.97 1 S
ED23 3.05 1 P
ED23 5.69 1 S
ED24 4.4 1 P
ED24 8.21 1 S
# 2016 10 14 00 14 27.690 42.7474 13.1902 6.35 0.00 0 0 0 54
MC2 3.28 1 P
MC2 6.23 1 S
MMO1 3.59 1 P
MMO1 6.83 1 S
NRCA 2.22 1 P
NRCA 4.25 1 S
SMA1 3.17 1 P
SMA1 6.04 1 S
T1202 1.45 1 P
T1202 2.77 1 S
T1204 2.46 1 P
T1204 4.71 1 S
T1212 2.29 1 P
T1212 4.38 1 S
T1214 1.14 1 P
T1214 2.18 1 S
T1216 3.75 1 P
T1216 7.11 1 S
T1217 3.8 1 P
T1217 7.2 1 S
T1218 2.1 1 P
T1218 4.01 1 S
T1244 1.85 1 P
T1244 3.55 1 S
T1245 2.33 1 P
T1245 4.45 1 S
T1299 2.71 1 P
T1299 5.18 1 S
ED03 2.93 1 P
ED03 5.59 1 S
ED04 3.74 1 P
ED04 7.09 1 S
ED09 3.55 1 P
ED09 6.74 1 S
ED10 1.4 1 P
ED10 2.68 1 S
ED11 2.67 1 P
ED11 5.1 1 S
ED12 3.33 1 P
ED12 6.33 1 S
ED16 2.58 1 P
ED16 4.93 1 S
ED19 3.49 1 P
ED19 6.63 1 S
ED20 3.56 1 P
ED20 6.76 1 S
ED23 1.73 1 P
ED23 3.31 1 S
ED24 2.04 1 P
ED24 3.91 1 S
ED25 3.74 1 P
ED25 7.1 1 S
# 2016 10 14 00 14 43.410 42.8185 13.3458 16.35 0.13 0 0 0 55
MC2 3.73 1 P
MC2 6.97 1 S
MMO1 3.02 1 P
MMO1 5.64 1 S
NRCA 4.03 1 P
NRCA 7.51 1 S
SMA1 4.27 1 P
SMA1 7.96 1 S
T1202 3.7 1 P
T1202 6.91 1 S
T1204 3.69 1 P
T1204 6.88 1 S
T1214 3.36 1 P
T1214 6.28 1 S
T1241 2.94 1 P
T1241 5.5 1 S
T1244 2.93 1 P
T1244 5.47 1 S
T1245 3.42 1 P
T1245 6.39 1 S
T1299 4.3 1 P
T1299 8.01 1 S
ED09 2.85 1 P
ED09 5.32 1 S
ED10 3.83 1 P
ED10 7.15 1 S
ED16 2.71 1 P
ED16 5.06 1 S
ED17 3.76 1 P
ED17 7.01 1 S
ED18 4.28 1 P
ED18 7.97 1 S
ED19 4.19 1 P
ED19 7.81 1 S
ED20 3.14 1 P
ED20 5.87 1 S
ED22 4.28 1 P
ED22 7.98 1 S
ED23 3.06 1 P
ED23 5.72 1 S
ED24 4.41 1 P
ED24 8.22 1 S
