# 2016 10 14 00 42 19.170 42.7753 13.1808 7.32 0.60 0 0 0 141
MC2 2.84 1 P
MC2 5.39 1 S
MMO1 3.31 1 P
MMO1 6.26 1 S
NRCA 1.89 1 P
NRCA 3.6 1 S
SMA1 3.66 1 P
SMA1 6.91 1 S
T1202 1.93 1 P
T1202 3.67 1 S
T1204 2.92 1 P
T1204 5.53 1 S
T1212 2.29 1 P
T1212 4.36 1 S
T1214 1.33 1 P
T1214 2.54 1 S
T1216 3.34 1 P
T1216 6.31 1 S
T1217 3.83 1 P
T1217 7.23 1 S
T1218 2.5 1 P
T1218 4.75 1 S
T1244 2.06 1 P
T1244 3.93 1 S
T1245 1.97 1 P
T1245 3.75 1 S
T1299 3.23 1 P
T1299 6.12 1 S
ED03 3.46 1 P
ED03 6.54 1 S
ED09 3.59 1 P
ED09 6.78 1 S
ED10 1.36 1 P
ED10 2.58 1 S
ED11 2.88 1 P
ED11 5.46 1 S
ED12 3.12 1 P
ED12 5.9 1 S
ED16 2.43 1 P
ED16 4.62 1 S
ED19 3.03 1 P
ED19 5.74 1 S
ED20 3.74 1 P
ED20 7.06 1 S
ED23 2.01 1 P
ED23 3.83 1 S
ED24 2.57 1 P
ED24 4.88 1 S
# 2016 10 14 00 43 21.320 42.8754 13.0680 2.87 0.14 0 0 0 142
CESI 3.45 1 P
CESI 6.68 1 S
FDMO 3.17 1 P
FDMO 6.16 1 S
MC2 1.93 1 P
MC2 3.79 1 S
MMO1 3.72 1 P
MMO1 7.21 1 S
NRCA 1.17 1 P
NRCA 2.3 1 S
T1212 2.48 1 P
T1212 4.84 1 S
T1214 3.05 1 P
T1214 5.92 1 S
T1215 3.21 1 P
T1215 6.23 1 S
T1216 0.92 1 P
T1216 1.8 1 S
T1217 3.74 1 P
T1217 7.23 1 S
T1245 1.83 1 P
T1245 3.58 1 S
ED10 2.24 1 P
ED10 4.38 1 S
ED11 3.68 1 P
ED11 7.12 1 S
ED12 1.94 1 P
ED12 3.8 1 S
ED16 3.5 1 P
ED16 6.79 1 S
ED17 3.85 1 P
ED17 7.45 1 S
ED18 3.38 1 P
ED18 6.56 1 S
ED19 1.43 1 P
ED19 2.81 1 S
# 2016 10 14 00 43 36.060 42.7677 13.2569 4.29 0.26 0 0 0 143
MC2 3 1 P
MC2 5.79 1 S
MMO1 2.81 1 P
MMO1 5.42 1 S
NRCA 2.49 1 P
NRCA 4.8 1 S
SMA1 2.94 1 P
SMA1 5.68 1 S
T1202 1.51 1 P
T1202 2.94 1 S
T1204 2.09 1 P
T1204 4.05 1 S
T1212 3.09 1 P
T1212 5.95 1 S
T1214 1.02 1 P
T1214 1.99 1 S
T1218 2.83 1 P
T1218 5.47 1 S
T1241 3.07 1 P
T1241 5.91 1 S
T1244 0.96 1 P
T1244 1.88 1 S
T1245 2.1 1 P
T1245 4.07 1 S
T1299 2.69 1 P
T1299 5.19 1 S
ED03 3.37 1 P
ED03 6.48 1 S
ED04 3.81 1 P
ED04 7.3 1 S
ED09 2.54 1 P
ED09 4.91 1 S
ED10 1.8 1 P
ED10 3.5 1 S
ED11 3.56 1 P
ED11 6.84 1 S
ED16 1.68 1 P
ED16 3.27 1 S
ED19 3.42 1 P
ED19 6.58 1 S
ED20 2.64 1 P
ED20 5.11 1 S
ED23 0.98 1 P
ED23 1.91 1 S
ED24 2.45 1 P
ED24 4.74 1 S
ED25 3.57 1 P
ED25 6.86 1 S
# 2016 10 14 00 44 29.100 42.8184 13.3458 16.25 0.46 0 0 0 144
MC2 3.72 1 P
MC2 6.95 1 S
MMO1 3.01 1 P
MMO1 5.62 1 S
NRCA 4.02 1 P
NRCA 7.5 1 S
SMA1 4.26 1 P
SMA1 7.95 1 S
T1202 3.69 1 P
T1202 6.89 1 S
T1204 3.67 1 P
T1204 6.86 1 S
T1214 3.35 1 P
T1214 6.26 1 S
T1241 2.93 1 P
T1241 5.48 1 S
T1244 2.91 1 P
T1244 5.44 1 S
T1245 3.41 1 P
T1245 6.37 1 S
T1299 4.29 1 P
T1299 8 1 S
ED09 2.83 1 P
ED09 5.3 1 S
ED10 3.82 1 P
ED10 7.14 1 S
ED16 2.69 1 P
ED16 5.03 1 S
ED17 3.75 1 P
ED17 7 1 S
ED18 4.27 1 P
ED18 7.96 1 S
ED19 4.18 1 P
ED19 7.79 1 S
ED20 3.13 1 P
ED20 5.85 1 S
ED22 4.27 1 P
ED22 7.97 1 S
ED23 3.05 1 P
ED23 5.69 1 S
ED24 4.4 1 P
ED24 8.21 1 S
# 2016 10 14 00 44 49.100 42.7397 13.1829 4.24 0.65 0 0 0 145
MC2 3.37 1 P
MC2 6.48 1 S
MMO1 3.73 1 P
MMO1 7.16 1 S
NRCA 2.17 1 P
NRCA 4.21 1 S
SMA1 3.08 1 P
SMA1 5.94 1 S
T1202 1.17 1 P
T1202 2.29 1 S
T1204 2.37 1 P
T1204 4.58 1 S
T1212 2.1 1 P
T1212 4.06 1 S
T1214 0.91 1 P
T1214 1.76 1 S
T1216 3.76 1 P
T1216 7.21 1 S
T1217 3.64 1 P
T1217 7 1 S
T1218 1.8 1 P
T1218 3.5 1 S
T1244 1.81 1 P
T1244 3.52 1 S
T1245 2.36 1 P
T1245 4.57 1 S
T1299 2.57 1 P
T1299 4.96 1 S
ED03 2.72 1 P
ED03 5.26 1 S
ED04 3.62 1 P
ED04 6.95 1 S
ED09 3.64 1 P
ED09 7 1 S
ED10 1.19 1 P
ED10 2.31 1 S
ED11 2.44 1 P
ED11 4.72 1 S
ED12 3.24 1 P
ED12 6.24 1 S
ED16 2.66 1 P
ED16 5.14 1 S
ED19 3.57 1 P
ED19 6.86 1 S
ED20 3.62 1 P
ED20 6.96 1 S
ED23 1.65 1 P
ED23 3.2 1 S
ED24 1.78 1 P
ED24 3.46 1 S
ED25 3.66 1 P
ED25 7.04 1 S
# 2016 10 14 00 46 13.430 42.7688 13.1518 7.38 0.12 0 0 0 146
MC2 2.99 1 P
MC2 5.67 1 S
MMO1 3.64 1 P
MMO1 6.88 1 S
NRCA 1.82 1 P
NRCA 3.46 1 S
SMA1 3.82 1 P
SMA1 7.21 1 S
T1202 2.02 1 P
T1202 3.84 1 S
T1204 3.12 1 P
T1204 5.91 1 S
T1212 1.96 1 P
T1212 3.73 1 S
T1214 1.49 1 P
T1214 2.83 1 S
T1216 3.18 1 P
T1216 6.01 1 S
T1217 3.45 1 P
T1217 6.52 1 S
T1218 2.29 1 P
T1218 4.36 1 S
T1244 2.38 1 P
T1244 4.52 1 S
T1245 2.13 1 P
T1245 4.04 1 S
T1299 3.33 1 P
T1299 6.31 1 S
ED03 3.39 1 P
ED03 6.41 1 S
ED10 1.27 1 P
ED10 2.42 1 S
ED11 2.55 1 P
ED11 4.84 1 S
ED12 2.8 1 P
ED12 5.3 1 S
ED16 2.79 1 P
ED16 5.28 1 S
ED19 3.09 1 P
ED19 5.86 1 S
ED23 2.29 1 P
ED23 4.36 1 S
ED24 2.52 1 P
ED24 4.79 1 S
# 2016 10 14 00 46 25.880 42.9193 13.1507 7.54 0.37 0 0 0 147
CESI 3.94 1 P
CESI 7.42 1 S
CSP1 3.55 1 P
CSP1 6.7 1 S
FDMO 2.68 1 P
FDMO 5.09 1 S
GUMA 3.89 1 P
GUMA 7.34 1 S
MC2 1.39 1 P
MC2 2.64 1 S
MMO1 2.76 1 P
MMO1 5.23 1 S
NRCA 2.11 1 P
NRCA 4.01 1 S
T1212 3.68 1 P
T1212 6.95 1 S
T1214 3.34 1 P
T1214 6.32 1 S
T1216 2.28 1 P
T1216 4.32 1 S
T1244 3.86 1 P
T1244 7.27 1 S
T1245 1.81 1 P
T1245 3.44 1 S
ED10 2.95 1 P
ED10 5.6 1 S
ED12 3.43 1 P
ED12 6.47 1 S
ED16 2.93 1 P
ED16 5.55 1 S
ED17 2.66 1 P
ED17 5.04 1 S
ED18 2.25 1 P
ED18 4.28 1 S
ED19 1.28 1 P
ED19 2.45 1 S
ED21 2.95 1 P
ED21 5.58 1 S
ED22 3.16 1 P
ED22 5.99 1 S
# 2016 10 14 00 46 34.450 42.8952 13.2417 3.58 -0.21 0 0 0 148
CSP1 3.86 1 P
CSP1 7.43 1 S
FDMO 3.53 1 P
FDMO 6.81 1 S
GUMA 3.53 1 P
GUMA 6.81 1 S
MC2 1.03 1 P
MC2 2.01 1 S
MMO1 1.36 1 P
MMO1 2.66 1 S
NRCA 2.25 1 P
NRCA 4.38 1 S
T1202 3.74 1 P
T1202 7.2 1 S
T1214 2.73 1 P
T1214 5.29 1 S
T1216 3.2 1 P
T1216 6.19 1 S
T1241 2.85 1 P
T1241 5.52 1 S
T1244 2.85 1 P
T1244 5.52 1 S
T1245 1.24 1 P
T1245 2.42 1 S
ED09 3.21 1 P
ED09 6.21 1 S
ED10 2.76 1 P
ED10 5.34 1 S
ED16 1.59 1 P
ED16 3.1 1 S
ED17 1.78 1 P
ED17 3.47 1 S
ED18 1.96 1 P
ED18 3.83 1 S
ED19 1.65 1 P
ED19 3.22 1 S
ED21 2.71 1 P
ED21 5.25 1 S
ED22 2.53 1 P
ED22 4.92 1 S
ED23 3.06 1 P
ED23 5.92 1 S
# 2016 10 14 00 46 47.240 42.8689 13.0797 3.84 0.09 0 0 0 149
CESI 3.64 1 P
CESI 7.01 1 S
FDMO 3.29 1 P
FDMO 6.34 1 S
MC2 1.87 1 P
MC2 3.64 1 S
MMO1 3.58 1 P
MMO1 6.9 1 S
NRCA 1.08 1 P
NRCA 2.1 1 S
T1202 3.82 1 P
T1202 7.36 1 S
T1212 2.41 1 P
T1212 4.67 1 S
T1214 2.86 1 P
T1214 5.53 1 S
T1215 3.31 1 P
T1215 6.38 1 S
T1216 1.17 1 P
T1216 2.28 1 S
T1217 3.72 1 P
T1217 7.16 1 S
T1244 3.8 1 P
T1244 7.3 1 S
T1245 1.69 1 P
T1245 3.29 1 S
ED10 2.08 1 P
ED10 4.05 1 S
ED11 3.58 1 P
ED11 6.9 1 S
ED12 2 1 P
ED12 3.89 1 S
ED16 3.32 1 P
ED16 6.41 1 S
ED17 3.77 1 P
ED17 7.25 1 S
ED18 3.35 1 P
ED18 6.47 1 S
ED19 1.45 1 P
ED19 2.84 1 S
ED23 3.84 1 P
ED23 7.38 1 S
# 2016 10 14 00 47 06.240 42.9203 13.2632 3.46 0.00 0 0 0 150
CSP1 3.45 1 P
CSP1 6.67 1 S
FDMO 3.39 1 P
FDMO 6.55 1 S
GUMA 2.99 1 P
GUMA 5.79 1 S
MC2 1.23 1 P
MC2 2.4 1 S
MMO1 1.16 1 P
MMO1 2.28 1 S
NRCA 2.76 1 P
NRCA 5.35 1 S
T1214 3.25 1 P
T1214 6.28 1 S
T1216 3.54 1 P
T1216 6.83 1 S
T1241 2.74 1 P
T1241 5.32 1 S
T1244 3.24 1 P
T1244 6.26 1 S
T1245 1.74 1 P
T1245 3.4 1 S
ED09 3.29 1 P
ED09 6.37 1 S
ED10 3.31 1 P
ED10 6.39 1 S
ED16 1.83 1 P
ED16 3.57 1 S
ED17 1.25 1 P
ED17 2.45 1 S
ED18 1.53 1 P
ED18 3 1 S
ED19 1.86 1 P
ED19 3.63 1 S
ED21 2.21 1 P
ED21 4.31 1 S
ED22 1.98 1 P
ED22 3.87 1 S
ED23 3.48 1 P
ED23 6.71 1 S
# 2016 10 14 00 47 37.700 42.8952 13.2417 3.58 0.08 0 0 0 151
CSP1 3.86 1 P
CSP1 7.43 1 S
FDMO 3.53 1 P
FDMO 6.81 1 S
GUMA 3.53 1 P
GUMA 6.81 1 S
MC2 1.03 1 P
MC2 2.01 1 S
MMO1 1.36 1 P
MMO1 2.66 1 S
NRCA 2.25 1 P
NRCA 4.38 1 S
T1202 3.74 1 P
T1202 7.2 1 S
T1214 2.73 1 P
T1214 5.29 1 S
T1216 3.2 1 P
T1216 6.19 1 S
T1241 2.85 1 P
T1241 5.52 1 S
T1244 2.85 1 P
T1244 5.52 1 S
T1245 1.24 1 P
T1245 2.42 1 S
ED09 3.21 1 P
ED09 6.21 1 S
ED10 2.76 1 P
ED10 5.34 1 S
ED16 1.59 1 P
ED16 3.1 1 S
ED17 1.78 1 P
ED17 3.47 1 S
ED18 1.96 1 P
ED18 3.83 1 S
ED19 1.65 1 P
ED19 3.22 1 S
ED21 2.71 1 P
ED21 5.25 1 S
ED22 2.53 1 P
ED22 4.92 1 S
ED23 3.06 1 P
ED23 5.92 1 S
# 2016 10 14 00 48 02.750 42.7993 13.2578 1.26 0.00 0 0 0 152
MC2 2.45 1 P
MC2 4.88 1 S
MMO1 2.24 1 P
MMO1 4.46 1 S
NRCA 2.22 1 P
NRCA 4.41 1 S
SMA1 3.52 1 P
SMA1 6.91 1 S
T1202 1.98 1 P
T1202 3.95 1 S
T1204 2.6 1 P
T1204 5.17 1 S
T1212 3.24 1 P
T1212 6.38 1 S
T1214 1.1 1 P
T1214 2.19 1 S
T1216 3.89 1 P
T1216 7.6 1 S
T1218 3.3 1 P
T1218 6.48 1 S
T1241 2.77 1 P
T1241 5.49 1 S
T1244 1.06 1 P
T1244 2.1 1 S
T1245 1.55 1 P
T1245 3.09 1 S
T1299 3.29 1 P
T1299 6.47 1 S
ED09 2.43 1 P
ED09 4.83 1 S
ED10 1.78 1 P
ED10 3.55 1 S
ED11 3.91 1 P
ED11 7.64 1 S
ED16 1.07 1 P
ED16 2.14 1 S
ED17 3.38 1 P
ED17 6.64 1 S
ED18 3.8 1 P
ED18 7.42 1 S
ED19 2.95 1 P
ED19 5.83 1 S
ED20 2.78 1 P
ED20 5.51 1 S
ED23 1.23 1 P
ED23 2.44 1 S
ED24 3.01 1 P
ED24 5.94 1 S
# 2016 10 14 00 48 30.570 42.7383 13.1876 3.80 -0.04 0 0 0 153
MC2 3.39 1 P
MC2 6.53 1 S
MMO1 3.71 1 P
MMO1 7.15 1 S
NRCA 2.21 1 P
NRCA 4.29 1 S
SMA1 3.01 1 P
SMA1 5.83 1 S
T1202 1.08 1 P
T1202 2.11 1 S
T1204 2.29 1 P
T1204 4.44 1 S
T1212 2.15 1 P
T1212 4.17 1 S
T1214 0.84 1 P
T1214 1.63 1 S
T1216 3.82 1 P
T1216 7.34 1 S
T1217 3.7 1 P
T1217 7.13 1 S
T1218 1.8 1 P
T1218 3.5 1 S
T1244 1.74 1 P
T1244 3.38 1 S
T1245 2.37 1 P
T1245 4.6 1 S
T1299 2.5 1 P
T1299 4.85 1 S
ED03 2.69 1 P
ED03 5.21 1 S
ED04 3.57 1 P
ED04 6.87 1 S
ED09 3.59 1 P
ED09 6.91 1 S
ED10 1.2 1 P
ED10 2.34 1 S
ED11 2.47 1 P
ED11 4.8 1 S
ED12 3.31 1 P
ED12 6.38 1 S
ED16 2.63 1 P
ED16 5.09 1 S
ED19 3.6 1 P
ED19 6.94 1 S
ED20 3.56 1 P
ED20 6.85 1 S
ED23 1.56 1 P
ED23 3.05 1 S
ED24 1.73 1 P
ED24 3.37 1 S
ED25 3.6 1 P
ED25 6.93 1 S
# 2016 10 14 00 48 55.780 42.8647 13.1368 2.13 0.82 0 0 0 154
FDMO 3.45 1 P
FDMO 6.71 1 S
MC2 1.25 1 P
MC2 2.48 1 S
MMO1 2.84 1 P
MMO1 5.56 1 S
NRCA 0.79 1 P
NRCA 1.57 1 S
T1202 3.41 1 P
T1202 6.64 1 S
T1212 2.61 1 P
T1212 5.13 1 S
T1214 2.34 1 P
T1214 4.61 1 S
T1216 1.82 1 P
T1216 3.59 1 S
T1218 3.82 1 P
T1218 7.42 1 S
T1244 3.15 1 P
T1244 6.15 1 S
T1245 0.85 1 P
T1245 1.68 1 S
ED10 1.77 1 P
ED10 3.5 1 S
ED11 3.76 1 P
ED11 7.29 1 S
ED12 2.59 1 P
ED12 5.1 1 S
ED16 2.54 1 P
ED16 4.99 1 S
ED17 3.18 1 P
ED17 6.2 1 S
ED18 2.94 1 P
ED18 5.75 1 S
ED19 1.15 1 P
ED19 2.28 1 S
ED21 3.77 1 P
ED21 7.33 1 S
ED22 3.87 1 P
ED22 7.51 1 S
ED23 3.23 1 P
ED23 6.3 1 S
# 2016 10 14 00 49 27.550 42.6892 13.3053 10.76 0.00 0 0 0 155
CAMP 3.62 1 P
CAMP 6.78 1 S
RM33 3.95 1 P
RM33 7.4 1 S
SMA1 2.13 1 P
SMA1 4 1 S
T1202 2.11 1 P
T1202 3.97 1 S
T1204 1.81 1 P
T1204 3.4 1 S
T1214 2.56 1 P
T1214 4.82 1 S
T1218 3.15 1 P
T1218 5.91 1 S
T1241 3.93 1 P
T1241 7.36 1 S
T1244 2.18 1 P
T1244 4.1 1 S
T1245 3.89 1 P
T1245 7.28 1 S
T1246 3.66 1 P
T1246 6.86 1 S
T1299 2.07 1 P
T1299 3.91 1 S
ED03 2.85 1 P
ED03 5.35 1 S
ED04 2.77 1 P
ED04 5.2 1 S
ED07 3.02 1 P
ED07 5.66 1 S
ED09 3.14 1 P
ED09 5.9 1 S
ED10 3.27 1 P
ED10 6.14 1 S
ED11 4.08 1 P
ED11 7.63 1 S
ED16 3.25 1 P
ED16 6.1 1 S
ED20 2.73 1 P
ED20 5.14 1 S
ED23 2.06 1 P
ED23 3.87 1 S
ED24 2.43 1 P
ED24 4.57 1 S
ED25 2.52 1 P
ED25 4.74 1 S
# 2016 10 14 00 49 41.410 42.8692 13.2421 4.28 0.11 0 0 0 156
MC2 1.33 1 P
MC2 2.59 1 S
MMO1 1.52 1 P
MMO1 2.96 1 S
NRCA 2.06 1 P
NRCA 4 1 S
T1202 3.26 1 P
T1202 6.28 1 S
T1212 3.64 1 P
T1212 6.99 1 S
T1214 2.28 1 P
T1214 4.41 1 S
T1216 3.24 1 P
T1216 6.24 1 S
T1241 2.77 1 P
T1241 5.34 1 S
T1244 2.41 1 P
T1244 4.66 1 S
T1245 1.09 1 P
T1245 2.13 1 S
ED09 2.97 1 P
ED09 5.72 1 S
ED10 2.39 1 P
ED10 4.62 1 S
ED16 1.33 1 P
ED16 2.59 1 S
ED17 2.21 1 P
ED17 4.27 1 S
ED18 2.46 1 P
ED18 4.76 1 S
ED19 1.89 1 P
ED19 3.67 1 S
ED20 3.63 1 P
ED20 6.97 1 S
ED21 3.19 1 P
ED21 6.15 1 S
ED22 2.97 1 P
ED22 5.73 1 S
ED23 2.61 1 P
ED23 5.03 1 S
