# 2016 10 14 00 00 09.090 42.8125 13.2140 6.27 0.91 0 0 0 1
MC2 2.18 1 P
MC2 4.18 1 S
MMO1 2.51 1 P
MMO1 4.79 1 S
NRCA 1.79 1 P
NRCA 3.44 1 S
T1202 2.33 1 P
T1202 4.45 1 S
T1204 3.13 1 P
T1204 5.96 1 S
T1212 2.82 1 P
T1212 5.39 1 S
T1214 1.47 1 P
T1214 2.82 1 S
T1216 3.25 1 P
T1216 6.19 1 S
T1218 3.2 1 P
T1218 6.09 1 S
T1241 3.29 1 P
T1241 6.27 1 S
T1244 1.9 1 P
T1244 3.64 1 S
T1245 1.4 1 P
T1245 2.69 1 S
T1299 3.65 1 P
T1299 6.93 1 S
ED09 3.1 1 P
ED09 5.91 1 S
ED10 1.62 1 P
ED10 3.1 1 S
ED11 3.58 1 P
ED11 6.81 1 S
ED12 3.45 1 P
ED12 6.55 1 S
ED16 1.74 1 P
ED16 3.34 1 S
ED17 3.35 1 P
ED17 6.37 1 S
ED18 3.56 1 P
ED18 6.77 1 S
ED19 2.51 1 P
ED19 4.8 1 S
ED20 3.46 1 P
ED20 6.57 1 S
ED23 1.97 1 P
ED23 3.78 1 S
ED24 3.16 1 P
ED24 6.02 1 S
# 2016 10 14 00 00 27.290 42.8952 13.2417 3.58 -0.16 0 0 0 2
CSP1 3.86 1 P
CSP1 7.43 1 S
FDMO 3.53 1 P
FDMO 6.81 1 S
GUMA 3.53 1 P
GUMA 6.81 1 S
MC2 1.03 1 P
MC2 2.01 1 S
MMO1 1.36 1 P
MMO1 2.66 1 S
NRCA 2.25 1 P
NRCA 4.38 1 S
T1202 3.74 1 P
T1202 7.2 1 S
T1214 2.73 1 P
T1214 5.29 1 S
T1216 3.2 1 P
T1216 6.19 1 S
T1241 2.85 1 P
T1241 5.52 1 S
T1244 2.85 1 P
T1244 5.52 1 S
T1245 1.24 1 P
T1245 2.42 1 S
ED09 3.21 1 P
ED09 6.21 1 S
ED10 2.76 1 P
ED10 5.34 1 S
ED16 1.59 1 P
ED16 3.1 1 S
ED17 1.78 1 P
ED17 3.47 1 S
ED18 1.96 1 P
ED18 3.83 1 S
ED19 1.65 1 P
ED19 3.22 1 S
ED21 2.71 1 P
ED21 5.25 1 S
ED22 2.53 1 P
ED22 4.92 1 S
ED23 3.06 1 P
ED23 5.92 1 S
# 2016 10 14 00 00 56.750 42.7352 13.1878 4.31 0.08 0 0 0 3
MC2 3.45 1 P
MC2 6.63 1 S
MMO1 3.76 1 P
MMO1 7.22 1 S
NRCA 2.28 1 P
NRCA 4.41 1 S
SMA1 2.98 1 P
SMA1 5.74 1 S
T1202 1.1 1 P
T1202 2.14 1 S
T1204 2.27 1 P
T1204 4.39 1 S
T1212 2.17 1 P
T1212 4.21 1 S
T1214 0.93 1 P
T1214 1.81 1 S
T1216 3.86 1 P
T1216 7.41 1 S
T1217 3.7 1 P
T1217 7.1 1 S
T1218 1.78 1 P
T1218 3.46 1 S
T1244 1.77 1 P
T1244 3.44 1 S
T1245 2.44 1 P
T1245 4.73 1 S
T1299 2.47 1 P
T1299 4.77 1 S
ED03 2.64 1 P
ED03 5.1 1 S
ED04 3.52 1 P
ED04 6.76 1 S
ED09 3.61 1 P
ED09 6.93 1 S
ED10 1.28 1 P
ED10 2.49 1 S
ED11 2.47 1 P
ED11 4.77 1 S
ED12 3.34 1 P
ED12 6.42 1 S
ED16 2.68 1 P
ED16 5.18 1 S
ED19 3.66 1 P
ED19 7.03 1 S
ED20 3.56 1 P
ED20 6.84 1 S
ED23 1.6 1 P
ED23 3.1 1 S
ED24 1.7 1 P
ED24 3.31 1 S
ED25 3.56 1 P
ED25 6.83 1 S
# 2016 10 14 00 01 18.040 42.7998 13.2022 6.61 0.00 0 0 0 4
MC2 2.39 1 P
MC2 4.57 1 S
MMO1 2.78 1 P
MMO1 5.3 1 S
NRCA 1.78 1 P
NRCA 3.4 1 S
SMA1 3.84 1 P
SMA1 7.27 1 S
T1202 2.16 1 P
T1202 4.12 1 S
T1204 3.03 1 P
T1204 5.77 1 S
T1212 2.62 1 P
T1212 4.99 1 S
T1214 1.36 1 P
T1214 2.61 1 S
T1216 3.25 1 P
T1216 6.18 1 S
T1218 2.95 1 P
T1218 5.61 1 S
T1241 3.52 1 P
T1241 6.67 1 S
T1244 1.92 1 P
T1244 3.66 1 S
T1245 1.57 1 P
T1245 3 1 S
T1299 3.49 1 P
T1299 6.62 1 S
ED03 3.87 1 P
ED03 7.32 1 S
ED09 3.26 1 P
ED09 6.19 1 S
ED10 1.47 1 P
ED10 2.82 1 S
ED11 3.33 1 P
ED11 6.32 1 S
ED12 3.3 1 P
ED12 6.28 1 S
ED16 1.97 1 P
ED16 3.76 1 S
ED17 3.63 1 P
ED17 6.88 1 S
ED18 3.81 1 P
ED18 7.22 1 S
ED19 2.67 1 P
ED19 5.08 1 S
ED20 3.54 1 P
ED20 6.72 1 S
ED23 1.95 1 P
ED23 3.72 1 S
ED24 2.94 1 P
ED24 5.6 1 S
# 2016 10 14 00 01 50.090 42.7353 13.1876 4.35 0.19 0 0 0 5
MC2 3.45 1 P
MC2 6.63 1 S
MMO1 3.76 1 P
MMO1 7.22 1 S
NRCA 2.28 1 P
NRCA 4.41 1 S
SMA1 2.98 1 P
SMA1 5.75 1 S
T1202 1.1 1 P
T1202 2.15 1 S
T1204 2.27 1 P
T1204 4.4 1 S
T1212 2.17 1 P
T1212 4.21 1 S
T1214 0.94 1 P
T1214 1.82 1 S
T1216 3.86 1 P
T1216 7.4 1 S
T1217 3.7 1 P
T1217 7.1 1 S
T1218 1.79 1 P
T1218 3.46 1 S
T1244 1.78 1 P
T1244 3.45 1 S
T1245 2.44 1 P
T1245 4.72 1 S
T1299 2.47 1 P
T1299 4.77 1 S
ED03 2.65 1 P
ED03 5.11 1 S
ED04 3.52 1 P
ED04 6.76 1 S
ED09 3.61 1 P
ED09 6.93 1 S
ED10 1.28 1 P
ED10 2.49 1 S
ED11 2.47 1 P
ED11 4.77 1 S
ED12 3.33 1 P
ED12 6.41 1 S
ED16 2.68 1 P
ED16 5.18 1 S
ED19 3.66 1 P
ED19 7.03 1 S
ED20 3.56 1 P
ED20 6.84 1 S
ED23 1.6 1 P
ED23 3.11 1 S
ED24 1.71 1 P
ED24 3.31 1 S
ED25 3.56 1 P
ED25 6.84 1 S
# 2016 10 14 00 01 57.210 42.8080 13.2115 5.04 0.00 0 0 0 6
MC2 2.18 1 P
MC2 4.2 1 S
MMO1 2.53 1 P
MMO1 4.86 1 S
NRCA 1.69 1 P
NRCA 3.26 1 S
SMA1 3.88 1 P
SMA1 7.42 1 S
T1202 2.18 1 P
T1202 4.21 1 S
T1204 3.04 1 P
T1204 5.83 1 S
T1212 2.71 1 P
T1212 5.21 1 S
T1214 1.27 1 P
T1214 2.46 1 S
T1216 3.23 1 P
T1216 6.19 1 S
T1218 3.08 1 P
T1218 5.9 1 S
T1241 3.31 1 P
T1241 6.35 1 S
T1244 1.78 1 P
T1244 3.44 1 S
T1245 1.31 1 P
T1245 2.54 1 S
T1299 3.55 1 P
T1299 6.8 1 S
ED09 3.09 1 P
ED09 5.93 1 S
ED10 1.44 1 P
ED10 2.79 1 S
ED11 3.48 1 P
ED11 6.66 1 S
ED12 3.38 1 P
ED12 6.47 1 S
ED16 1.69 1 P
ED16 3.26 1 S
ED17 3.4 1 P
ED17 6.52 1 S
ED18 3.62 1 P
ED18 6.92 1 S
ED19 2.51 1 P
ED19 4.83 1 S
ED20 3.43 1 P
ED20 6.57 1 S
ED23 1.85 1 P
ED23 3.56 1 S
ED24 3.04 1 P
ED24 5.83 1 S
# 2016 10 14 00 02 11.670 42.7715 13.2336 4.21 0.12 0 0 0 7
MC2 2.85 1 P
MC2 5.5 1 S
MMO1 2.87 1 P
MMO1 5.54 1 S
NRCA 2.19 1 P
NRCA 4.24 1 S
SMA1 3.14 1 P
SMA1 6.05 1 S
T1202 1.5 1 P
T1202 2.92 1 S
T1204 2.3 1 P
T1204 4.45 1 S
T1212 2.78 1 P
T1212 5.38 1 S
T1214 0.84 1 P
T1214 1.64 1 S
T1216 3.84 1 P
T1216 7.37 1 S
T1218 2.67 1 P
T1218 5.15 1 S
T1241 3.29 1 P
T1241 6.34 1 S
T1244 1.2 1 P
T1244 2.33 1 S
T1245 1.9 1 P
T1245 3.69 1 S
T1299 2.82 1 P
T1299 5.44 1 S
ED03 3.36 1 P
ED03 6.47 1 S
ED09 2.83 1 P
ED09 5.45 1 S
ED10 1.5 1 P
ED10 2.92 1 S
ED11 3.31 1 P
ED11 6.38 1 S
ED12 3.73 1 P
ED12 7.16 1 S
ED16 1.79 1 P
ED16 3.47 1 S
ED19 3.21 1 P
ED19 6.19 1 S
ED20 2.96 1 P
ED20 5.71 1 S
ED23 1.19 1 P
ED23 2.31 1 S
ED24 2.41 1 P
ED24 4.67 1 S
ED25 3.76 1 P
ED25 7.23 1 S
# 2016 10 14 00 02 17.740 42.7352 13.1878 4.31 0.12 0 0 0 8
MC2 3.45 1 P
MC2 6.63 1 S
MMO1 3.76 1 P
MMO1 7.22 1 S
NRCA 2.28 1 P
NRCA 4.41 1 S
SMA1 2.98 1 P
SMA1 5.74 1 S
T1202 1.1 1 P
T1202 2.14 1 S
T1204 2.27 1 P
T1204 4.39 1 S
T1212 2.17 1 P
T1212 4.21 1 S
T1214 0.93 1 P
T1214 1.81 1 S
T1216 3.86 1 P
T1216 7.41 1 S
T1217 3.7 1 P
T1217 7.1 1 S
T1218 1.78 1 P
T1218 3.46 1 S
T1244 1.77 1 P
T1244 3.44 1 S
T1245 2.44 1 P
T1245 4.73 1 S
T1299 2.47 1 P
T1299 4.77 1 S
ED03 2.64 1 P
ED03 5.1 1 S
ED04 3.52 1 P
ED04 6.76 1 S
ED09 3.61 1 P
ED09 6.93 1 S
ED10 1.28 1 P
ED10 2.49 1 S
ED11 2.47 1 P
ED11 4.77 1 S
ED12 3.34 1 P
ED12 6.42 1 S
ED16 2.68 1 P
ED16 5.18 1 S
ED19 3.66 1 P
ED19 7.03 1 S
ED20 3.56 1 P
ED20 6.84 1 S
ED23 1.6 1 P
ED23 3.1 1 S
ED24 1.7 1 P
ED24 3.31 1 S
ED25 3.56 1 P
ED25 6.83 1 S
# 2016 10 14 00 02 24.860 42.8080 13.2115 5.04 -0.07 0 0 0 9
MC2 2.18 1 P
MC2 4.2 1 S
MMO1 2.53 1 P
MMO1 4.86 1 S
NRCA 1.69 1 P
NRCA 3.26 1 S
SMA1 3.88 1 P
SMA1 7.42 1 S
T1202 2.18 1 P
T1202 4.21 1 S
T1204 3.04 1 P
T1204 5.83 1 S
T1212 2.71 1 P
T1212 5.21 1 S
T1214 1.27 1 P
T1214 2.46 1 S
T1216 3.23 1 P
T1216 6.19 1 S
T1218 3.08 1 P
T1218 5.9 1 S
T1241 3.31 1 P
T1241 6.35 1 S
T1244 1.78 1 P
T1244 3.44 1 S
T1245 1.31 1 P
T1245 2.54 1 S
T1299 3.55 1 P
T1299 6.8 1 S
ED09 3.09 1 P
ED09 5.93 1 S
ED10 1.44 1 P
ED10 2.79 1 S
ED11 3.48 1 P
ED11 6.66 1 S
ED12 3.38 1 P
ED12 6.47 1 S
ED16 1.69 1 P
ED16 3.26 1 S
ED17 3.4 1 P
ED17 6.52 1 S
ED18 3.62 1 P
ED18 6.92 1 S
ED19 2.51 1 P
ED19 4.83 1 S
ED20 3.43 1 P
ED20 6.57 1 S
ED23 1.85 1 P
ED23 3.56 1 S
ED24 3.04 1 P
ED24 5.83 1 S
# 2016 10 14 00 02 37.640 42.6570 13.2839 9.11 0.52 0 0 0 10
CAMP 3.21 1 P
CAMP 6.04 1 S
RM33 3.28 1 P
RM33 6.17 1 S
SMA1 1.75 1 P
SMA1 3.31 1 S
T1202 1.93 1 P
T1202 3.65 1 S
T1204 1.63 1 P
T1204 3.08 1 S
T1212 4 1 P
T1212 7.5 1 S
T1214 2.64 1 P
T1214 4.99 1 S
T1218 2.77 1 P
T1218 5.23 1 S
T1244 2.41 1 P
T1244 4.55 1 S
T1246 3.51 1 P
T1246 6.6 1 S
T1299 1.58 1 P
T1299 3 1 S
ED01 3.87 1 P
ED01 7.26 1 S
ED03 2.23 1 P
ED03 4.21 1 S
ED04 2.17 1 P
ED04 4.1 1 S
ED05 3.72 1 P
ED05 7 1 S
ED06 3.96 1 P
ED06 7.43 1 S
ED07 2.95 1 P
ED07 5.56 1 S
ED09 3.6 1 P
ED09 6.77 1 S
ED10 3.32 1 P
ED10 6.26 1 S
ED11 3.78 1 P
ED11 7.1 1 S
ED16 3.68 1 P
ED16 6.92 1 S
ED20 3.08 1 P
ED20 5.8 1 S
ED23 2.21 1 P
ED23 4.18 1 S
ED24 1.97 1 P
ED24 3.73 1 S
ED25 2.09 1 P
ED25 3.95 1 S
# 2016 10 14 00 02 58.340 42.6520 13.2628 8.06 0.04 0 0 0 11
CAMP 3.25 1 P
CAMP 6.14 1 S
RM33 3.07 1 P
RM33 5.79 1 S
SMA1 1.73 1 P
SMA1 3.29 1 S
T1202 1.74 1 P
T1202 3.31 1 S
T1204 1.61 1 P
T1204 3.06 1 S
T1212 3.77 1 P
T1212 7.1 1 S
T1214 2.54 1 P
T1214 4.8 1 S
T1218 2.46 1 P
T1218 4.66 1 S
T1244 2.43 1 P
T1244 4.61 1 S
T1246 3.66 1 P
T1246 6.91 1 S
T1299 1.42 1 P
T1299 2.7 1 S
ED01 3.57 1 P
ED01 6.73 1 S
ED03 1.92 1 P
ED03 3.64 1 S
ED04 2.04 1 P
ED04 3.88 1 S
ED05 3.69 1 P
ED05 6.96 1 S
ED06 3.78 1 P
ED06 7.13 1 S
ED07 3.12 1 P
ED07 5.89 1 S
ED09 3.78 1 P
ED09 7.12 1 S
ED10 3.17 1 P
ED10 5.99 1 S
ED11 3.49 1 P
ED11 6.58 1 S
ED16 3.75 1 P
ED16 7.07 1 S
ED20 3.27 1 P
ED20 6.17 1 S
ED23 2.2 1 P
ED23 4.18 1 S
ED24 1.67 1 P
ED24 3.17 1 S
ED25 2.08 1 P
ED25 3.95 1 S
# 2016 10 14 00 03 05.410 42.7353 13.1878 4.30 0.04 0 0 0 12
MC2 3.45 1 P
MC2 6.63 1 S
MMO1 3.76 1 P
MMO1 7.22 1 S
NRCA 2.28 1 P
NRCA 4.41 1 S
SMA1 2.98 1 P
SMA1 5.75 1 S
T1202 1.1 1 P
T1202 2.14 1 S
T1204 2.27 1 P
T1204 4.39 1 S
T1212 2.17 1 P
T1212 4.21 1 S
T1214 0.93 1 P
T1214 1.81 1 S
T1216 3.86 1 P
T1216 7.41 1 S
T1217 3.7 1 P
T1217 7.1 1 S
T1218 1.78 1 P
T1218 3.46 1 S
T1244 1.77 1 P
T1244 3.44 1 S
T1245 2.44 1 P
T1245 4.72 1 S
T1299 2.47 1 P
T1299 4.77 1 S
ED03 2.64 1 P
ED03 5.11 1 S
ED04 3.52 1 P
ED04 6.76 1 S
ED09 3.61 1 P
ED09 6.93 1 S
ED10 1.28 1 P
ED10 2.49 1 S
ED11 2.47 1 P
ED11 4.77 1 S
ED12 3.34 1 P
ED12 6.42 1 S
ED16 2.68 1 P
ED16 5.17 1 S
ED19 3.66 1 P
ED19 7.03 1 S
ED20 3.56 1 P
ED20 6.84 1 S
ED23 1.6 1 P
ED23 3.1 1 S
ED24 1.7 1 P
ED24 3.31 1 S
ED25 3.56 1 P
ED25 6.84 1 S
# 2016 10 14 00 03 11.480 42.7366 13.1842 4.10 0.00 0 0 0 13
MC2 3.42 1 P
MC2 6.59 1 S
MMO1 3.77 1 P
MMO1 7.23 1 S
NRCA 2.23 1 P
NRCA 4.32 1 S
SMA1 3.03 1 P
SMA1 5.84 1 S
T1202 1.12 1 P
T1202 2.18 1 S
T1204 2.32 1 P
T1204 4.49 1 S
T1212 2.12 1 P
T1212 4.1 1 S
T1214 0.91 1 P
T1214 1.77 1 S
T1216 3.81 1 P
T1216 7.32 1 S
T1217 3.65 1 P
T1217 7.02 1 S
T1218 1.76 1 P
T1218 3.42 1 S
T1244 1.8 1 P
T1244 3.5 1 S
T1245 2.41 1 P
T1245 4.67 1 S
T1299 2.51 1 P
T1299 4.85 1 S
ED03 2.66 1 P
ED03 5.15 1 S
ED04 3.56 1 P
ED04 6.85 1 S
ED09 3.64 1 P
ED09 7.01 1 S
ED10 1.22 1 P
ED10 2.38 1 S
ED11 2.43 1 P
ED11 4.7 1 S
ED12 3.28 1 P
ED12 6.32 1 S
ED16 2.69 1 P
ED16 5.2 1 S
ED19 3.63 1 P
ED19 6.97 1 S
ED20 3.61 1 P
ED20 6.93 1 S
ED23 1.63 1 P
ED23 3.16 1 S
ED24 1.72 1 P
ED24 3.34 1 S
ED25 3.61 1 P
ED25 6.94 1 S
# 2016 10 14 00 03 19.640 42.8148 13.1500 6.93 0.09 0 0 0 14
MC2 2.23 1 P
MC2 4.25 1 S
MMO1 3.14 1 P
MMO1 5.95 1 S
NRCA 1.32 1 P
NRCA 2.53 1 S
T1202 2.61 1 P
T1202 4.97 1 S
T1204 3.66 1 P
T1204 6.94 1 S
T1212 2.22 1 P
T1212 4.23 1 S
T1214 1.77 1 P
T1214 3.38 1 S
T1216 2.58 1 P
T1216 4.92 1 S
T1217 3.76 1 P
T1217 7.12 1 S
T1218 3 1 P
T1218 5.7 1 S
T1244 2.59 1 P
T1244 4.94 1 S
T1245 1.51 1 P
T1245 2.88 1 S
ED10 1.38 1 P
ED10 2.64 1 S
ED11 3.1 1 P
ED11 5.88 1 S
ED12 2.66 1 P
ED12 5.06 1 S
ED16 2.5 1 P
ED16 4.76 1 S
ED17 3.76 1 P
ED17 7.11 1 S
ED18 3.74 1 P
ED18 7.08 1 S
ED19 2.3 1 P
ED19 4.38 1 S
ED23 2.6 1 P
ED23 4.95 1 S
ED24 3.26 1 P
ED24 6.19 1 S
# 2016 10 14 00 03 42.710 42.8127 13.2135 6.16 0.00 0 0 0 15
MC2 2.17 1 P
MC2 4.16 1 S
MMO1 2.5 1 P
MMO1 4.78 1 S
NRCA 1.78 1 P
NRCA 3.41 1 S
T1202 2.32 1 P
T1202 4.44 1 S
T1204 3.13 1 P
T1204 5.97 1 S
T1212 2.81 1 P
T1212 5.37 1 S
T1214 1.46 1 P
T1214 2.8 1 S
T1216 3.24 1 P
T1216 6.18 1 S
T1218 3.2 1 P
T1218 6.09 1 S
T1241 3.29 1 P
T1241 6.27 1 S
T1244 1.9 1 P
T1244 3.63 1 S
T1245 1.39 1 P
T1245 2.66 1 S
T1299 3.65 1 P
T1299 6.94 1 S
ED09 3.1 1 P
ED09 5.92 1 S
ED10 1.6 1 P
ED10 3.08 1 S
ED11 3.58 1 P
ED11 6.8 1 S
ED12 3.44 1 P
ED12 6.54 1 S
ED16 1.73 1 P
ED16 3.33 1 S
ED17 3.34 1 P
ED17 6.37 1 S
ED18 3.55 1 P
ED18 6.76 1 S
ED19 2.5 1 P
ED19 4.78 1 S
ED20 3.46 1 P
ED20 6.59 1 S
ED23 1.97 1 P
ED23 3.78 1 S
ED24 3.16 1 P
ED24 6.02 1 S
# 2016 10 14 00 03 48.690 42.8647 13.1368 2.13 0.13 0 0 0 16
FDMO 3.45 1 P
FDMO 6.71 1 S
MC2 1.25 1 P
MC2 2.48 1 S
MMO1 2.84 1 P
MMO1 5.56 1 S
NRCA 0.79 1 P
NRCA 1.57 1 S
T1202 3.41 1 P
T1202 6.64 1 S
T1212 2.61 1 P
T1212 5.13 1 S
T1214 2.34 1 P
T1214 4.61 1 S
T1216 1.82 1 P
T1216 3.59 1 S
T1218 3.82 1 P
T1218 7.42 1 S
T1244 3.15 1 P
T1244 6.15 1 S
T1245 0.85 1 P
T1245 1.68 1 S
ED10 1.77 1 P
ED10 3.5 1 S
ED11 3.76 1 P
ED11 7.29 1 S
ED12 2.59 1 P
ED12 5.1 1 S
ED16 2.54 1 P
ED16 4.99 1 S
ED17 3.18 1 P
ED17 6.2 1 S
ED18 2.94 1 P
ED18 5.75 1 S
ED19 1.15 1 P
ED19 2.28 1 S
ED21 3.77 1 P
ED21 7.33 1 S
ED22 3.87 1 P
ED22 7.51 1 S
ED23 3.23 1 P
ED23 6.3 1 S
# 2016 10 14 00 03 57.400 42.8142 13.1213 2.64 0.00 0 0 0 17
MC2 2.18 1 P
MC2 4.28 1 S
MMO1 3.39 1 P
MMO1 6.58 1 S
NRCA 0.61 1 P
NRCA 1.21 1 S
T1202 2.66 1 P
T1202 5.19 1 S
T1204 3.88 1 P
T1204 7.51 1 S
T1212 1.71 1 P
T1212 3.37 1 S
T1214 1.72 1 P
T1214 3.37 1 S
T1215 3.63 1 P
T1215 7.03 1 S
T1216 2.14 1 P
T1216 4.21 1 S
T1217 3.39 1 P
T1217 6.57 1 S
T1218 2.85 1 P
T1218 5.55 1 S
T1244 2.8 1 P
T1244 5.45 1 S
T1245 1.35 1 P
T1245 2.66 1 S
ED10 0.91 1 P
ED10 1.8 1 S
ED11 2.79 1 P
ED11 5.44 1 S
ED12 2.12 1 P
ED12 4.17 1 S
ED16 2.73 1 P
ED16 5.33 1 S
ED18 3.87 1 P
ED18 7.48 1 S
ED19 2.13 1 P
ED19 4.17 1 S
ED23 2.78 1 P
ED23 5.43 1 S
ED24 3.27 1 P
ED24 6.36 1 S
# 2016 10 14 00 04 16.550 42.6577 12.8723 2.96 0.15 0 0 0 18
T1212 3.1 1 P
T1212 6.01 1 S
T1215 2.84 1 P
T1215 5.53 1 S
T1217 1.45 1 P
T1217 2.85 1 S
T1218 3.5 1 P
T1218 6.77 1 S
ED02 1.43 1 P
ED02 2.81 1 S
ED11 2.44 1 P
ED11 4.75 1 S
ED12 3.28 1 P
ED12 6.36 1 S
# 2016 10 14 00 04 25.890 42.5822 13.2825 11.61 0.70 0 0 0 19
CAMP 2.7 1 P
CAMP 5.07 1 S
RM33 2.51 1 P
RM33 4.72 1 S
SMA1 2.23 1 P
SMA1 4.19 1 S
T1202 3.03 1 P
T1202 5.69 1 S
T1204 2.61 1 P
T1204 4.91 1 S
T1214 3.89 1 P
T1214 7.28 1 S
T1218 3.36 1 P
T1218 6.3 1 S
T1244 3.73 1 P
T1244 6.98 1 S
T1246 3.42 1 P
T1246 6.41 1 S
T1247 3.21 1 P
T1247 6.03 1 S
T1299 2.14 1 P
T1299 4.02 1 S
ED01 3.35 1 P
ED01 6.28 1 S
ED03 2.32 1 P
ED03 4.35 1 S
ED04 1.93 1 P
ED04 3.63 1 S
ED05 2.86 1 P
ED05 5.36 1 S
ED06 2.98 1 P
ED06 5.59 1 S
ED07 3.23 1 P
ED07 6.05 1 S
ED14 3.75 1 P
ED14 7.03 1 S
ED23 3.51 1 P
ED23 6.58 1 S
ED24 2.64 1 P
ED24 4.95 1 S
ED25 2.15 1 P
ED25 4.05 1 S
# 2016 10 14 00 04 44.700 42.8142 13.1213 2.64 -0.04 0 0 0 20
MC2 2.18 1 P
MC2 4.28 1 S
MMO1 3.39 1 P
MMO1 6.58 1 S
NRCA 0.61 1 P
NRCA 1.21 1 S
T1202 2.66 1 P
T1202 5.19 1 S
T1204 3.88 1 P
T1204 7.51 1 S
T1212 1.71 1 P
T1212 3.37 1 S
T1214 1.72 1 P
T1214 3.37 1 S
T1215 3.63 1 P
T1215 7.03 1 S
T1216 2.14 1 P
T1216 4.21 1 S
T1217 3.39 1 P
T1217 6.57 1 S
T1218 2.85 1 P
T1218 5.55 1 S
T1244 2.8 1 P
T1244 5.45 1 S
T1245 1.35 1 P
T1245 2.66 1 S
ED10 0.91 1 P
ED10 1.8 1 S
ED11 2.79 1 P
ED11 5.44 1 S
ED12 2.12 1 P
ED12 4.17 1 S
ED16 2.73 1 P
ED16 5.33 1 S
ED18 3.87 1 P
ED18 7.48 1 S
ED19 2.13 1 P
ED19 4.17 1 S
ED23 2.78 1 P
ED23 5.43 1 S
ED24 3.27 1 P
ED24 6.36 1 S
# 2016 10 14 00 04 52.920 42.8933 13.2398 4.14 0.58 0 0 0 21
FDMO 3.55 1 P
FDMO 6.82 1 S
GUMA 3.58 1 P
GUMA 6.88 1 S
MC2 1.07 1 P
MC2 2.09 1 S
MMO1 1.43 1 P
MMO1 2.78 1 S
NRCA 2.23 1 P
NRCA 4.32 1 S
T1202 3.7 1 P
T1202 7.12 1 S
T1214 2.7 1 P
T1214 5.22 1 S
T1216 3.18 1 P
T1216 6.13 1 S
T1241 2.87 1 P
T1241 5.55 1 S
T1244 2.83 1 P
T1244 5.47 1 S
T1245 1.25 1 P
T1245 2.43 1 S
ED09 3.22 1 P
ED09 6.2 1 S
ED10 2.72 1 P
ED10 5.26 1 S
ED16 1.61 1 P
ED16 3.13 1 S
ED17 1.85 1 P
ED17 3.58 1 S
ED18 2.02 1 P
ED18 3.92 1 S
ED19 1.67 1 P
ED19 3.25 1 S
ED21 2.76 1 P
ED21 5.33 1 S
ED22 2.59 1 P
ED22 5.01 1 S
ED23 3.04 1 P
ED23 5.86 1 S
# 2016 10 14 00 05 03.630 42.8933 13.2398 4.14 0.04 0 0 0 22
FDMO 3.55 1 P
FDMO 6.82 1 S
GUMA 3.58 1 P
GUMA 6.88 1 S
MC2 1.07 1 P
MC2 2.09 1 S
MMO1 1.43 1 P
MMO1 2.78 1 S
NRCA 2.23 1 P
NRCA 4.32 1 S
T1202 3.7 1 P
T1202 7.12 1 S
T1214 2.7 1 P
T1214 5.22 1 S
T1216 3.18 1 P
T1216 6.13 1 S
T1241 2.87 1 P
T1241 5.55 1 S
T1244 2.83 1 P
T1244 5.47 1 S
T1245 1.25 1 P
T1245 2.43 1 S
ED09 3.22 1 P
ED09 6.2 1 S
ED10 2.72 1 P
ED10 5.26 1 S
ED16 1.61 1 P
ED16 3.13 1 S
ED17 1.85 1 P
ED17 3.58 1 S
ED18 2.02 1 P
ED18 3.92 1 S
ED19 1.67 1 P
ED19 3.25 1 S
ED21 2.76 1 P
ED21 5.33 1 S
ED22 2.59 1 P
ED22 5.01 1 S
ED23 3.04 1 P
ED23 5.86 1 S
# 2016 10 14 00 05 17.410 42.7411 13.1797 4.42 0.19 0 0 0 23
MC2 3.34 1 P
MC2 6.43 1 S
MMO1 3.73 1 P
MMO1 7.16 1 S
NRCA 2.14 1 P
NRCA 4.14 1 S
SMA1 3.14 1 P
SMA1 6.04 1 S
T1202 1.23 1 P
T1202 2.39 1 S
T1204 2.42 1 P
T1204 4.68 1 S
T1212 2.06 1 P
T1212 3.99 1 S
T1214 0.94 1 P
T1214 1.82 1 S
T1216 3.71 1 P
T1216 7.12 1 S
T1217 3.61 1 P
T1217 6.92 1 S
T1218 1.81 1 P
T1218 3.51 1 S
T1244 1.86 1 P
T1244 3.6 1 S
T1245 2.34 1 P
T1245 4.53 1 S
T1299 2.62 1 P
T1299 5.05 1 S
ED03 2.76 1 P
ED03 5.32 1 S
ED04 3.66 1 P
ED04 7.03 1 S
ED09 3.68 1 P
ED09 7.06 1 S
ED10 1.17 1 P
ED10 2.27 1 S
ED11 2.42 1 P
ED11 4.67 1 S
ED12 3.19 1 P
ED12 6.15 1 S
ED16 2.68 1 P
ED16 5.17 1 S
ED19 3.54 1 P
ED19 6.79 1 S
ED20 3.66 1 P
ED20 7.03 1 S
ED23 1.7 1 P
ED23 3.29 1 S
ED24 1.82 1 P
ED24 3.53 1 S
ED25 3.71 1 P
ED25 7.12 1 S
# 2016 10 14 00 05 37.840 42.8798 13.2471 3.67 0.03 0 0 0 24
FDMO 3.8 1 P
FDMO 7.32 1 S
GUMA 3.77 1 P
GUMA 7.27 1 S
MC2 1.21 1 P
MC2 2.37 1 S
MMO1 1.35 1 P
MMO1 2.64 1 S
NRCA 2.18 1 P
NRCA 4.23 1 S
T1202 3.46 1 P
T1202 6.67 1 S
T1212 3.82 1 P
T1212 7.35 1 S
T1214 2.47 1 P
T1214 4.79 1 S
T1216 3.28 1 P
T1216 6.34 1 S
T1241 2.71 1 P
T1241 5.26 1 S
T1244 2.56 1 P
T1244 4.96 1 S
T1245 1.15 1 P
T1245 2.24 1 S
ED09 2.99 1 P
ED09 5.79 1 S
ED10 2.56 1 P
ED10 4.97 1 S
ED16 1.35 1 P
ED16 2.63 1 S
ED17 1.98 1 P
ED17 3.86 1 S
ED18 2.25 1 P
ED18 4.37 1 S
ED19 1.83 1 P
ED19 3.56 1 S
ED20 3.71 1 P
ED20 7.14 1 S
ED21 2.98 1 P
ED21 5.77 1 S
ED22 2.76 1 P
ED22 5.34 1 S
ED23 2.77 1 P
ED23 5.36 1 S
# 2016 10 14 00 05 56.000 42.7395 13.1845 4.14 0.00 0 0 0 25
MC2 3.37 1 P
MC2 6.48 1 S
MMO1 3.72 1 P
MMO1 7.14 1 S
NRCA 2.18 1 P
NRCA 4.23 1 S
SMA1 3.06 1 P
SMA1 5.91 1 S
T1202 1.15 1 P
T1202 2.24 1 S
T1204 2.34 1 P
T1204 4.54 1 S
T1212 2.11 1 P
T1212 4.1 1 S
T1214 0.89 1 P
T1214 1.73 1 S
T1216 3.77 1 P
T1216 7.25 1 S
T1217 3.66 1 P
T1217 7.04 1 S
T1218 1.81 1 P
T1218 3.51 1 S
T1244 1.79 1 P
T1244 3.47 1 S
T1245 2.36 1 P
T1245 4.57 1 S
T1299 2.55 1 P
T1299 4.93 1 S
ED03 2.72 1 P
ED03 5.25 1 S
ED04 3.61 1 P
ED04 6.93 1 S
ED09 3.62 1 P
ED09 6.96 1 S
ED10 1.19 1 P
ED10 2.32 1 S
ED11 2.45 1 P
ED11 4.75 1 S
ED12 3.26 1 P
ED12 6.28 1 S
ED16 2.65 1 P
ED16 5.12 1 S
ED19 3.58 1 P
ED19 6.87 1 S
ED20 3.6 1 P
ED20 6.92 1 S
ED23 1.62 1 P
ED23 3.15 1 S
ED24 1.77 1 P
ED24 3.44 1 S
ED25 3.65 1 P
ED25 7.01 1 S
# 2016 10 14 00 06 04.050 42.8798 13.2471 3.67 -0.11 0 0 0 26
FDMO 3.8 1 P
FDMO 7.32 1 S
GUMA 3.77 1 P
GUMA 7.27 1 S
MC2 1.21 1 P
MC2 2.37 1 S
MMO1 1.35 1 P
MMO1 2.64 1 S
NRCA 2.18 1 P
NRCA 4.23 1 S
T1202 3.46 1 P
T1202 6.67 1 S
T1212 3.82 1 P
T1212 7.35 1 S
T1214 2.47 1 P
T1214 4.79 1 S
T1216 3.28 1 P
T1216 6.34 1 S
T1241 2.71 1 P
T1241 5.26 1 S
T1244 2.56 1 P
T1244 4.96 1 S
T1245 1.15 1 P
T1245 2.24 1 S
ED09 2.99 1 P
ED09 5.79 1 S
ED10 2.56 1 P
ED10 4.97 1 S
ED16 1.35 1 P
ED16 2.63 1 S
ED17 1.98 1 P
ED17 3.86 1 S
ED18 2.25 1 P
ED18 4.37 1 S
ED19 1.83 1 P
ED19 3.56 1 S
ED20 3.71 1 P
ED20 7.14 1 S
ED21 2.98 1 P
ED21 5.77 1 S
ED22 2.76 1 P
ED22 5.34 1 S
ED23 2.77 1 P
ED23 5.36 1 S
# 2016 10 14 00 06 31.150 42.8217 13.1708 7.41 0.00 0 0 0 27
MC2 2.11 1 P
MC2 4.02 1 S
MMO1 2.88 1 P
MMO1 5.45 1 S
NRCA 1.49 1 P
NRCA 2.84 1 S
T1202 2.65 1 P
T1202 5.03 1 S
T1204 3.61 1 P
T1204 6.81 1 S
T1212 2.51 1 P
T1212 4.77 1 S
T1214 1.79 1 P
T1214 3.41 1 S
T1216 2.76 1 P
T1216 5.23 1 S
T1218 3.2 1 P
T1218 6.05 1 S
T1241 3.84 1 P
T1241 7.24 1 S
T1244 2.47 1 P
T1244 4.69 1 S
T1245 1.43 1 P
T1245 2.73 1 S
ED09 3.71 1 P
ED09 7 1 S
ED10 1.56 1 P
ED10 2.98 1 S
ED11 3.37 1 P
ED11 6.37 1 S
ED12 2.95 1 P
ED12 5.6 1 S
ED16 2.27 1 P
ED16 4.32 1 S
ED17 3.52 1 P
ED17 6.66 1 S
ED18 3.55 1 P
ED18 6.72 1 S
ED19 2.27 1 P
ED19 4.31 1 S
ED23 2.51 1 P
ED23 4.77 1 S
ED24 3.36 1 P
ED24 6.36 1 S
