# 2016 10 14 00 32 55.420 42.7439 13.1846 3.93 0.38 0 0 0 113
MC2 3.28 1 P
MC2 6.33 1 S
MMO1 3.65 1 P
MMO1 7.02 1 S
NRCA 2.11 1 P
NRCA 4.09 1 S
SMA1 3.12 1 P
SMA1 6.02 1 S
T1202 1.18 1 P
T1202 2.31 1 S
T1204 2.38 1 P
T1204 4.61 1 S
T1212 2.1 1 P
T1212 4.08 1 S
T1214 0.82 1 P
T1214 1.61 1 S
T1216 3.71 1 P
T1216 7.14 1 S
T1217 3.68 1 P
T1217 7.08 1 S
T1218 1.86 1 P
T1218 3.62 1 S
T1244 1.76 1 P
T1244 3.43 1 S
T1245 2.27 1 P
T1245 4.41 1 S
T1299 2.61 1 P
T1299 5.06 1 S
ED03 2.79 1 P
ED03 5.4 1 S
ED04 3.68 1 P
ED04 7.07 1 S
ED09 3.59 1 P
ED09 6.92 1 S
ED10 1.12 1 P
ED10 2.19 1 S
ED11 2.48 1 P
ED11 4.81 1 S
ED12 3.23 1 P
ED12 6.23 1 S
ED16 2.58 1 P
ED16 5 1 S
ED19 3.49 1 P
ED19 6.73 1 S
ED20 3.59 1 P
ED20 6.92 1 S
ED23 1.61 1 P
ED23 3.13 1 S
ED24 1.84 1 P
ED24 3.57 1 S
ED25 3.7 1 P
ED25 7.13 1 S
# 2016 10 14 00 33 08.840 42.8938 13.2386 4.01 0.08 0 0 0 114
CSP1 3.88 1 P
CSP1 7.45 1 S
FDMO 3.53 1 P
FDMO 6.79 1 S
GUMA 3.57 1 P
GUMA 6.88 1 S
MC2 1.05 1 P
MC2 2.04 1 S
MMO1 1.43 1 P
MMO1 2.79 1 S
NRCA 2.21 1 P
NRCA 4.3 1 S
T1202 3.71 1 P
T1202 7.14 1 S
T1214 2.7 1 P
T1214 5.23 1 S
T1216 3.16 1 P
T1216 6.1 1 S
T1241 2.89 1 P
T1241 5.58 1 S
T1244 2.84 1 P
T1244 5.49 1 S
T1245 1.23 1 P
T1245 2.4 1 S
ED09 3.24 1 P
ED09 6.24 1 S
ED10 2.72 1 P
ED10 5.26 1 S
ED16 1.62 1 P
ED16 3.15 1 S
ED17 1.84 1 P
ED17 3.58 1 S
ED18 2.01 1 P
ED18 3.9 1 S
ED19 1.65 1 P
ED19 3.2 1 S
ED21 2.75 1 P
ED21 5.32 1 S
ED22 2.58 1 P
ED22 5 1 S
ED23 3.05 1 P
ED23 5.89 1 S
# 2016 10 14 00 33 16.320 42.8587 13.1588 2.17 -0.07 0 0 0 115
FDMO 3.63 1 P
FDMO 7.05 1 S
MC2 1.19 1 P
MC2 2.36 1 S
MMO1 2.57 1 P
MMO1 5.05 1 S
NRCA 0.9 1 P
NRCA 1.79 1 S
T1202 3.2 1 P
T1202 6.24 1 S
T1212 2.69 1 P
T1212 5.28 1 S
T1214 2.11 1 P
T1214 4.17 1 S
T1216 2.15 1 P
T1216 4.23 1 S
T1218 3.75 1 P
T1218 7.27 1 S
T1241 3.9 1 P
T1241 7.57 1 S
T1244 2.85 1 P
T1244 5.57 1 S
T1245 0.58 1 P
T1245 1.14 1 S
ED10 1.67 1 P
ED10 3.31 1 S
ED11 3.79 1 P
ED11 7.35 1 S
ED12 2.83 1 P
ED12 5.54 1 S
ED16 2.21 1 P
ED16 4.36 1 S
ED17 3.02 1 P
ED17 5.91 1 S
ED18 2.89 1 P
ED18 5.66 1 S
ED19 1.3 1 P
ED19 2.56 1 S
ED21 3.73 1 P
ED21 7.24 1 S
ED22 3.75 1 P
ED22 7.28 1 S
ED23 2.94 1 P
ED23 5.75 1 S
# 2016 10 14 00 33 27.020 42.7390 13.1889 3.87 0.35 0 0 0 116
MC2 3.37 1 P
MC2 6.51 1 S
MMO1 3.69 1 P
MMO1 7.11 1 S
NRCA 2.21 1 P
NRCA 4.29 1 S
SMA1 3.01 1 P
SMA1 5.82 1 S
T1202 1.09 1 P
T1202 2.13 1 S
T1204 2.28 1 P
T1204 4.43 1 S
T1212 2.16 1 P
T1212 4.2 1 S
T1214 0.83 1 P
T1214 1.62 1 S
T1216 3.82 1 P
T1216 7.34 1 S
T1217 3.72 1 P
T1217 7.16 1 S
T1218 1.82 1 P
T1218 3.54 1 S
T1244 1.72 1 P
T1244 3.35 1 S
T1245 2.36 1 P
T1245 4.58 1 S
T1299 2.5 1 P
T1299 4.85 1 S
ED03 2.7 1 P
ED03 5.23 1 S
ED04 3.57 1 P
ED04 6.87 1 S
ED09 3.57 1 P
ED09 6.87 1 S
ED10 1.21 1 P
ED10 2.35 1 S
ED11 2.5 1 P
ED11 4.84 1 S
ED12 3.32 1 P
ED12 6.4 1 S
ED16 2.61 1 P
ED16 5.05 1 S
ED19 3.59 1 P
ED19 6.92 1 S
ED20 3.54 1 P
ED20 6.81 1 S
ED23 1.55 1 P
ED23 3.02 1 S
ED24 1.75 1 P
ED24 3.4 1 S
ED25 3.6 1 P
ED25 6.93 1 S
# 2016 10 14 00 33 42.580 42.6464 13.2149 9.43 0.02 0 0 0 117
CAMP 3.69 1 P
CAMP 6.94 1 S
RM33 2.99 1 P
RM33 5.63 1 S
SMA1 2.29 1 P
SMA1 4.33 1 S
T1202 1.9 1 P
T1202 3.6 1 S
T1204 2.17 1 P
T1204 4.1 1 S
T1212 3.41 1 P
T1212 6.41 1 S
T1214 2.62 1 P
T1214 4.94 1 S
T1218 2.13 1 P
T1218 4.01 1 S
T1244 2.82 1 P
T1244 5.31 1 S
T1299 1.84 1 P
T1299 3.47 1 S
ED01 3.19 1 P
ED01 6 1 S
ED03 1.8 1 P
ED03 3.4 1 S
ED04 2.35 1 P
ED04 4.44 1 S
ED05 3.96 1 P
ED05 7.44 1 S
ED06 3.72 1 P
ED06 6.99 1 S
ED07 3.76 1 P
ED07 7.07 1 S
ED10 3.06 1 P
ED10 5.75 1 S
ED11 3.03 1 P
ED11 5.71 1 S
ED20 3.88 1 P
ED20 7.27 1 S
ED23 2.58 1 P
ED23 4.87 1 S
ED24 1.61 1 P
ED24 3.05 1 S
ED25 2.6 1 P
ED25 4.9 1 S
# 2016 10 14 00 34 15.180 42.7439 13.1846 3.93 0.36 0 0 0 118
MC2 3.28 1 P
MC2 6.33 1 S
MMO1 3.65 1 P
MMO1 7.02 1 S
NRCA 2.11 1 P
NRCA 4.09 1 S
SMA1 3.12 1 P
SMA1 6.02 1 S
T1202 1.18 1 P
T1202 2.31 1 S
T1204 2.38 1 P
T1204 4.61 1 S
T1212 2.1 1 P
T1212 4.08 1 S
T1214 0.82 1 P
T1214 1.61 1 S
T1216 3.71 1 P
T1216 7.14 1 S
T1217 3.68 1 P
T1217 7.08 1 S
T1218 1.86 1 P
T1218 3.62 1 S
T1244 1.76 1 P
T1244 3.43 1 S
T1245 2.27 1 P
T1245 4.41 1 S
T1299 2.61 1 P
T1299 5.06 1 S
ED03 2.79 1 P
ED03 5.4 1 S
ED04 3.68 1 P
ED04 7.07 1 S
ED09 3.59 1 P
ED09 6.92 1 S
ED10 1.12 1 P
ED10 2.19 1 S
ED11 2.48 1 P
ED11 4.81 1 S
ED12 3.23 1 P
ED12 6.23 1 S
ED16 2.58 1 P
ED16 5 1 S
ED19 3.49 1 P
ED19 6.73 1 S
ED20 3.59 1 P
ED20 6.92 1 S
ED23 1.61 1 P
ED23 3.13 1 S
ED24 1.84 1 P
ED24 3.57 1 S
ED25 3.7 1 P
ED25 7.13 1 S
# 2016 10 14 00 35 38.010 42.8944 13.2383 3.99 0.08 0 0 0 119
CSP1 3.87 1 P
CSP1 7.43 1 S
FDMO 3.52 1 P
FDMO 6.77 1 S
GUMA 3.56 1 P
GUMA 6.86 1 S
MC2 1.04 1 P
MC2 2.02 1 S
MMO1 1.43 1 P
MMO1 2.79 1 S
NRCA 2.22 1 P
NRCA 4.3 1 S
T1202 3.72 1 P
T1202 7.16 1 S
T1214 2.71 1 P
T1214 5.25 1 S
T1216 3.16 1 P
T1216 6.09 1 S
T1241 2.89 1 P
T1241 5.59 1 S
T1244 2.85 1 P
T1244 5.52 1 S
T1245 1.23 1 P
T1245 2.4 1 S
ED09 3.25 1 P
ED09 6.26 1 S
ED10 2.73 1 P
ED10 5.27 1 S
ED16 1.63 1 P
ED16 3.17 1 S
ED17 1.83 1 P
ED17 3.56 1 S
ED18 2 1 P
ED18 3.88 1 S
ED19 1.64 1 P
ED19 3.18 1 S
ED21 2.74 1 P
ED21 5.3 1 S
ED22 2.58 1 P
ED22 4.99 1 S
ED23 3.06 1 P
ED23 5.91 1 S
# 2016 10 14 00 35 46.750 42.7488 13.1823 4.36 0.00 0 0 0 120
MC2 3.2 1 P
MC2 6.16 1 S
MMO1 3.59 1 P
MMO1 6.9 1 S
NRCA 2.03 1 P
NRCA 3.94 1 S
SMA1 3.21 1 P
SMA1 6.18 1 S
T1202 1.3 1 P
T1202 2.53 1 S
T1204 2.47 1 P
T1204 4.77 1 S
T1212 2.08 1 P
T1212 4.03 1 S
T1214 0.87 1 P
T1214 1.69 1 S
T1216 3.62 1 P
T1216 6.96 1 S
T1217 3.67 1 P
T1217 7.04 1 S
T1218 1.94 1 P
T1218 3.76 1 S
T1244 1.8 1 P
T1244 3.5 1 S
T1245 2.2 1 P
T1245 4.26 1 S
T1299 2.71 1 P
T1299 5.24 1 S
ED03 2.89 1 P
ED03 5.58 1 S
ED04 3.77 1 P
ED04 7.24 1 S
ED09 3.6 1 P
ED09 6.91 1 S
ED10 1.1 1 P
ED10 2.13 1 S
ED11 2.51 1 P
ED11 4.85 1 S
ED12 3.17 1 P
ED12 6.11 1 S
ED16 2.55 1 P
ED16 4.93 1 S
ED19 3.4 1 P
ED19 6.54 1 S
ED20 3.63 1 P
ED20 6.96 1 S
ED23 1.66 1 P
ED23 3.23 1 S
ED24 1.95 1 P
ED24 3.77 1 S
ED25 3.8 1 P
ED25 7.28 1 S
# 2016 10 14 00 35 52.490 42.6190 13.2570 8.84 0.12 0 0 0 121
CAMP 2.98 1 P
CAMP 5.63 1 S
RM33 2.59 1 P
RM33 4.89 1 S
SMA1 1.84 1 P
SMA1 3.49 1 S
T1202 2.2 1 P
T1202 4.17 1 S
T1204 2 1 P
T1204 3.78 1 S
T1214 3.07 1 P
T1214 5.79 1 S
T1218 2.62 1 P
T1218 4.94 1 S
T1244 3.01 1 P
T1244 5.68 1 S
T1246 3.61 1 P
T1246 6.79 1 S
T1247 3.65 1 P
T1247 6.87 1 S
T1299 1.55 1 P
T1299 2.93 1 S
ED01 3.19 1 P
ED01 6.01 1 S
ED03 1.77 1 P
ED03 3.34 1 S
ED04 1.79 1 P
ED04 3.38 1 S
ED05 3.27 1 P
ED05 6.16 1 S
ED06 3.26 1 P
ED06 6.14 1 S
ED07 3.21 1 P
ED07 6.05 1 S
ED10 3.64 1 P
ED10 6.85 1 S
ED11 3.63 1 P
ED11 6.82 1 S
ED20 3.73 1 P
ED20 7.01 1 S
ED23 2.77 1 P
ED23 5.23 1 S
ED24 1.86 1 P
ED24 3.51 1 S
ED25 2.01 1 P
ED25 3.8 1 S
# 2016 10 14 00 36 02.300 42.7371 13.1892 4.07 0.02 0 0 0 122
MC2 3.41 1 P
MC2 6.57 1 S
MMO1 3.72 1 P
MMO1 7.15 1 S
NRCA 2.25 1 P
NRCA 4.36 1 S
SMA1 2.99 1 P
SMA1 5.77 1 S
T1202 1.08 1 P
T1202 2.11 1 S
T1204 2.26 1 P
T1204 4.39 1 S
T1212 2.18 1 P
T1212 4.23 1 S
T1214 0.87 1 P
T1214 1.7 1 S
T1216 3.85 1 P
T1216 7.39 1 S
T1217 3.72 1 P
T1217 7.15 1 S
T1218 1.81 1 P
T1218 3.51 1 S
T1244 1.73 1 P
T1244 3.37 1 S
T1245 2.4 1 P
T1245 4.65 1 S
T1299 2.48 1 P
T1299 4.79 1 S
ED03 2.67 1 P
ED03 5.17 1 S
ED04 3.54 1 P
ED04 6.81 1 S
ED09 3.58 1 P
ED09 6.88 1 S
ED10 1.25 1 P
ED10 2.43 1 S
ED11 2.49 1 P
ED11 4.82 1 S
ED12 3.34 1 P
ED12 6.43 1 S
ED16 2.64 1 P
ED16 5.1 1 S
ED19 3.63 1 P
ED19 6.98 1 S
ED20 3.54 1 P
ED20 6.81 1 S
ED23 1.56 1 P
ED23 3.04 1 S
ED24 1.72 1 P
ED24 3.35 1 S
ED25 3.57 1 P
ED25 6.87 1 S
# 2016 10 14 00 36 10.780 42.9055 13.2510 4.80 0.00 0 0 0 123
CSP1 3.7 1 P
CSP1 7.08 1 S
FDMO 3.48 1 P
FDMO 6.67 1 S
GUMA 3.32 1 P
GUMA 6.37 1 S
MC2 1.21 1 P
MC2 2.34 1 S
MMO1 1.35 1 P
MMO1 2.62 1 S
NRCA 2.5 1 P
NRCA 4.81 1 S
T1214 2.96 1 P
T1214 5.7 1 S
T1216 3.35 1 P
T1216 6.43 1 S
T1241 2.81 1 P
T1241 5.41 1 S
T1244 3.02 1 P
T1244 5.81 1 S
T1245 1.53 1 P
T1245 2.97 1 S
ED09 3.25 1 P
ED09 6.23 1 S
ED10 3.01 1 P
ED10 5.78 1 S
ED16 1.74 1 P
ED16 3.36 1 S
ED17 1.63 1 P
ED17 3.16 1 S
ED18 1.84 1 P
ED18 3.57 1 S
ED19 1.79 1 P
ED19 3.47 1 S
ED21 2.54 1 P
ED21 4.89 1 S
ED22 2.35 1 P
ED22 4.53 1 S
ED23 3.24 1 P
ED23 6.22 1 S
# 2016 10 14 00 36 21.850 42.7558 13.2238 9.57 0.16 0 0 0 124
MC2 3.32 1 P
MC2 6.25 1 S
MMO1 3.4 1 P
MMO1 6.39 1 S
NRCA 2.61 1 P
NRCA 4.93 1 S
SMA1 3.2 1 P
SMA1 6.01 1 S
T1202 1.87 1 P
T1202 3.53 1 S
T1204 2.52 1 P
T1204 4.74 1 S
T1212 2.91 1 P
T1212 5.48 1 S
T1214 1.61 1 P
T1214 3.05 1 S
T1218 2.69 1 P
T1218 5.07 1 S
T1241 3.73 1 P
T1241 7 1 S
T1244 1.89 1 P
T1244 3.57 1 S
T1245 2.5 1 P
T1245 4.72 1 S
T1299 2.87 1 P
T1299 5.41 1 S
ED03 3.28 1 P
ED03 6.16 1 S
ED04 3.84 1 P
ED04 7.21 1 S
ED09 3.25 1 P
ED09 6.12 1 S
ED10 1.99 1 P
ED10 3.76 1 S
ED11 3.28 1 P
ED11 6.17 1 S
ED12 3.82 1 P
ED12 7.17 1 S
ED16 2.47 1 P
ED16 4.66 1 S
ED19 3.61 1 P
ED19 6.78 1 S
ED20 3.29 1 P
ED20 6.18 1 S
ED23 1.83 1 P
ED23 3.46 1 S
ED24 2.48 1 P
ED24 4.68 1 S
ED25 3.74 1 P
ED25 7.02 1 S
# 2016 10 14 00 36 35.280 42.7772 13.2342 8.47 0.20 0 0 0 125
MC2 2.94 1 P
MC2 5.55 1 S
MMO1 2.96 1 P
MMO1 5.6 1 S
NRCA 2.41 1 P
NRCA 4.56 1 S
SMA1 3.37 1 P
SMA1 6.36 1 S
T1202 1.98 1 P
T1202 3.76 1 S
T1204 2.62 1 P
T1204 4.95 1 S
T1212 2.99 1 P
T1212 5.65 1 S
T1214 1.5 1 P
T1214 2.85 1 S
T1216 3.88 1 P
T1216 7.3 1 S
T1218 2.94 1 P
T1218 5.55 1 S
T1241 3.38 1 P
T1241 6.37 1 S
T1244 1.71 1 P
T1244 3.24 1 S
T1245 2.15 1 P
T1245 4.07 1 S
T1299 3.09 1 P
T1299 5.83 1 S
ED03 3.59 1 P
ED03 6.76 1 S
ED09 2.98 1 P
ED09 5.63 1 S
ED10 1.91 1 P
ED10 3.62 1 S
ED11 3.5 1 P
ED11 6.6 1 S
ED12 3.82 1 P
ED12 7.19 1 S
ED16 2.07 1 P
ED16 3.91 1 S
ED17 3.91 1 P
ED17 7.36 1 S
ED19 3.27 1 P
ED19 6.17 1 S
ED20 3.14 1 P
ED20 5.92 1 S
ED23 1.72 1 P
ED23 3.26 1 S
ED24 2.73 1 P
ED24 5.17 1 S
ED25 3.95 1 P
ED25 7.42 1 S
# 2016 10 14 00 36 54.170 42.8377 13.1832 3.01 0.00 0 0 0 126
MC2 1.53 1 P
MC2 3.01 1 S
MMO1 2.43 1 P
MMO1 4.73 1 S
NRCA 1.12 1 P
NRCA 2.21 1 S
T1202 2.72 1 P
T1202 5.29 1 S
T1204 3.68 1 P
T1204 7.12 1 S
T1212 2.64 1 P
T1212 5.14 1 S
T1214 1.65 1 P
T1214 3.24 1 S
T1216 2.61 1 P
T1216 5.07 1 S
T1218 3.42 1 P
T1218 6.62 1 S
T1241 3.57 1 P
T1241 6.9 1 S
T1244 2.33 1 P
T1244 4.54 1 S
T1245 0.65 1 P
T1245 1.28 1 S
ED09 3.52 1 P
ED09 6.81 1 S
ED10 1.43 1 P
ED10 2.8 1 S
ED11 3.61 1 P
ED11 6.99 1 S
ED12 3.03 1 P
ED12 5.89 1 S
ED16 1.85 1 P
ED16 3.62 1 S
ED17 3.1 1 P
ED17 6.01 1 S
ED18 3.14 1 P
ED18 6.09 1 S
ED19 1.8 1 P
ED19 3.52 1 S
ED22 3.86 1 P
ED22 7.46 1 S
ED23 2.42 1 P
ED23 4.71 1 S
ED24 3.56 1 P
ED24 6.88 1 S
# 2016 10 14 00 37 01.890 42.8965 13.2389 4.01 -0.04 0 0 0 127
CSP1 3.83 1 P
CSP1 7.36 1 S
FDMO 3.49 1 P
FDMO 6.72 1 S
GUMA 3.53 1 P
GUMA 6.79 1 S
MC2 1.03 1 P
MC2 2.01 1 S
MMO1 1.43 1 P
MMO1 2.78 1 S
NRCA 2.25 1 P
NRCA 4.35 1 S
T1202 3.76 1 P
T1202 7.23 1 S
T1214 2.75 1 P
T1214 5.33 1 S
T1216 3.17 1 P
T1216 6.11 1 S
T1241 2.9 1 P
T1241 5.6 1 S
T1244 2.89 1 P
T1244 5.58 1 S
T1245 1.27 1 P
T1245 2.46 1 S
ED09 3.26 1 P
ED09 6.29 1 S
ED10 2.76 1 P
ED10 5.34 1 S
ED16 1.65 1 P
ED16 3.21 1 S
ED17 1.8 1 P
ED17 3.5 1 S
ED18 1.96 1 P
ED18 3.8 1 S
ED19 1.63 1 P
ED19 3.18 1 S
ED21 2.7 1 P
ED21 5.22 1 S
ED22 2.54 1 P
ED22 4.92 1 S
ED23 3.1 1 P
ED23 5.98 1 S
# 2016 10 14 00 37 20.760 42.7371 13.1892 4.07 0.08 0 0 0 128
MC2 3.41 1 P
MC2 6.57 1 S
MMO1 3.72 1 P
MMO1 7.15 1 S
NRCA 2.25 1 P
NRCA 4.36 1 S
SMA1 2.99 1 P
SMA1 5.77 1 S
T1202 1.08 1 P
T1202 2.11 1 S
T1204 2.26 1 P
T1204 4.39 1 S
T1212 2.18 1 P
T1212 4.23 1 S
T1214 0.87 1 P
T1214 1.7 1 S
T1216 3.85 1 P
T1216 7.39 1 S
T1217 3.72 1 P
T1217 7.15 1 S
T1218 1.81 1 P
T1218 3.51 1 S
T1244 1.73 1 P
T1244 3.37 1 S
T1245 2.4 1 P
T1245 4.65 1 S
T1299 2.48 1 P
T1299 4.79 1 S
ED03 2.67 1 P
ED03 5.17 1 S
ED04 3.54 1 P
ED04 6.81 1 S
ED09 3.58 1 P
ED09 6.88 1 S
ED10 1.25 1 P
ED10 2.43 1 S
ED11 2.49 1 P
ED11 4.82 1 S
ED12 3.34 1 P
ED12 6.43 1 S
ED16 2.64 1 P
ED16 5.1 1 S
ED19 3.63 1 P
ED19 6.98 1 S
ED20 3.54 1 P
ED20 6.81 1 S
ED23 1.56 1 P
ED23 3.04 1 S
ED24 1.72 1 P
ED24 3.35 1 S
ED25 3.57 1 P
ED25 6.87 1 S
# 2016 10 14 00 37 34.050 42.8898 13.2012 9.13 0.00 0 0 0 129
FDMO 3.48 1 P
FDMO 6.54 1 S
GUMA 3.98 1 P
GUMA 7.48 1 S
MC2 1.59 1 P
MC2 3.01 1 S
MMO1 2.3 1 P
MMO1 4.34 1 S
NRCA 2.2 1 P
NRCA 4.15 1 S
T1202 3.78 1 P
T1202 7.11 1 S
T1212 3.66 1 P
T1212 6.88 1 S
T1214 2.86 1 P
T1214 5.39 1 S
T1216 2.91 1 P
T1216 5.48 1 S
T1241 3.53 1 P
T1241 6.64 1 S
T1244 3.18 1 P
T1244 5.99 1 S
T1245 1.66 1 P
T1245 3.14 1 S
ED09 3.77 1 P
ED09 7.08 1 S
ED10 2.72 1 P
ED10 5.12 1 S
ED12 3.74 1 P
ED12 7.02 1 S
ED16 2.32 1 P
ED16 4.38 1 S
ED17 2.54 1 P
ED17 4.79 1 S
ED18 2.49 1 P
ED18 4.71 1 S
ED19 1.83 1 P
ED19 3.46 1 S
ED21 3.17 1 P
ED21 5.96 1 S
ED22 3.14 1 P
ED22 5.91 1 S
ED23 3.33 1 P
ED23 6.26 1 S
# 2016 10 14 00 37 53.630 42.8395 13.0335 2.46 0.00 0 0 0 130
CESI 3.72 1 P
CESI 7.21 1 S
MC2 2.67 1 P
MC2 5.22 1 S
NRCA 1.25 1 P
NRCA 2.47 1 S
T1202 3.81 1 P
T1202 7.39 1 S
T1212 1.79 1 P
T1212 3.52 1 S
T1214 2.98 1 P
T1214 5.81 1 S
T1215 2.52 1 P
T1215 4.93 1 S
T1216 1.12 1 P
T1216 2.21 1 S
T1217 2.92 1 P
T1217 5.69 1 S
T1218 3.52 1 P
T1218 6.83 1 S
T1245 2.28 1 P
T1245 4.48 1 S
ED10 2.02 1 P
ED10 3.98 1 S
ED11 2.98 1 P
ED11 5.8 1 S
ED12 1.13 1 P
ED12 2.23 1 S
ED19 2.22 1 P
ED19 4.37 1 S
# 2016 10 14 00 38 07.910 42.8940 13.2385 4.00 0.10 0 0 0 131
CSP1 3.87 1 P
CSP1 7.44 1 S
FDMO 3.52 1 P
FDMO 6.78 1 S
GUMA 3.57 1 P
GUMA 6.87 1 S
MC2 1.04 1 P
MC2 2.03 1 S
MMO1 1.43 1 P
MMO1 2.79 1 S
NRCA 2.22 1 P
NRCA 4.3 1 S
T1202 3.71 1 P
T1202 7.14 1 S
T1214 2.71 1 P
T1214 5.24 1 S
T1216 3.16 1 P
T1216 6.1 1 S
T1241 2.89 1 P
T1241 5.58 1 S
T1244 2.85 1 P
T1244 5.5 1 S
T1245 1.23 1 P
T1245 2.4 1 S
ED09 3.24 1 P
ED09 6.25 1 S
ED10 2.72 1 P
ED10 5.26 1 S
ED16 1.62 1 P
ED16 3.15 1 S
ED17 1.84 1 P
ED17 3.57 1 S
ED18 2 1 P
ED18 3.89 1 S
ED19 1.64 1 P
ED19 3.19 1 S
ED21 2.75 1 P
ED21 5.31 1 S
ED22 2.58 1 P
ED22 5 1 S
ED23 3.05 1 P
ED23 5.89 1 S
# 2016 10 14 00 38 33.410 42.8940 13.2385 4.00 0.31 0 0 0 132
CSP1 3.87 1 P
CSP1 7.44 1 S
FDMO 3.52 1 P
FDMO 6.78 1 S
GUMA 3.57 1 P
GUMA 6.87 1 S
MC2 1.04 1 P
MC2 2.03 1 S
MMO1 1.43 1 P
MMO1 2.79 1 S
NRCA 2.22 1 P
NRCA 4.3 1 S
T1202 3.71 1 P
T1202 7.14 1 S
T1214 2.71 1 P
T1214 5.24 1 S
T1216 3.16 1 P
T1216 6.1 1 S
T1241 2.89 1 P
T1241 5.58 1 S
T1244 2.85 1 P
T1244 5.5 1 S
T1245 1.23 1 P
T1245 2.4 1 S
ED09 3.24 1 P
ED09 6.25 1 S
ED10 2.72 1 P
ED10 5.26 1 S
ED16 1.62 1 P
ED16 3.15 1 S
ED17 1.84 1 P
ED17 3.57 1 S
ED18 2 1 P
ED18 3.89 1 S
ED19 1.64 1 P
ED19 3.19 1 S
ED21 2.75 1 P
ED21 5.31 1 S
ED22 2.58 1 P
ED22 5 1 S
ED23 3.05 1 P
ED23 5.89 1 S
# 2016 10 14 00 38 50.860 42.8940 13.2385 4.00 0.06 0 0 0 133
CSP1 3.87 1 P
CSP1 7.44 1 S
FDMO 3.52 1 P
FDMO 6.78 1 S
GUMA 3.57 1 P
GUMA 6.87 1 S
MC2 1.04 1 P
MC2 2.03 1 S
MMO1 1.43 1 P
MMO1 2.79 1 S
NRCA 2.22 1 P
NRCA 4.3 1 S
T1202 3.71 1 P
T1202 7.14 1 S
T1214 2.71 1 P
T1214 5.24 1 S
T1216 3.16 1 P
T1216 6.1 1 S
T1241 2.89 1 P
T1241 5.58 1 S
T1244 2.85 1 P
T1244 5.5 1 S
T1245 1.23 1 P
T1245 2.4 1 S
ED09 3.24 1 P
ED09 6.25 1 S
ED10 2.72 1 P
ED10 5.26 1 S
ED16 1.62 1 P
ED16 3.15 1 S
ED17 1.84 1 P
ED17 3.57 1 S
ED18 2 1 P
ED18 3.89 1 S
ED19 1.64 1 P
ED19 3.19 1 S
ED21 2.75 1 P
ED21 5.31 1 S
ED22 2.58 1 P
ED22 5 1 S
ED23 3.05 1 P
ED23 5.89 1 S
# 2016 10 14 00 38 59.880 42.6190 13.2570 8.84 0.00 0 0 0 134
CAMP 2.98 1 P
CAMP 5.63 1 S
RM33 2.59 1 P
RM33 4.89 1 S
SMA1 1.84 1 P
SMA1 3.49 1 S
T1202 2.2 1 P
T1202 4.17 1 S
T1204 2 1 P
T1204 3.78 1 S
T1214 3.07 1 P
T1214 5.79 1 S
T1218 2.62 1 P
T1218 4.94 1 S
T1244 3.01 1 P
T1244 5.68 1 S
T1246 3.61 1 P
T1246 6.79 1 S
T1247 3.65 1 P
T1247 6.87 1 S
T1299 1.55 1 P
T1299 2.93 1 S
ED01 3.19 1 P
ED01 6.01 1 S
ED03 1.77 1 P
ED03 3.34 1 S
ED04 1.79 1 P
ED04 3.38 1 S
ED05 3.27 1 P
ED05 6.16 1 S
ED06 3.26 1 P
ED06 6.14 1 S
ED07 3.21 1 P
ED07 6.05 1 S
ED10 3.64 1 P
ED10 6.85 1 S
ED11 3.63 1 P
ED11 6.82 1 S
ED20 3.73 1 P
ED20 7.01 1 S
ED23 2.77 1 P
ED23 5.23 1 S
ED24 1.86 1 P
ED24 3.51 1 S
ED25 2.01 1 P
ED25 3.8 1 S
# 2016 10 14 00 40 01.260 42.6662 13.2782 8.67 0.10 0 0 0 135
CAMP 3.34 1 P
CAMP 6.3 1 S
RM33 3.38 1 P
RM33 6.36 1 S
SMA1 1.78 1 P
SMA1 3.37 1 S
T1202 1.77 1 P
T1202 3.35 1 S
T1204 1.56 1 P
T1204 2.95 1 S
T1212 3.84 1 P
T1212 7.22 1 S
T1214 2.46 1 P
T1214 4.64 1 S
T1218 2.66 1 P
T1218 5.03 1 S
T1244 2.25 1 P
T1244 4.25 1 S
T1246 3.62 1 P
T1246 6.81 1 S
T1299 1.57 1 P
T1299 2.98 1 S
ED01 3.91 1 P
ED01 7.34 1 S
ED03 2.23 1 P
ED03 4.21 1 S
ED04 2.26 1 P
ED04 4.28 1 S
ED05 3.87 1 P
ED05 7.28 1 S
ED07 3.02 1 P
ED07 5.7 1 S
ED09 3.5 1 P
ED09 6.59 1 S
ED10 3.14 1 P
ED10 5.92 1 S
ED11 3.67 1 P
ED11 6.9 1 S
ED16 3.51 1 P
ED16 6.61 1 S
ED20 3.01 1 P
ED20 5.68 1 S
ED23 2.05 1 P
ED23 3.87 1 S
ED24 1.88 1 P
ED24 3.56 1 S
ED25 2.17 1 P
ED25 4.11 1 S
# 2016 10 14 00 40 28.400 42.8938 13.2386 4.01 0.03 0 0 0 136
CSP1 3.88 1 P
CSP1 7.45 1 S
FDMO 3.53 1 P
FDMO 6.79 1 S
GUMA 3.57 1 P
GUMA 6.88 1 S
MC2 1.05 1 P
MC2 2.04 1 S
MMO1 1.43 1 P
MMO1 2.79 1 S
NRCA 2.21 1 P
NRCA 4.3 1 S
T1202 3.71 1 P
T1202 7.14 1 S
T1214 2.7 1 P
T1214 5.23 1 S
T1216 3.16 1 P
T1216 6.1 1 S
T1241 2.89 1 P
T1241 5.58 1 S
T1244 2.84 1 P
T1244 5.49 1 S
T1245 1.23 1 P
T1245 2.4 1 S
ED09 3.24 1 P
ED09 6.24 1 S
ED10 2.72 1 P
ED10 5.26 1 S
ED16 1.62 1 P
ED16 3.15 1 S
ED17 1.84 1 P
ED17 3.58 1 S
ED18 2.01 1 P
ED18 3.9 1 S
ED19 1.65 1 P
ED19 3.2 1 S
ED21 2.75 1 P
ED21 5.32 1 S
ED22 2.58 1 P
ED22 5 1 S
ED23 3.05 1 P
ED23 5.89 1 S
# 2016 10 14 00 40 43.910 42.6133 13.2623 8.68 0.00 0 0 0 137
CAMP 2.87 1 P
CAMP 5.42 1 S
RM33 2.51 1 P
RM33 4.75 1 S
SMA1 1.8 1 P
SMA1 3.4 1 S
T1202 2.28 1 P
T1202 4.31 1 S
T1204 2.01 1 P
T1204 3.8 1 S
T1214 3.17 1 P
T1214 5.97 1 S
T1218 2.7 1 P
T1218 5.1 1 S
T1244 3.08 1 P
T1244 5.81 1 S
T1246 3.52 1 P
T1246 6.62 1 S
T1247 3.54 1 P
T1247 6.66 1 S
T1299 1.53 1 P
T1299 2.9 1 S
ED01 3.18 1 P
ED01 5.99 1 S
ED03 1.77 1 P
ED03 3.35 1 S
ED04 1.7 1 P
ED04 3.21 1 S
ED05 3.15 1 P
ED05 5.94 1 S
ED06 3.17 1 P
ED06 5.97 1 S
ED07 3.14 1 P
ED07 5.93 1 S
ED10 3.75 1 P
ED10 7.06 1 S
ED11 3.72 1 P
ED11 6.99 1 S
ED20 3.74 1 P
ED20 7.04 1 S
ED23 2.84 1 P
ED23 5.36 1 S
ED24 1.91 1 P
ED24 3.62 1 S
ED25 1.92 1 P
ED25 3.64 1 S
# 2016 10 14 00 41 27.220 42.8852 13.2355 2.81 0.22 0 0 0 138
FDMO 3.63 1 P
FDMO 7.03 1 S
GUMA 3.74 1 P
GUMA 7.24 1 S
MC2 0.98 1 P
MC2 1.93 1 S
MMO1 1.43 1 P
MMO1 2.81 1 S
NRCA 2.07 1 P
NRCA 4.05 1 S
T1202 3.55 1 P
T1202 6.88 1 S
T1212 3.77 1 P
T1212 7.29 1 S
T1214 2.52 1 P
T1214 4.92 1 S
T1216 3.12 1 P
T1216 6.05 1 S
T1241 2.88 1 P
T1241 5.61 1 S
T1244 2.69 1 P
T1244 5.25 1 S
T1245 1.01 1 P
T1245 2 1 S
ED09 3.18 1 P
ED09 6.17 1 S
ED10 2.55 1 P
ED10 4.97 1 S
ED16 1.48 1 P
ED16 2.91 1 S
ED17 1.95 1 P
ED17 3.83 1 S
ED18 2.13 1 P
ED18 4.18 1 S
ED19 1.61 1 P
ED19 3.17 1 S
ED21 2.9 1 P
ED21 5.65 1 S
ED22 2.73 1 P
ED22 5.32 1 S
ED23 2.9 1 P
ED23 5.63 1 S
# 2016 10 14 00 41 49.370 42.8718 13.0794 3.28 0.01 0 0 0 139
CESI 3.6 1 P
CESI 6.95 1 S
FDMO 3.23 1 P
FDMO 6.25 1 S
MC2 1.83 1 P
MC2 3.58 1 S
MMO1 3.58 1 P
MMO1 6.91 1 S
NRCA 1.06 1 P
NRCA 2.09 1 S
T1202 3.87 1 P
T1202 7.47 1 S
T1212 2.45 1 P
T1212 4.76 1 S
T1214 2.9 1 P
T1214 5.62 1 S
T1215 3.32 1 P
T1215 6.43 1 S
T1216 1.1 1 P
T1216 2.15 1 S
T1217 3.76 1 P
T1217 7.26 1 S
T1244 3.83 1 P
T1244 7.39 1 S
T1245 1.68 1 P
T1245 3.28 1 S
ED10 2.12 1 P
ED10 4.13 1 S
ED11 3.63 1 P
ED11 7.02 1 S
ED12 2.01 1 P
ED12 3.93 1 S
ED16 3.34 1 P
ED16 6.45 1 S
ED17 3.74 1 P
ED17 7.23 1 S
ED18 3.32 1 P
ED18 6.42 1 S
ED19 1.39 1 P
ED19 2.71 1 S
ED23 3.88 1 P
ED23 7.47 1 S
# 2016 10 14 00 42 01.430 42.6662 13.2782 8.67 0.34 0 0 0 140
CAMP 3.34 1 P
CAMP 6.3 1 S
RM33 3.38 1 P
RM33 6.36 1 S
SMA1 1.78 1 P
SMA1 3.37 1 S
T1202 1.77 1 P
T1202 3.35 1 S
T1204 1.56 1 P
T1204 2.95 1 S
T1212 3.84 1 P
T1212 7.22 1 S
T1214 2.46 1 P
T1214 4.64 1 S
T1218 2.66 1 P
T1218 5.03 1 S
T1244 2.25 1 P
T1244 4.25 1 S
T1246 3.62 1 P
T1246 6.81 1 S
T1299 1.57 1 P
T1299 2.98 1 S
ED01 3.91 1 P
ED01 7.34 1 S
ED03 2.23 1 P
ED03 4.21 1 S
ED04 2.26 1 P
ED04 4.28 1 S
ED05 3.87 1 P
ED05 7.28 1 S
ED07 3.02 1 P
ED07 5.7 1 S
ED09 3.5 1 P
ED09 6.59 1 S
ED10 3.14 1 P
ED10 5.92 1 S
ED11 3.67 1 P
ED11 6.9 1 S
ED16 3.51 1 P
ED16 6.61 1 S
ED20 3.01 1 P
ED20 5.68 1 S
ED23 2.05 1 P
ED23 3.87 1 S
ED24 1.88 1 P
ED24 3.56 1 S
ED25 2.17 1 P
ED25 4.11 1 S
