 HYPOINVERSE 2000
 6/2014 VERSION 1.40 (geoid depth possible)                            
 RUN ON Mon Aug  2 22:42:51 2021      RUN LABEL= 
 PROCESSING DOMAIN=NC  PROCESSING VERSION=01


 TEST PARAMETERS:
   -ITERATION AND CONVERGENCE-     -WEIGHTING AND ERRORS-     -MISCELLANEOUS-
       20=ITRLIM   0.900=DAMP    50.000=DISCUT   0.160=RMSCUT       5=MINSTA
    0.040=DQUIT    0.001=DRQT     1.000=DISW1    1.500=RMSW1        0=NET
    7.000=DXFIX    0.012=EIGTOL   3.000=DISW2    3.000=RMSW2 
   30.000=DZMAX    0.020=RBACK        4=ITRDIS       4=ITRRES   8.000=ZTR
    0.500=DZAIR    0.600=BACFAC   1.000=SWT      0.100=RDERR 
                                                 1.000=ERCOF

      ------DURATION MAG CONSTANTS------       -DELAYS & MISC-    -STATIONS-
   -5.200=FMA1    -0.905=FMA2   -1.0300=DMA0         F=LMULT        F=ATTEN
    3.890=FMB1     2.026=FMB2    2.1000=DMA1         T=CODAWT       5=SITE-LET
    0.013=FMZ1     0.013=FMZ2    0.0000=DMA2         F=LJUNK        2=NET-LET
    0.004=FMD1     0.004=FMD2    0.0000=DMZ                         0=COMP-LET
    0.000=FMF1     0.000=FMF2    1.0000=DMGN  
    0.000=FMGN   210.000=FMBRK   0.0027=DMLIN 
   0.0000=DCOF1    0.000=DBRK1        1=LOGA0 
   0.0000=DCOF2    0.000=DBRK2 
   0.0000=ZCOF     0.000=ZBRK  

    --- MAGNITUDE LABELS & COMPONENTS ---
    FMAG1: LABEL=   ALL COMPS=
    FMAG2: LABEL=    NO COMPS=
    XMAG1: LABEL=   ALL  TYPE=ALL  COMPS=
    XMAG2: LABEL=    NO  TYPE=ALL  COMPS=
    FMAG1 MAGSEL=1  FMAG2 MAGSEL=1

 INPUT FILES:
 COMMANDS:    hypinst                                                     
                                                                          
 STATIONS:    station.dat                                                 STATION FORMAT CODE= 3
 DELAYS:                                                                   
 ATTENUATIONS:                                                             
 CAL FACTORS:                                                              
 FMAG CORRECT:                                                             
 XMAG CORRECT:                                                             

 PHASES:       hypoinput.arc                                               
        PHASE FORMAT CODE= 3, TERMINATOR FORMAT CODE=1
 HOMOGENEOUS LAYER CRUST 1:  vel_model_P.crh                                             
 HOMOGENEOUS LAYER CRUST 2:  vel_model_S.crh                                             

 OUTPUT FILES: (T IF APPENDED TO)
 (F) PRINTOUT:    prtOut.prt                                                  
 (F) SUMMARY:     catOut.sum                                                  FORMAT CODE=3
 (F) ARCHIVE:     hypoOut.arc                                                 ARCHIVE FORMAT CODE= 1

 ####################################################################################
  14 OCT 2016,  0:00  SEQUENCE NO.    1, ID NO.         0
                                                        ADJUSTMENTS (KM)
  I ORIGIN   LAT N     LON W     Z   NWR  RMS    DT    DLAT   DLON    DZ    RR NF MOD
  1  8.50  42 51.69   13E10.98  8.00  61 1.16  0.474 -5.795 -2.927  0.000 6.492 3 MOD
 FREE DEPTH
  2  8.97  42 48.56   13E13.13  8.00  61 0.46  0.184 -0.396 -0.042 -5.482 5.496 4 MOD
  3  9.16  42 48.35   13E13.16  2.52  61 0.44 -0.140 -0.113 -0.171  0.499 0.539 4 MOD
 BEGIN MAIN DISTANCE WEIGHTING
 BEGIN RESIDUAL WEIGHTING
  4  9.02  42 48.29   13E13.29  3.02  57 0.27  0.026 -0.068  0.164  2.226 2.233 4 MOD
  5  9.04  42 48.25   13E13.17  5.24  57 0.22 -0.092  0.578  0.252  2.360 2.443 4 MOD
  6  8.95  42 48.56   13E12.98  7.60  57 0.14 -0.057  0.250 -0.030  0.663 0.709 4 MOD
  7  8.90  42 48.70   13E13.01  8.27  54 0.13 -0.016  0.084 -0.014  0.114 0.142 4 MOD
  8  8.88  42 48.74   13E13.02  8.38  55 0.13 -0.001  0.016  0.008 -0.003 0.018 4 MOD

              EIGENVALUES
     ( 7.641  1.211  0.983  0.243)
      EIGENVECTORS OF ADJUSTMENT                COVARIANCE             ERRORS
 OT  (-0.997 -0.051 -0.021  0.055) (   0.002  -0.004  -0.000  -0.025)   0.044
 LAT (-0.061  0.920  0.373 -0.103) (  -0.004   0.024  -0.002   0.045)   0.156
 LON (-0.001  0.373 -0.928 -0.019) (  -0.000  -0.002   0.027   0.009)   0.164
 Z   (-0.049 -0.105 -0.022 -0.993) (  -0.025   0.045   0.009   0.454)   0.674
 ERROR ELLIPSE: <SERR AZ DIP>-<   0.68 349 83>-<   0.17 248  1>-<   0.14 158  5>
 ------------------------------------------------------------------------------------
 YEAR MO DA  --ORIGIN--  --LAT N-  --LON W--  DEPTH-M RMS   ERH   ERZ  XMAG1 FMAG1 PMAG GEOID-DEP
 2016-10-14  0000  8.88  42 48.74   13E13.02   8.38  0.13  0.17  0.67                       7.22
                                                                                          SOURCE
 NSTA NPHS  DMIN MODEL GAP ITR NFM NWR NWS NVR REMRKS-AVH  N.XMG-XMMAD-T   N.FMG-FMMAD-T  L F X
   39   61   5.4  MODS  27   8   0  55  21  61                                                 

 XMAG2-N.XMG2-XMMAD-T-S  FMAG2-N.FMG2-FMMAD-T-S  PREF.MAG-N.PMAG-PRMAD-T DEPDAT NS ZT TYP
                                                                           1164  5  M CRH

 EXTERNAL MAG= 0.93  NUMBER READINGS=    0  TYPE=L
 REGION=                          

 STA NET COM L CR DIST AZM  AN P/S WT   SEC (TOBS -TCAL -DLY  =RES)  WT   SR  INFO  CAL  DUR-W-FMAG-T -AMP-U-PER-W-XMAG-T DE
 T1245IV 001       5.4 335 144  P     10.50  1.62  1.71 0.00 -0.09  1.04     0.118                                           
 T1214IV 001       5.9 187 139  P     10.61  1.73  1.76 0.00 -0.03  1.04     0.142                                           
        S                       S     10.74  1.86  3.39 0.00 -1.53* 0.00S    0.000
 ED10 YR 001       7.3 238 135  P     10.62  1.74  1.91 0.00 -0.17  1.04     0.103                                           
 ED16 YR 001       7.9  69 130  P     10.91  2.03  1.97 0.00  0.06  1.04     0.094                                           
        S                       S     11.09  2.21  3.79 0.00 -1.58* 0.00S    0.000
 NRCA IV 001       8.7 286 130  P     10.81  1.93  2.07 0.00 -0.14  1.04     0.071                                           
 ED23 YR 001       9.6 143 123  P     11.22  2.34  2.18 0.00  0.16  1.04     0.078                                           
        S                       S     11.38  2.50  4.20 0.00 -1.70* 0.00S    0.000
 MC2  IVS001      11.2 349 117  S     13.45  4.57  4.62 0.00 -0.05  1.04S    0.152                                           
 T1202IV 001      12.1 176 115  P     11.63  2.75  2.52 0.00  0.23  1.04     0.050                                           
        S                       S     11.87  2.99  4.85 0.00 -1.86* 0.00S    0.000
 MMO1 IV 001      13.2  42 112  P     11.61  2.73  2.67 0.00  0.06  1.04     0.056                                           
        S                       S     13.89  5.01  5.14 0.00 -0.13  1.04S    0.149
 ED19 YR 001      13.5 332 111  P     11.66  2.78  2.72 0.00  0.06  1.04     0.048                                           
        S                       S     13.98  5.10  5.22 0.00 -0.12  1.04S    0.110
 T1212IV 001      15.6 245 106  P     11.99  3.11  3.03 0.00  0.08  1.04     0.040                                           
        S                       S     14.58  5.70  5.82 0.00 -0.12  1.04S    0.119
 ED09 YR 001      17.0  94 109  P     12.13  3.25  3.23 0.00  0.02  1.04     0.047                                           
 T1204IV 001      17.2 151 103  P     12.34  3.46  3.27 0.00  0.19  1.04     0.030                                           
        S                       S     15.54  6.66  6.26 0.00  0.40  0.56S    0.026
 ED24 YR 001      17.5 187 108  P     12.36  3.48  3.32 0.00  0.16  1.04     0.028                                           
 T1218IV 001      17.9 208 102  P     12.45  3.57  3.37 0.00  0.20  1.04     0.031                                           
        S                       S     15.33  6.45  6.45 0.00  0.00  1.04S    0.094
 T1216IV 001      18.4 299 107  P     12.31  3.43  3.45 0.00 -0.02  1.04     0.053                                           
 ED17 YR 001      18.6  23 101  P     12.39  3.51  3.49 0.00  0.02  1.04     0.066                                           
        S                       S     15.62  6.74  6.67 0.00  0.07  1.04S    0.133
 ED20 YR 001      19.2 111 100  P     12.45  3.57  3.58 0.00 -0.01  1.04     0.041                                           
        S                       S     15.53  6.65  6.84 0.00 -0.19  1.04S    0.099
 ED12 YR 001      19.6 269 105  P     12.57  3.69  3.64 0.00  0.05  1.04     0.049                                           
 ED18 YR 001      20.0   6 104  P     12.72  3.84  3.71 0.00  0.13  1.04     0.072                                           
 ED11 YR 001      20.4 228  99  P     12.71  3.83  3.76 0.00  0.07  1.04     0.037                                           
        S                       S     15.91  7.03  7.18 0.00 -0.15  1.04S    0.092
 T1299IV 001      20.5 164 104  P     12.93  4.05  3.78 0.00  0.27  1.04     0.026                                           
 SMA1 IV 001      22.4 154 102  P     13.05  4.17  4.08 0.00  0.09  1.04     0.028                                           
 ED22 YR 001      23.3  22  97  P     13.62  4.74  4.22 0.00  0.52* 0.02     0.000                                           
        S                       S     17.48  8.60  8.03 0.00  0.57* 0.00S    0.000
 ED03 YRS001      23.4 186  97  S     17.09  8.21  8.04 0.00  0.17  1.04S    0.066                                           
 T1217IVS001      25.9 245  96  S     17.58  8.70  8.79 0.00 -0.09  1.04S    0.108                                           
 ED25 YR 001      26.2 154  98  P     14.04  5.16  4.68 0.00  0.48  0.13     0.000                                           
 FDMO IV 001      27.0 338  95  P     13.79  4.91  4.82 0.00  0.09  1.04     0.096                                           
        S                       S     17.93  9.05  9.13 0.00 -0.08  1.04S    0.167
 T1215IV 001      28.5 268  97  P     13.94  5.06  5.05 0.00  0.01  1.04     0.071                                           
 ED07 YR 001      28.8 135  94  P     13.94  5.06  5.10 0.00 -0.04  1.04     0.041                                           
        S                       S     18.62  9.74  9.65 0.00  0.09  1.04S    0.074
 ED02 YR 001      33.1 226  93  P     14.75  5.87  5.79 0.00  0.08  1.04     0.055                                           
        S                       S     19.60 10.72 10.90 0.00 -0.18  1.04S    0.098
 CESI IVS001      33.3 311  93  S     19.79 10.91 10.95 0.00 -0.04  1.04S    0.170                                           
 ED01 YR 001      33.4 198  93  P     14.90  6.02  5.83 0.00  0.19  1.04     0.042                                           
        S                       S     19.70 10.82 10.97 0.00 -0.15  1.04S    0.073
 T1246IV 001      34.0 138  93  P     14.81  5.93  5.94 0.00 -0.01  1.04     0.045                                           
        S                       S     19.87 10.99 11.17 0.00 -0.18  1.04S    0.073
 CAMP IV 001      34.5 152  93  P     14.86  5.98  6.01 0.00 -0.03  1.04     0.040                                           
        S                       S     19.89 11.01 11.31 0.00 -0.30  1.02S    0.061
 TERO IV 001      38.1 123  93  P     15.36  6.48  6.58 0.00 -0.10  1.04     0.057                                           
        S                       S     21.10 12.22 12.35 0.00 -0.13  1.04S    0.091
 ED05 YR 001      38.5 161  93  P     15.65  6.77  6.65 0.00  0.12  1.04     0.041                                           
        S                       S     21.46 12.58 12.48 0.00  0.10  1.04S    0.062
 ED15 YR 001      42.2 138  93  P     15.94  7.06  7.25 0.00 -0.19  1.04     0.050                                           
 ED14 YR 001      44.5 156  92  P     16.44  7.56  7.62 0.00 -0.06  1.04     0.045                                           
        S                       S     22.98 14.10 14.25 0.00 -0.15  1.04S    0.065
 ####################################################################################
  14 OCT 2016,  0:01  SEQUENCE NO.    2, ID NO.         0
                                                        ADJUSTMENTS (KM)
  I ORIGIN   LAT N     LON W     Z   NWR  RMS    DT    DLAT   DLON    DZ    RR NF MOD
  1 49.03  42 45.87   13E12.22  8.00  31 1.03  0.750 -3.022  0.986  0.000 3.179 3 MOD
 FREE DEPTH
  2 49.78  42 44.24   13E11.50  8.00  31 0.44  0.375  0.160 -0.232 -4.577 4.586 4 MOD
  3 50.15  42 44.33   13E11.67  3.42  31 0.36 -0.103  0.098 -0.047  0.491 0.503 4 MOD
 BEGIN MAIN DISTANCE WEIGHTING
 BEGIN RESIDUAL WEIGHTING
  4 50.05  42 44.38   13E11.70  3.91  28 0.23 -0.027 -0.281  0.180  1.809 1.840 4 MOD
  5 50.02  42 44.23   13E11.57  5.72  29 0.20 -0.025 -0.077  0.010  0.021 0.080 4 MOD
  6 50.00  42 44.19   13E11.56  5.74  29 0.20 -0.018 -0.048 -0.027  0.158 0.167 4 MOD
  7 49.98  42 44.16   13E11.58  5.90  29 0.20 -0.028 -0.078 -0.052  0.434 0.444 4 MOD
  8 49.95  42 44.12   13E11.62  6.34  28 0.19 -0.022  0.043 -0.064  0.225 0.238 4 MOD
  9 49.93  42 44.14   13E11.67  6.56  28 0.18 -0.007  0.023 -0.033  0.032 0.051 4 MOD
 10 49.93  42 44.15   13E11.69  6.59  27 0.18 -0.001  0.008 -0.007 -0.008 0.013 4 MOD

              EIGENVALUES
     ( 5.568  0.955  0.771  0.582)
      EIGENVECTORS OF ADJUSTMENT                COVARIANCE             ERRORS
 OT  (-0.999  0.029  0.005 -0.039) (   0.002   0.002  -0.002  -0.004)   0.040
 LAT ( 0.011 -0.155  0.947 -0.281) (   0.002   0.076  -0.005  -0.014)   0.275
 LON (-0.033 -0.986 -0.132  0.098) (  -0.002  -0.005   0.048   0.006)   0.219
 Z   (-0.034  0.057  0.292  0.954) (  -0.004  -0.014   0.006   0.121)   0.348
 ERROR ELLIPSE: <SERR AZ DIP>-<   0.35 200 72>-<   0.27   7 16>-<   0.22  98  3>
 ------------------------------------------------------------------------------------
 YEAR MO DA  --ORIGIN--  --LAT N-  --LON W--  DEPTH-M RMS   ERH   ERZ  XMAG1 FMAG1 PMAG GEOID-DEP
 2016-10-14  0001 49.93  42 44.15   13E11.69   6.59  0.18  0.26  0.34                       5.48
                                                                                          SOURCE
 NSTA NPHS  DMIN MODEL GAP ITR NFM NWR NWS NVR REMRKS-AVH  N.XMG-XMMAD-T   N.FMG-FMMAD-T  L F X
   24   31   2.9  MODS  50  10   0  27  12  31                                                 

 XMAG2-N.XMG2-XMMAD-T-S  FMAG2-N.FMG2-FMMAD-T-S  PREF.MAG-N.PMAG-PRMAD-T DEPDAT NS ZT TYP
                                                                           1112  5  M CRH

 EXTERNAL MAG= 0.49  NUMBER READINGS=    0  TYPE=L
 REGION=                          

 STA NET COM L CR DIST AZM  AN P/S WT   SEC (TOBS -TCAL -DLY  =RES)  WT   SR  INFO  CAL  DUR-W-FMAG-T -AMP-U-PER-W-XMAG-T DE
 T1214IV 001       2.9  23 155  P     51.03  1.10  1.25 0.00 -0.15  1.07     0.093                                           
 T1202IV 001       4.4 145 144  P     51.29  1.36  1.37 0.00 -0.01  1.07     0.082                                           
        S                       S     52.54  2.61  2.68 0.00 -0.07  1.07S    0.242
 ED10 YR 001       6.3 317 133  P     51.39  1.46  1.59 0.00 -0.13  1.07     0.087                                           
        S                       S     51.80  1.87  3.09 0.00 -1.22* 0.00S    0.000
 ED23 YR 001       7.6  83 127  P     51.97  2.04  1.75 0.00  0.29  1.07     0.069                                           
        S                       S     52.20  2.27  3.40 0.00 -1.13* 0.00S    0.000
 T1244IV 001       8.8  74 124  P     52.11  2.18  1.90 0.00  0.28  1.07     0.068                                           
 ED24 YR 001       8.9 182 124  P     51.87  1.94  1.92 0.00  0.02  1.07     0.090                                           
 T1218IV 001       9.8 222 121  P     51.62  1.69  2.05 0.00 -0.36  1.07     0.092                                           
 T1212IV 001      12.4 279 115  P     52.37  2.44  2.44 0.00 -0.00  1.07     0.082                                           
 NRCA IV 001      12.7 329 113  P     52.71  2.78  2.48 0.00  0.30  1.07     0.084                                           
        S                       S     54.37  4.44  4.82 0.00 -0.38  1.07S    0.225
 ED11 YR 001      14.2 249 111  P     52.66  2.73  2.72 0.00  0.01  1.07     0.089                                           
 ED03 YRS001      14.8 182 109  S     55.51  5.58  5.45 0.00  0.13  1.07S    0.242                                           
 ED12 YR 001      19.5 294 105  P     53.58  3.65  3.56 0.00  0.09  1.07     0.082                                           
 ED20 YR 001      19.7  85 103  P     53.55  3.62  3.60 0.00  0.02  1.07     0.059                                           
        S                       S     56.82  6.89  6.99 0.00 -0.10  1.07S    0.150
 ED25 YRS001      19.9 139 103  S     57.66  7.73  7.05 0.00  0.68* 0.02S    0.000                                           
 ED09 YR 001      20.0  69 103  P     53.65  3.72  3.65 0.00  0.07  1.07     0.062                                           
        S                       S     56.91  6.98  7.08 0.00 -0.10  1.07S    0.165
 MMO1 IVS001      21.1  30  65  S     57.30  7.37  7.41 0.00 -0.04  1.07S    0.234                                           
 T1217IVS001      21.7 264  65  S     57.67  7.74  7.59 0.00  0.15  1.07S    0.293                                           
 ED07 YRS001      25.2 118  65  S     58.72  8.79  8.60 0.00  0.19  1.07S    0.235                                           
 ED02 YR 001      26.3 237 100  P     54.66  4.73  4.68 0.00  0.05  1.07     0.100                                           
 ED17 YR 001      27.2  19  65  P     54.91  4.98  4.83 0.00  0.15  1.07     0.081                                           
        S                       S     59.20  9.27  9.19 0.00  0.08  1.07S    0.243
 T1215IVS001      27.7 286  65  S     59.13  9.20  9.34 0.00 -0.14  1.07S    0.267                                           
 T1246IVS001      29.7 124  65  S     59.71  9.78  9.95 0.00 -0.17  1.07S    0.246                                           
 ED22 YRS001      31.9  19  65  S     61.16 11.23 10.58 0.00  0.65* 0.08S    0.001                                           
 TERO IVS001      35.8 110  65  S     61.31 11.38 11.73 0.00 -0.35  1.07S    0.221                                           
 ####################################################################################
