  14 OCT 2016,  0:05  SEQUENCE NO.   10, ID NO.         0
                                                        ADJUSTMENTS (KM)
  I ORIGIN   LAT N     LON W     Z   NWR  RMS    DT    DLAT   DLON    DZ    RR NF MOD
  1 13.12  42 51.69   13E10.98  8.00  21 1.06  0.850 -0.786 -3.615  0.000 3.699 3 MOD
 FREE DEPTH
  2 13.97  42 51.27   13E13.64  8.00  21 0.39  0.228 -0.134 -0.034 -3.051 3.054 4 MOD
  3 14.20  42 51.19   13E13.67  4.95  21 0.37 -0.134  0.081 -0.019  1.435 1.438 4 MOD
 BEGIN MAIN DISTANCE WEIGHTING
 BEGIN RESIDUAL WEIGHTING
  4 14.06  42 51.24   13E13.68  6.38  20 0.26  0.047 -0.000  0.585 -1.065 1.215 4 MOD
  5 14.11  42 51.24   13E13.25  5.32  19 0.22  0.004 -0.008 -0.076  0.094 0.121 4 MOD
  6 14.11  42 51.23   13E13.31  5.41  19 0.21  0.001  0.006 -0.009  0.006 0.012 4 MOD
  7 14.12  42 51.24   13E13.31  5.42  19 0.21  0.002  0.009 -0.008  0.001 0.012 4 MOD

              EIGENVALUES
     ( 4.386  1.038  0.609  0.345)
      EIGENVECTORS OF ADJUSTMENT                COVARIANCE             ERRORS
 OT  (-0.997  0.043  0.005 -0.062) (   0.005  -0.001   0.002  -0.029)   0.069
 LAT ( 0.037  0.994 -0.021  0.101) (  -0.001   0.055  -0.004   0.041)   0.235
 LON ( 0.009  0.025  0.999 -0.041) (   0.002  -0.004   0.149  -0.012)   0.386
 Z   (-0.066 -0.098  0.044  0.992) (  -0.029   0.041  -0.012   0.455)   0.675
 ERROR ELLIPSE: <SERR AZ DIP>-<   0.68  22 83>-<   0.39 269  2>-<   0.23 179  5>
 ------------------------------------------------------------------------------------
 YEAR MO DA  --ORIGIN--  --LAT N-  --LON W--  DEPTH-M RMS   ERH   ERZ  XMAG1 FMAG1 PMAG GEOID-DEP
 2016-10-14  0005 14.12  42 51.24   13E13.31   5.42  0.21  0.39  0.67                       4.36
                                                                                          SOURCE
 NSTA NPHS  DMIN MODEL GAP ITR NFM NWR NWS NVR REMRKS-AVH  N.XMG-XMMAD-T   N.FMG-FMMAD-T  L F X
   18   21   2.8  MODS  75   7   0  19  15  21                                                 

 XMAG2-N.XMG2-XMMAD-T-S  FMAG2-N.FMG2-FMMAD-T-S  PREF.MAG-N.PMAG-PRMAD-T DEPDAT NS ZT TYP
                                                                           1059  5  M CRH

 EXTERNAL MAG= 0.60  NUMBER READINGS=    0  TYPE=L
 REGION=                          

 STA NET COM L CR DIST AZM  AN P/S WT   SEC (TOBS -TCAL -DLY  =RES)  WT   SR  INFO  CAL  DUR-W-FMAG-T -AMP-U-PER-W-XMAG-T DE
 T1245IV 001       2.8 276 151  P     15.12  1.00  1.06 0.00 -0.06  1.02     0.134                                           
 MC2  IV 001       6.9 338 123  P     15.70  1.58  1.54 0.00  0.04  1.02     0.072                                           
        S                       S     16.96  2.84  3.01 0.00 -0.17  1.02S    0.202
 ED16 YRS001       7.2 104 122  S     17.13  3.01  3.08 0.00 -0.07  1.02S    0.374                                           
 ED19 YR 001       9.9 318 113  P     16.17  2.05  1.98 0.00  0.07  1.02     0.084                                           
        S                       S     17.82  3.70  3.86 0.00 -0.16  1.02S    0.206
 T1214IVS001      10.5 186 111  S     18.45  4.33  4.04 0.00  0.29  1.02S    0.226                                           
 ED10 YRS001      10.8 218 111  S     18.37  4.25  4.12 0.00  0.13  1.02S    0.273                                           
 ED17 YRS001      14.3  29 104  S     18.96  4.84  5.19 0.00 -0.35  1.02S    0.185                                           
 T1202IVS001      16.7 179 102  S     20.03  5.91  5.95 0.00 -0.04  1.02S    0.183                                           
 T1212IVS001      18.4 232 100  S     21.64  7.52  6.49 0.00  1.03* 0.00S    0.000                                           
 ED22 YRS001      18.9  26 100  S     20.86  6.74  6.66 0.00  0.08  1.02S    0.191                                           
 ED21 YRS001      20.0  11  99  S     20.88  6.76  6.99 0.00 -0.23  1.02S    0.157                                           
 ED20 YRS001      21.0 123  99  S     21.50  7.38  7.31 0.00  0.07  1.02S    0.305                                           
 ED24 YRS001      22.2 187  98  S     21.28  7.16  7.68 0.00 -0.52* 0.65S    0.072                                           
 FDMO IVS001      23.1 332  97  S     22.37  8.25  7.97 0.00  0.28  1.02S    0.179                                           
 CSP1 IV 001      26.5 357  96  P     18.94  4.82  4.68 0.00  0.14  1.02     0.098                                           
        S                       S     23.50  9.38  9.05 0.00  0.33  1.02S    0.158
 ED02 YRS001      36.7 221  65  S     25.92 11.80 12.16 0.00 -0.36  1.02S    0.466                                           
 ED01 YRS001      37.9 197  65  S     25.79 11.67 12.50 0.00 -0.83* 0.00S    0.000                                           
 ED05 YRS001      42.8 164  65  S     28.22 14.10 13.94 0.00  0.16  1.02S    0.425                                           
 ####################################################################################
  14 OCT 2016,  0:05  SEQUENCE NO.   11, ID NO.         0
                                                        ADJUSTMENTS (KM)
  I ORIGIN   LAT N     LON W     Z   NWR  RMS    DT    DLAT   DLON    DZ    RR NF MOD
  1 37.07  42 51.69   13E10.98  8.00  17 0.84  0.486  1.301 -5.012  0.000 5.179 3 MOD
 FREE DEPTH
  2 37.56  42 52.39   13E14.67  8.00  17 0.36  0.099  0.320 -0.130 -2.192 2.219 4 MOD
  3 37.65  42 52.57   13E14.77  5.81  17 0.24 -0.044  0.004 -0.014  0.090 0.091 4 MOD
 BEGIN MAIN DISTANCE WEIGHTING
 BEGIN RESIDUAL WEIGHTING
  4 37.61  42 52.57   13E14.78  5.90  15 0.14  0.013  0.190  0.062 -0.065 0.210 4 MOD
  5 37.62  42 52.67   13E14.73  5.83  15 0.13 -0.004  0.040 -0.008 -0.004 0.041 4 MOD
  6 37.62  42 52.69   13E14.74  5.83  15 0.13 -0.000  0.014  0.000 -0.002 0.014 4 MOD

              EIGENVALUES
     ( 4.172  0.809  0.696  0.208)
      EIGENVECTORS OF ADJUSTMENT                COVARIANCE             ERRORS
 OT  (-0.990  0.021 -0.047 -0.129) (   0.012   0.005  -0.002  -0.082)   0.111
 LAT ( 0.049  0.785 -0.617 -0.027) (   0.005   0.049   0.006  -0.016)   0.221
 LON ( 0.018 -0.617 -0.785  0.045) (  -0.002   0.006   0.053   0.027)   0.231
 Z   (-0.129  0.053  0.013  0.990) (  -0.082  -0.016   0.027   0.629)   0.793
 ERROR ELLIPSE: <SERR AZ DIP>-<   0.79 240 86>-<   0.24 129  1>-<   0.21  38  2>
 ------------------------------------------------------------------------------------
 YEAR MO DA  --ORIGIN--  --LAT N-  --LON W--  DEPTH-M RMS   ERH   ERZ  XMAG1 FMAG1 PMAG GEOID-DEP
 2016-10-14  0005 37.62  42 52.69   13E14.74   5.83  0.13  0.24  0.79                       4.88
                                                                                          SOURCE
 NSTA NPHS  DMIN MODEL GAP ITR NFM NWR NWS NVR REMRKS-AVH  N.XMG-XMMAD-T   N.FMG-FMMAD-T  L F X
   13   17   5.3  MODS  86   6   0  15  12  17                                                 

 XMAG2-N.XMG2-XMMAD-T-S  FMAG2-N.FMG2-FMMAD-T-S  PREF.MAG-N.PMAG-PRMAD-T DEPDAT NS ZT TYP
                                                                            952  5  M CRH

 EXTERNAL MAG= 0.21  NUMBER READINGS=    0  TYPE=L
 REGION=                          

 STA NET COM L CR DIST AZM  AN P/S WT   SEC (TOBS -TCAL -DLY  =RES)  WT   SR  INFO  CAL  DUR-W-FMAG-T -AMP-U-PER-W-XMAG-T DE
 T1245IV 001       5.3 243 135  P     39.07  1.45  1.37 0.00  0.08  1.07     0.103                                           
        S                       S     40.28  2.66  2.68 0.00 -0.02  1.07S    0.365
 MC2  IVS001       5.9 309 131  S     40.48  2.86  2.83 0.00  0.03  1.07S    0.324                                           
 ED16 YRS001       6.8 132 127  S     40.84  3.22  3.04 0.00  0.18  1.07S    0.406                                           
 MMO1 IV 001       7.0  70 126  P     39.24  1.62  1.59 0.00  0.03  1.07     0.123                                           
        S                       S     40.59  2.97  3.11 0.00 -0.14  1.07S    0.348
 ED19 YR 001       9.8 298 116  P     39.71  2.09  1.99 0.00  0.10  1.07     0.177                                           
        S                       S     41.42  3.80  3.89 0.00 -0.09  1.07S    0.215
 ED17 YRS001      11.0  27 113  S     41.61  3.99  4.23 0.00 -0.24  1.07S    0.191                                           
 NRCA IVS001      11.8 246 111  S     42.06  4.44  4.47 0.00 -0.03  1.07S    0.259                                           
 ED18 YRS001      12.6   0 109  S     42.46  4.84  4.70 0.00  0.14  1.07S    0.198                                           
 ED10 YRS001      14.1 218 107  S     42.72  5.10  5.17 0.00 -0.07  1.07S    0.330                                           
 ED22 YRS001      15.7  24 105  S     43.56  5.94  5.66 0.00  0.28  1.02S    0.207                                           
 ED21 YRS001      17.0   7 103  S     43.52  5.90  6.07 0.00 -0.17  1.07S    0.252                                           
 ED20 YRS001      21.1 132 100  S     44.92  7.30  7.38 0.00 -0.08  1.07S    0.495                                           
 CSP1 IV 001      24.0 353  98  P     41.40  3.78  4.27 0.00 -0.49  0.00     0.000                                           
        S                       S     46.61  8.99  8.27 0.00  0.72* 0.00S    0.000
 ####################################################################################
  14 OCT 2016,  0:05  SEQUENCE NO.   12, ID NO.         0
                                                        ADJUSTMENTS (KM)
  I ORIGIN   LAT N     LON W     Z   NWR  RMS    DT    DLAT   DLON    DZ    RR NF MOD
  1 54.90  42 45.87   13E12.22  8.00  16 0.70  0.683 -2.375  1.606  0.000 2.867 3 MOD
 FREE DEPTH
  2 55.58  42 44.59   13E11.04  8.00  16 0.42  0.454 -0.593  0.088 -3.652 3.701 4 MOD
  3 56.04  42 44.27   13E10.98  4.35  16 0.35 -0.145  0.321 -0.130  0.847 0.915 4 MOD
 BEGIN MAIN DISTANCE WEIGHTING
 BEGIN RESIDUAL WEIGHTING
  4 55.89  42 44.44   13E11.07  5.20  15 0.21  0.066 -0.487  0.279  0.114 0.573 4 MOD
  5 55.96  42 44.18   13E10.87  5.31  14 0.19  0.137 -0.246  0.297 -0.850 0.933 4 MOD
  6 56.09  42 44.05   13E10.65  4.46  14 0.17  0.025 -0.020  0.063 -0.275 0.283 4 MOD
  7 56.12  42 44.03   13E10.60  4.18  14 0.17  0.019 -0.011  0.036 -0.207 0.211 4 MOD
  8 56.14  42 44.03   13E10.58  3.98  14 0.17  0.011  0.004  0.030 -0.138 0.141 4 MOD
  9 56.15  42 44.03   13E10.55  3.84  14 0.17  0.009  0.008  0.023 -0.119 0.122 4 MOD

              EIGENVALUES
     ( 3.757  0.776  0.523  0.153)
      EIGENVECTORS OF ADJUSTMENT                COVARIANCE             ERRORS
 OT  (-0.997  0.013 -0.038 -0.072) (   0.012  -0.015   0.011  -0.118)   0.108
 LAT (-0.041  0.157  0.983  0.087) (  -0.015   0.151  -0.022   0.130)   0.388
 LON ( 0.024  0.986 -0.150 -0.076) (   0.011  -0.022   0.075  -0.118)   0.274
 Z   (-0.067  0.062 -0.101  0.991) (  -0.118   0.130  -0.118   1.623)   1.274
 ERROR ELLIPSE: <SERR AZ DIP>-<   1.28  41 83>-<   0.38 188  5>-<   0.25 280  3>
 ------------------------------------------------------------------------------------
 YEAR MO DA  --ORIGIN--  --LAT N-  --LON W--  DEPTH-M RMS   ERH   ERZ  XMAG1 FMAG1 PMAG GEOID-DEP
 2016-10-14  0005 56.15  42 44.03   13E10.55   3.84  0.17  0.37  1.27                       2.67
                                                                                          SOURCE
 NSTA NPHS  DMIN MODEL GAP ITR NFM NWR NWS NVR REMRKS-AVH  N.XMG-XMMAD-T   N.FMG-FMMAD-T  L F X
   12   16   3.9  MODS  73   9   0  14   8  16                                                 

 XMAG2-N.XMG2-XMMAD-T-S  FMAG2-N.FMG2-FMMAD-T-S  PREF.MAG-N.PMAG-PRMAD-T DEPDAT NS ZT TYP
                                                                           1170  5  M CRH

 EXTERNAL MAG= 0.42  NUMBER READINGS=    0  TYPE=L
 REGION=                          

 STA NET COM L CR DIST AZM  AN P/S WT   SEC (TOBS -TCAL -DLY  =RES)  WT   SR  INFO  CAL  DUR-W-FMAG-T -AMP-U-PER-W-XMAG-T DE
 T1214IV 001       3.9  43 129  P     56.90  0.75  0.97 0.00 -0.22  1.01     0.196                                           
        S                       S     57.14  0.99  1.92 0.00 -0.93* 0.00S    0.000
 T1202IV 001       5.2 130 119  P     57.47  1.32  1.15 0.00  0.17  1.01     0.120                                           
        S                       S     58.49  2.34  2.27 0.00  0.07  1.01S    0.535
 ED10 YRS001       5.6 330 117  S     58.35  2.20  2.37 0.00 -0.17  1.01S    0.575                                           
 T1218IV 001       8.7 216 104  P     57.99  1.84  1.68 0.00  0.16  1.01     0.116                                           
        S                       S     59.30  3.15  3.30 0.00 -0.15  1.01S    0.374
 ED24 YR 001       8.8 171 107  P     57.83  1.68  1.70 0.00 -0.02  1.01     0.131                                           
 ED23 YR 001       9.2  83 102  P     57.93  1.78  1.76 0.00  0.02  1.01     0.220                                           
        S                       S     59.87  3.72  3.46 0.00  0.26  1.01S    0.343
 T1212IVS001      10.9 281  99  S     60.36  4.21  4.02 0.00  0.19  1.01S    0.239                                           
 ED11 YR 001      12.7 247  99  P     58.60  2.45  2.34 0.00  0.11  1.01     0.144                                           
 ED12 YRS001      18.1 297  93  S     62.45  6.30  6.34 0.00 -0.04  1.01S    0.364                                           
 ED02 YRS001      24.9 235  92  S     64.58  8.43  8.51 0.00 -0.08  1.01S    0.299                                           
 ED07 YRS001      26.4 116  92  S     64.77  8.62  9.01 0.00 -0.39  0.86S    0.338                                           
 TERO IVS001      37.2 109  91  S     67.48 11.33 12.48 0.00 -1.15* 0.00S    0.000                                           
 ####################################################################################
