  14 OCT 2016,  0:03  SEQUENCE NO.    7, ID NO.         0
                                                        ADJUSTMENTS (KM)
  I ORIGIN   LAT N     LON W     Z   NWR  RMS    DT    DLAT   DLON    DZ    RR NF MOD
  1 42.15  42 51.69   13E10.98  8.00  15 0.65  0.526 -5.357 -2.065  0.000 5.741 3 MOD
 FREE DEPTH
  2 42.68  42 48.80   13E12.50  8.00  15 0.42  0.090  0.374  0.189 -2.704 2.736 4 MOD
  3 42.77  42 49.00   13E12.36  5.30  15 0.25 -0.042 -0.038  0.078  0.033 0.093 4 MOD
 BEGIN MAIN DISTANCE WEIGHTING
 BEGIN RESIDUAL WEIGHTING
  4 42.72  42 48.98   13E12.30  5.33  14 0.14 -0.028 -0.485 -0.556  0.596 0.949 4 MOD
  5 42.70  42 48.72   13E12.71  5.93  14 0.08 -0.007 -0.082 -0.094  0.027 0.128 4 MOD
  6 42.69  42 48.67   13E12.78  5.95  14 0.08 -0.001 -0.010 -0.005  0.015 0.018 4 MOD
  7 42.69  42 48.67   13E12.78  5.97  14 0.08  0.001  0.007 -0.002 -0.019 0.021 4 MOD

              EIGENVALUES
     ( 3.767  0.765  0.411  0.236)
      EIGENVECTORS OF ADJUSTMENT                COVARIANCE             ERRORS
 OT  (-0.993  0.020  0.030  0.111) (   0.005   0.001   0.001  -0.032)   0.070
 LAT ( 0.009 -0.604  0.796 -0.025) (   0.001   0.071   0.033   0.005)   0.267
 LON ( 0.031  0.797  0.603 -0.030) (   0.001   0.033   0.053   0.007)   0.230
 Z   (-0.112 -0.007 -0.035 -0.993) (  -0.032   0.005   0.007   0.288)   0.537
 ERROR ELLIPSE: <SERR AZ DIP>-<   0.54 309 87>-<   0.31 142  2>-<   0.17  52  0>
 ------------------------------------------------------------------------------------
 YEAR MO DA  --ORIGIN--  --LAT N-  --LON W--  DEPTH-M RMS   ERH   ERZ  XMAG1 FMAG1 PMAG GEOID-DEP
 2016-10-14  0003 42.69  42 48.67   13E12.78   5.97  0.08  0.31  0.54                       4.80
                                                                                          SOURCE
 NSTA NPHS  DMIN MODEL GAP ITR NFM NWR NWS NVR REMRKS-AVH  N.XMG-XMMAD-T   N.FMG-FMMAD-T  L F X
   11   15   5.4  MODS  74   7   0  14   8  15                                                 

 XMAG2-N.XMG2-XMMAD-T-S  FMAG2-N.FMG2-FMMAD-T-S  PREF.MAG-N.PMAG-PRMAD-T DEPDAT NS ZT TYP
                                                                           1164  5  M CRH

 EXTERNAL MAG= 0.15  NUMBER READINGS=    0  TYPE=L
 REGION=                          

 STA NET COM L CR DIST AZM  AN P/S WT   SEC (TOBS -TCAL -DLY  =RES)  WT   SR  INFO  CAL  DUR-W-FMAG-T -AMP-U-PER-W-XMAG-T DE
 T1245IV 001       5.4 338 134  P     44.15  1.46  1.41 0.00  0.05  1.00     0.121                                           
        S                       S     45.43  2.74  2.75 0.00 -0.01  1.00S    0.523
 T1214IVS001       5.7 184 133  S     45.56  2.87  2.82 0.00  0.05  1.00S    0.570                                           
 ED10 YR 001       7.0 238 127  P     44.31  1.62  1.60 0.00  0.02  1.00     0.096                                           
        S                       S     45.65  2.96  3.13 0.00 -0.17  1.00S    0.281
 ED16 YRS001       8.2  69 122  S     46.25  3.56  3.45 0.00  0.11  1.00S    0.340                                           
 NRCA IV 001       8.4 288 121  P     44.46  1.77  1.80 0.00 -0.03  1.00     0.137                                           
        S                       S     45.16  2.47  3.51 0.00 -1.04* 0.00S    0.000
 MMO1 IVS001      13.5  43 108  S     47.64  4.95  5.00 0.00 -0.05  1.00S    0.249                                           
 T1212IV 001      15.3 245 106  P     45.67  2.98  2.85 0.00  0.13  1.00     0.175                                           
        S                       S     48.20  5.51  5.55 0.00 -0.04  1.00S    0.231
 ED09 YR 001      17.3  93 105  P     45.82  3.13  3.17 0.00 -0.04  1.00     0.278                                           
 ED17 YRS001      18.9  24 102  S     49.33  6.64  6.67 0.00 -0.03  1.00S    0.347                                           
 ED20 YR 001      19.5 110 103  P     46.11  3.42  3.53 0.00 -0.11  1.00     0.334                                           
 T1217IVS001      25.6 245  98  S     51.55  8.86  8.79 0.00  0.07  1.00S    0.312                                           
 ####################################################################################
  14 OCT 2016,  0:04  SEQUENCE NO.    8, ID NO.         0
                                                        ADJUSTMENTS (KM)
  I ORIGIN   LAT N     LON W     Z   NWR  RMS    DT    DLAT   DLON    DZ    RR NF MOD
  1 25.98  42 34.76   13E17.53  8.00  48 0.42  0.077  0.729  0.350  0.000 0.809 3 MOD
 FREE DEPTH
  2 26.06  42 35.15   13E17.27  8.00  48 0.39 -0.127 -0.029 -0.024  1.802 1.802 4 MOD
  3 25.93  42 35.14   13E17.29  9.80  48 0.38 -0.038 -0.008  0.044  0.128 0.135 4 MOD
 BEGIN MAIN DISTANCE WEIGHTING
 BEGIN RESIDUAL WEIGHTING
  4 25.89  42 35.13   13E17.26  9.93  46 0.27 -0.286 -0.324  0.259  3.279 3.305 4 MOD
  5 25.61  42 34.96   13E17.07 13.21  46 0.23  0.011  0.005  0.174 -0.346 0.388 4 MOD
  6 25.62  42 34.96   13E16.94 12.86  46 0.22  0.006  0.033  0.073 -0.072 0.108 4 MOD
  7 25.62  42 34.98   13E16.89 12.79  46 0.21  0.003  0.028  0.018 -0.021 0.039 4 MOD
  8 25.63  42 34.99   13E16.87 12.77  46 0.21  0.003  0.004  0.012 -0.021 0.025 4 MOD

              EIGENVALUES
     ( 6.900  1.062  0.850  0.311)
      EIGENVECTORS OF ADJUSTMENT                COVARIANCE             ERRORS
 OT  (-0.990 -0.040  0.041  0.129) (   0.011   0.012  -0.000  -0.071)   0.104
 LAT ( 0.070 -0.496  0.858  0.113) (   0.012   0.075  -0.012  -0.054)   0.273
 LON ( 0.014 -0.866 -0.500 -0.007) (  -0.000  -0.012   0.055   0.002)   0.235
 Z   (-0.122 -0.056  0.107 -0.985) (  -0.071  -0.054   0.002   0.548)   0.740
 ERROR ELLIPSE: <SERR AZ DIP>-<   0.74 184 83>-<   0.27  30  5>-<   0.22 300  2>
 ------------------------------------------------------------------------------------
 YEAR MO DA  --ORIGIN--  --LAT N-  --LON W--  DEPTH-M RMS   ERH   ERZ  XMAG1 FMAG1 PMAG GEOID-DEP
 2016-10-14  0004 25.63  42 34.99   13E16.87  12.77  0.21  0.27  0.74                      11.61
                                                                                          SOURCE
 NSTA NPHS  DMIN MODEL GAP ITR NFM NWR NWS NVR REMRKS-AVH  N.XMG-XMMAD-T   N.FMG-FMMAD-T  L F X
   32   48   1.6  MODS  66   8   0  46  28  48                                                 

 XMAG2-N.XMG2-XMMAD-T-S  FMAG2-N.FMG2-FMMAD-T-S  PREF.MAG-N.PMAG-PRMAD-T DEPDAT NS ZT TYP
                                                                           1160  5  M CRH

 EXTERNAL MAG= 0.60  NUMBER READINGS=    0  TYPE=L
 REGION=                          

 STA NET COM L CR DIST AZM  AN P/S WT   SEC (TOBS -TCAL -DLY  =RES)  WT   SR  INFO  CAL  DUR-W-FMAG-T -AMP-U-PER-W-XMAG-T DE
 ED04 YR 001       1.6 127 172  P     27.98  2.35  2.16 0.00  0.19  1.04     0.040                                           
 T1299IV 001       5.7   0 155  P     28.18  2.55  2.34 0.00  0.21  1.04     0.028                                           
 ED25 YR 001       6.0  73 152  P     28.20  2.57  2.37 0.00  0.20  1.04     0.034                                           
        S                       S     28.37  2.74  4.49 0.00 -1.75* 0.00S    0.000
 SMA1 IV 001       6.9  40 149  P     28.33  2.70  2.43 0.00  0.27  1.04     0.030                                           
        S                       S     28.48  2.85  4.61 0.00 -1.76* 0.00S    0.000
 ED03 YR 001       7.8 287 146  P     28.29  2.66  2.51 0.00  0.15  1.04     0.033                                           
        S                       S     30.35  4.72  4.75 0.00 -0.03  1.04S    0.198
 RM33 IVS001       9.9 214 139  S     30.53  4.90  5.13 0.00 -0.23  1.04S    0.176                                           
 T1204IV 001      10.7  15 136  P     28.68  3.05  2.80 0.00  0.25  1.04     0.027                                           
        S                       S     30.90  5.27  5.29 0.00 -0.02  1.04S    0.167
 ED24 YR 001      10.9 318 136  P     28.69  3.06  2.81 0.00  0.25  1.04     0.026                                           
        S                       S     30.96  5.33  5.32 0.00  0.01  1.04S    0.144
 CAMP IVS001      11.7 116 133  S     30.92  5.29  5.50 0.00 -0.21  1.04S    0.134                                           
 ED05 YR 001      13.0 148 130  P     28.91  3.28  3.06 0.00  0.22  1.04     0.073                                           
        S                       S     31.40  5.77  5.79 0.00 -0.02  1.04S    0.136
 T1202IV 001      14.1 341 127  P     29.28  3.65  3.20 0.00  0.45  0.85     0.019                                           
        S                       S     32.16  6.53  6.04 0.00  0.49  0.70S    0.049
 ED07 YR 001      15.9  71 124  P     29.18  3.55  3.42 0.00  0.13  1.04     0.052                                           
        S                       S     31.90  6.27  6.46 0.00 -0.19  1.04S    0.108
 T1218IVS001      16.7 306 122  S     32.18  6.55  6.65 0.00 -0.10  1.04S    0.081                                           
 ED01 YR 001      16.7 248 122  P     29.33  3.70  3.53 0.00  0.17  1.04     0.082                                           
        S                       S     32.19  6.56  6.66 0.00 -0.10  1.04S    0.130
 T1246IV 001      17.4  89 121  P     29.33  3.70  3.62 0.00  0.08  1.04     0.065                                           
        S                       S     32.18  6.55  6.83 0.00 -0.28  1.04S    0.102
 ED23 YR 001      17.8   1 120  P     29.70  4.07  3.67 0.00  0.40  0.99     0.035                                           
        S                       S     32.78  7.15  6.93 0.00  0.22  1.04S    0.092
 ED14 YR 001      19.8 140 117  P     29.67  4.04  3.95 0.00  0.09  1.04     0.108                                           
        S                       S     32.96  7.33  7.45 0.00 -0.12  1.04S    0.136
 ED20 YR 001      22.3  34 114  P     29.96  4.33  4.31 0.00  0.02  1.04     0.061                                           
        S                       S     33.38  7.75  8.11 0.00 -0.36  1.04S    0.097
 ED08 YRS001      23.2 234 112  S     33.98  8.35  8.36 0.00 -0.01  1.04S    0.173                                           
 ED11 YRS001      23.4 300 112  S     34.02  8.39  8.42 0.00 -0.03  1.04S    0.075                                           
 ED15 YR 001      23.6 105 112  P     30.08  4.45  4.49 0.00 -0.04  1.04     0.102                                           
        S                       S     33.55  7.92  8.45 0.00 -0.53* 0.55S    0.033
 ED10 YRS001      24.4 332 111  S     34.10  8.47  8.67 0.00 -0.20  1.04S    0.068                                           
 ED09 YR 001      26.8  25 109  P     30.62  4.99  4.97 0.00  0.02  1.04     0.072                                           
        S                       S     34.59  8.96  9.33 0.00 -0.37  1.03S    0.097
 TERO IV 001      26.8  80 109  P     30.52  4.89  4.98 0.00 -0.09  1.04     0.099                                           
        S                       S     34.43  8.80  9.35 0.00 -0.55* 0.46S    0.023
 T1212IVS001      26.9 315 109  S     34.78  9.15  9.37 0.00 -0.22  1.04S    0.072                                           
 ED16 YRS001      28.3   4 108  S     35.64 10.01  9.75 0.00  0.26  1.04S    0.088                                           
 ED02 YRS001      29.0 275 107  S     35.39  9.76  9.95 0.00 -0.19  1.04S    0.125                                           
 NRCA IVS001      31.0 334 106  S     36.01 10.38 10.51 0.00 -0.13  1.04S    0.078                                           
 T1217IVS001      32.1 297 105  S     36.22 10.59 10.81 0.00 -0.22  1.04S    0.100                                           
 ED12 YRS001      35.1 315 103  S     37.29 11.66 11.69 0.00 -0.03  1.04S    0.091                                           
 MMO1 IVS001      35.3   6 103  S     37.39 11.76 11.74 0.00  0.02  1.04S    0.103                                           
 T1215IVS001      41.6 306 101  S     38.84 13.21 13.56 0.00 -0.35  1.04S    0.115                                           
 ####################################################################################
  14 OCT 2016,  0:04  SEQUENCE NO.    9, ID NO.         0
                                                        ADJUSTMENTS (KM)
  I ORIGIN   LAT N     LON W     Z   NWR  RMS    DT    DLAT   DLON    DZ    RR NF MOD
  1 52.10  42 54.99   13E11.04  8.00  38 0.98  0.646 -2.249 -4.471  0.000 5.004 3 MOD
 FREE DEPTH
  2 52.75  42 53.78   13E14.33  8.00  38 0.42  0.330 -0.640 -0.043 -5.858 5.893 4 MOD
  3 53.08  42 53.43   13E14.36  2.14  38 0.43 -0.238 -0.108 -0.101  0.467 0.490 4 MOD
 BEGIN MAIN DISTANCE WEIGHTING
 BEGIN RESIDUAL WEIGHTING
  4 52.84  42 53.37   13E14.44  2.61  36 0.20  0.048  0.195  0.011  0.977 0.996 4 MOD
  5 52.88  42 53.48   13E14.43  3.59  35 0.17 -0.063  0.033  0.085  1.591 1.594 4 MOD
  6 52.82  42 53.50   13E14.37  5.18  34 0.14 -0.051  0.094 -0.049  0.513 0.524 4 MOD
  7 52.77  42 53.55   13E14.40  5.69  34 0.13 -0.008  0.010 -0.038  0.093 0.101 4 MOD
  8 52.76  42 53.55   13E14.43  5.78  34 0.13 -0.001 -0.006 -0.007  0.005 0.010 4 MOD

              EIGENVALUES
     ( 5.898  1.173  0.971  0.449)
      EIGENVECTORS OF ADJUSTMENT                COVARIANCE             ERRORS
 OT  (-0.999 -0.027  0.013  0.029) (   0.001  -0.002   0.001  -0.003)   0.030
 LAT (-0.033  0.943  0.112 -0.311) (  -0.002   0.031  -0.002   0.034)   0.176
 LON ( 0.018 -0.093  0.993  0.073) (   0.001  -0.002   0.029  -0.008)   0.172
 Z   (-0.018 -0.318  0.041 -0.947) (  -0.003   0.034  -0.008   0.124)   0.352
 ERROR ELLIPSE: <SERR AZ DIP>-<   0.37  14 71>-<   0.17 277  2>-<   0.14 185 18>
 ------------------------------------------------------------------------------------
 YEAR MO DA  --ORIGIN--  --LAT N-  --LON W--  DEPTH-M RMS   ERH   ERZ  XMAG1 FMAG1 PMAG GEOID-DEP
 2016-10-14  0004 52.76  42 53.55   13E14.43   5.78  0.13  0.17  0.35                       4.83
                                                                                          SOURCE
 NSTA NPHS  DMIN MODEL GAP ITR NFM NWR NWS NVR REMRKS-AVH  N.XMG-XMMAD-T   N.FMG-FMMAD-T  L F X
   29   38   4.7  MODS  49   8   0  34  21  38                                                 

 XMAG2-N.XMG2-XMMAD-T-S  FMAG2-N.FMG2-FMMAD-T-S  PREF.MAG-N.PMAG-PRMAD-T DEPDAT NS ZT TYP
                                                                            952  5  M CRH

 EXTERNAL MAG= 0.75  NUMBER READINGS=    0  TYPE=L
 REGION=                          

 STA NET COM L CR DIST AZM  AN P/S WT   SEC (TOBS -TCAL -DLY  =RES)  WT   SR  INFO  CAL  DUR-W-FMAG-T -AMP-U-PER-W-XMAG-T DE
 MC2  IV 001       4.7 297 138  P     54.10  1.34  1.30 0.00  0.04  1.03     0.083                                           
        S                       S     54.29  1.53  2.54 0.00 -1.01* 0.00S    0.000
 T1245IV 001       5.9 228 132  P     54.20  1.44  1.44 0.00 -0.00  1.03     0.101                                           
 MMO1 IV 001       7.1  83 126  P     54.36  1.60  1.59 0.00  0.01  1.03     0.074                                           
 ED16 YR 001       8.2 138 121  P     54.63  1.87  1.75 0.00  0.12  1.03     0.084                                           
        S                       S     55.09  2.33  3.42 0.00 -1.09* 0.00S    0.000
 ED19 YR 001       8.8 291 120  P     54.64  1.88  1.84 0.00  0.04  1.03     0.064                                           
 ED17 YR 001       9.9  34 115  P     54.75  1.99  1.99 0.00  0.00  1.03     0.062                                           
        S                       S     56.44  3.68  3.88 0.00 -0.20  1.03S    0.133
 ED18 YR 001      11.0   1 112  P     55.06  2.30  2.16 0.00  0.14  1.03     0.059                                           
        S                       S     56.92  4.16  4.22 0.00 -0.06  1.03S    0.122
 NRCA IVS001      12.2 238 110  S     57.29  4.53  4.59 0.00 -0.06  1.03S    0.205                                           
 ED22 YR 001      14.4  28 106  P     55.71  2.95  2.71 0.00  0.24  1.03     0.066                                           
        S                       S     58.13  5.37  5.27 0.00  0.10  1.03S    0.137
 ED21 YR 001      15.5   9 105  P     55.76  3.00  2.88 0.00  0.12  1.03     0.065                                           
        S                       S     58.25  5.49  5.59 0.00 -0.10  1.03S    0.135
 ED23 YRS001      17.0 167 103  S     59.58  6.82  6.07 0.00  0.75* 0.00S    0.000                                           
 T1216IV 001      18.1 270 103  P     56.19  3.43  3.30 0.00  0.13  1.03     0.057                                           
 ED09 YR 001      18.2 124 102  P     56.10  3.34  3.31 0.00  0.03  1.03     0.063                                           
        S                       S     59.10  6.34  6.43 0.00 -0.09  1.03S    0.161
 FDMO IV 001      20.3 323 100  P     56.54  3.78  3.66 0.00  0.12  1.03     0.063                                           
        S                       S     59.65  6.89  7.10 0.00 -0.21  1.03S    0.137
 GUMA IVS001      20.4  22 100  S     60.58  7.82  7.14 0.00  0.68* 0.00S    0.000                                           
 T1202IVS001      21.0 184 100  S     60.57  7.81  7.34 0.00  0.47  0.16S    0.004                                           
 T1212IVS001      22.4 226  99  S     60.49  7.73  7.77 0.00 -0.04  1.03S    0.156                                           
 ED20 YR 001      22.6 134  99  P     56.81  4.05  4.04 0.00  0.01  1.03     0.060                                           
        S                       S     60.29  7.53  7.82 0.00 -0.29  1.01S    0.148
 ED12 YRS001      23.6 247  98  S     60.91  8.15  8.14 0.00  0.01  1.03S    0.147                                           
 T1218IVS001      26.8 203  97  S     62.02  9.26  9.16 0.00  0.10  1.03S    0.150                                           
 ED11 YRS001      28.3 217  65  S     62.29  9.53  9.63 0.00 -0.10  1.03S    0.126                                           
 CESI IVS001      30.1 295  65  S     62.96 10.20 10.16 0.00  0.04  1.03S    0.273                                           
 T1215IVS001      32.0 252  65  S     63.29 10.53 10.73 0.00 -0.20  1.03S    0.176                                           
 T1217IVS001      32.3 232  65  S     63.49 10.73 10.80 0.00 -0.07  1.03S    0.143                                           
 ED03 YRS001      32.4 188  65  S     63.73 10.97 10.84 0.00  0.13  1.03S    0.115                                           
 ED07 YRS001      34.6 147  65  S     64.32 11.56 11.49 0.00  0.07  1.03S    0.155                                           
 T1246IVS001      40.1 148  65  S     65.64 12.88 13.10 0.00 -0.22  1.03S    0.154                                           
 TERO IVS001      42.2 135  65  S     66.42 13.66 13.72 0.00 -0.06  1.03S    0.179                                           
 ED05 YRS001      46.6 167  65  S     68.05 15.29 15.00 0.00  0.29  1.01S    0.125                                           
 ####################################################################################
