  14 OCT 2016,  0:10  SEQUENCE NO.   16, ID NO.         0
                                                        ADJUSTMENTS (KM)
  I ORIGIN   LAT N     LON W     Z   NWR  RMS    DT    DLAT   DLON    DZ    RR NF MOD
  1  8.01  42 54.26   13E19.31  8.00   9 1.41  0.529 -4.008  9.284  0.00010.112 3 MOD
  2  8.54  42 52.10   13E12.47  8.00   9 0.98 -0.706  0.503 -1.165  0.000 1.269 3 MOD
 FREE DEPTH
  3  7.83  42 52.37   13E13.33  8.00   9 0.38  0.488 -0.207 -0.487 -4.228 4.260 4 MOD
 BEGIN MAIN DISTANCE WEIGHTING
 BEGIN RESIDUAL WEIGHTING
  4  8.32  42 52.26   13E13.69  3.77   9 0.23 -0.014  0.110  0.059 -0.875 0.884 4 MOD
  5  8.31  42 52.32   13E13.65  2.90   9 0.20 -0.012 -0.158  0.201  0.692 0.737 4 MOD
  6  8.29  42 52.23   13E13.50  3.59   9 0.21  0.038  0.276 -0.183 -1.078 1.127 4 MOD
  7  8.33  42 52.38   13E13.63  2.51   9 0.17  0.133  0.544  0.109 -1.299 1.413 4 MOD
 AIRQUAKE PREVENTED
  8  8.47  42 52.67   13E13.55  1.21   8 0.14  0.002  0.046 -0.012 -0.606 0.608 4 MOD
 AIRQUAKE PREVENTED
  9  8.47  42 52.70   13E13.56  0.61   8 0.13 -0.020  0.008  0.016 -0.303 0.304 4 MOD
 10  8.45  42 52.70   13E13.55  0.30   8 0.12 -0.023  0.035 -0.005  1.377 1.378 4 MOD
 11  8.43  42 52.72   13E13.55  1.68   8 0.13  0.048  0.028  0.012 -1.349 1.350 4 MOD
 12  8.47  42 52.74   13E13.55  0.33   8 0.13 -0.045 -0.014 -0.010  1.259 1.259 4 MOD

              EIGENVALUES
     ( 2.830  0.705  0.506  0.075)
      EIGENVECTORS OF ADJUSTMENT                COVARIANCE             ERRORS
 OT  (-0.999  0.029 -0.018  0.003) (   0.003   0.002  -0.001  -0.016)   0.059
 LAT ( 0.023  0.173 -0.984 -0.029) (   0.002   0.108   0.008   0.134)   0.328
 LON (-0.026 -0.984 -0.174  0.006) (  -0.001   0.008   0.056  -0.026)   0.236
 Z   (-0.004 -0.011  0.028 -1.000) (  -0.016   0.134  -0.026   4.658)   2.158
 ERROR ELLIPSE: <SERR AZ DIP>-<   2.16  11 88>-<   0.32 170  1>-<   0.23 260  0>
 ------------------------------------------------------------------------------------
 YEAR MO DA  --ORIGIN--  --LAT N-  --LON W--  DEPTH-M RMS   ERH   ERZ  XMAG1 FMAG1 PMAG GEOID-DEP
 2016-10-14  0010  8.47  42 52.74   13E13.55   0.33  0.13  0.32  2.16                      -0.78
                                                                                          SOURCE
 NSTA NPHS  DMIN MODEL GAP ITR NFM NWR NWS NVR REMRKS-AVH  N.XMG-XMMAD-T   N.FMG-FMMAD-T  L F X
    7    9   4.0  MODS  91  12   0   8   5   9                                                 

 XMAG2-N.XMG2-XMMAD-T-S  FMAG2-N.FMG2-FMMAD-T-S  PREF.MAG-N.PMAG-PRMAD-T DEPDAT NS ZT TYP
                                                                           1115  5  M CRH

 EXTERNAL MAG= 0.22  NUMBER READINGS=    0  TYPE=L
 REGION=                          

 STA NET COM L CR DIST AZM  AN P/S WT   SEC (TOBS -TCAL -DLY  =RES)  WT   SR  INFO  CAL  DUR-W-FMAG-T -AMP-U-PER-W-XMAG-T DE
 T1245IVS001       4.0 232  94  S      9.80  1.33  1.44 0.00 -0.11  1.00S    0.721                                           
 ED16 YRS001       8.1 124  92  S     11.42  2.95  2.94 0.00  0.01  1.00S    0.563                                           
 ED19 YR 001       8.4 303  92  P     10.27  1.80  1.58 0.00  0.22  1.00     0.228                                           
        S                       S     11.47  3.00  3.05 0.00 -0.05  1.00S    0.513
 MMO1 IV 001       8.6  74  92  P     10.01  1.54  1.61 0.00 -0.07  1.00     0.176                                           
        S                       S     11.61  3.14  3.11 0.00  0.03  1.00S    0.356
 ED17 YRS001      11.8  34  91  S     12.57  4.10  4.28 0.00 -0.18  1.00S    0.460                                           
 ED10 YR 001      13.3 212  69  P     10.74  2.27  2.45 0.00 -0.18  1.00     0.978                                           
 ED20 YRS001      22.4 130  79  S     15.44  6.97  8.12 0.00 -1.15* 0.00S    0.000                                           
 ####################################################################################
  14 OCT 2016,  0:10  SEQUENCE NO.   17, ID NO.         0
                                                        ADJUSTMENTS (KM)
  I ORIGIN   LAT N     LON W     Z   NWR  RMS    DT    DLAT   DLON    DZ    RR NF MOD
  1 22.50  42 46.92   13E 8.17  8.00  58 1.53  1.194 -4.285 -3.923  0.000 5.809 3 MOD
 FREE DEPTH
  2 23.69  42 44.61   13E11.05  8.00  58 0.49  0.341  0.077 -0.187 -6.167 6.171 4 MOD
  3 24.04  42 44.65   13E11.19  1.83  58 0.45 -0.171  0.109 -0.177  1.095 1.114 4 MOD
 BEGIN MAIN DISTANCE WEIGHTING
 BEGIN RESIDUAL WEIGHTING
  4 23.86  42 44.71   13E11.32  2.93  57 0.28  0.018  0.143  0.203  0.404 0.474 4 MOD
  5 23.88  42 44.79   13E11.17  3.33  55 0.27 -0.004  0.130  0.134 -1.066 1.082 4 MOD
  6 23.88  42 44.86   13E11.07  2.27  56 0.28  0.012  0.089  0.107  0.785 0.798 4 MOD
  7 23.89  42 44.90   13E10.99  3.05  54 0.25  0.004  0.065  0.026 -1.378 1.380 4 MOD
 RMS INCREASE - MOVE HYPO 0.60 BACK
  8 23.90  42 44.94   13E10.97  1.67  54 0.30 -0.003 -0.039 -0.016  0.827 0.828 4 MOD
  9 23.89  42 44.92   13E10.99  2.50  55 0.26 -0.004  0.071  0.040  0.440 0.447 4 MOD
 10 23.89  42 44.96   13E10.96  2.94  54 0.25  0.001  0.022 -0.040  0.089 0.100 4 MOD
 11 23.89  42 44.97   13E10.99  3.03  54 0.25  0.007 -0.017  0.034 -1.413 1.413 4 MOD
 RMS INCREASE - MOVE HYPO 0.60 BACK
 12 23.90  42 44.96   13E10.96  1.62  54 0.30 -0.004  0.010 -0.020  0.848 0.848 4 MOD
 13 23.89  42 44.96   13E10.98  2.46  53 0.26 -0.003  0.009  0.020  0.225 0.226 4 MOD
 14 23.89  42 44.97   13E10.96  2.69  54 0.25  0.003 -0.002  0.005  0.216 0.216 4 MOD
 15 23.89  42 44.97   13E10.96  2.90  54 0.25 -0.000 -0.003 -0.014  0.085 0.086 4 MOD
 16 23.89  42 44.97   13E10.97  2.99  54 0.25 -0.001  0.001 -0.013  0.026 0.029 4 MOD

              EIGENVALUES
     ( 7.514  1.384  1.137  0.623)
      EIGENVECTORS OF ADJUSTMENT                COVARIANCE             ERRORS
 OT  (-0.996 -0.025  0.045  0.076) (   0.002   0.001  -0.003   0.014)   0.050
 LAT ( 0.036 -0.895  0.437 -0.080) (   0.001   0.042  -0.006  -0.012)   0.204
 LON (-0.035 -0.434 -0.898 -0.064) (  -0.003  -0.006   0.053  -0.009)   0.229
 Z   ( 0.078 -0.098 -0.026  0.992) (   0.014  -0.012  -0.009   0.182)   0.427
 ERROR ELLIPSE: <SERR AZ DIP>-<   0.43 142 84>-<   0.24 245  1>-<   0.19 334  5>
 ------------------------------------------------------------------------------------
 YEAR MO DA  --ORIGIN--  --LAT N-  --LON W--  DEPTH-M RMS   ERH   ERZ  XMAG1 FMAG1 PMAG GEOID-DEP
 2016-10-14  0010 23.89  42 44.97   13E10.97   2.99  0.25  0.24  0.43                       1.83
                                                                                          SOURCE
 NSTA NPHS  DMIN MODEL GAP ITR NFM NWR NWS NVR REMRKS-AVH  N.XMG-XMMAD-T   N.FMG-FMMAD-T  L F X
   37   58   2.4  MODS  30  16   0  54  25  58                                                 

 XMAG2-N.XMG2-XMMAD-T-S  FMAG2-N.FMG2-FMMAD-T-S  PREF.MAG-N.PMAG-PRMAD-T DEPDAT NS ZT TYP
                                                                           1158  5  M CRH

 EXTERNAL MAG= 0.84  NUMBER READINGS=    0  TYPE=L
 REGION=                          

 STA NET COM L CR DIST AZM  AN P/S WT   SEC (TOBS -TCAL -DLY  =RES)  WT   SR  INFO  CAL  DUR-W-FMAG-T -AMP-U-PER-W-XMAG-T DE
 T1214IV 001       2.4  62 141  P     24.67  0.78  0.69 0.00  0.09  1.05     0.148                                           
        S                       S     24.79  0.90  1.37 0.00 -0.47  1.03S    0.378
 ED10 YR 001       4.6 312 121  P     24.50  0.61  0.98 0.00 -0.37  1.05     0.128                                           
 T1202IV 001       6.2 145 115  P     25.22  1.33  1.23 0.00  0.10  1.05     0.088                                           
        S                       S     25.38  1.49  2.46 0.00 -0.97* 0.00S    0.000
 ED23 YR 001       8.6  94  64  P     25.81  1.92  1.63 0.00  0.29  1.05     0.073                                           
        S                       S     26.04  2.15  3.24 0.00 -1.09* 0.00S    0.000
 T1218IV 001      10.4 213  72  P     25.92  2.03  1.95 0.00  0.08  1.05     0.057                                           
 ED24 YR 001      10.4 175  72  P     25.80  1.91  1.95 0.00 -0.04  1.05     0.047                                           
 NRCA IV 001      10.9 330  64  P     26.04  2.15  2.02 0.00  0.13  1.05     0.039                                           
        S                       S     27.87  3.98  3.98 0.00 -0.00  1.05S    0.084
 T1212IV 001      11.3 272  72  P     26.18  2.29  2.10 0.00  0.19  1.05     0.057                                           
 T1245IV 001      11.9   2  64  P     26.47  2.58  2.19 0.00  0.39  1.05     0.033                                           
        S                       S     27.72  3.83  4.31 0.00 -0.48  1.02S    0.074
 T1204IV 001      13.7 126  64  P     26.54  2.65  2.49 0.00  0.16  1.05     0.036                                           
        S                       S     28.98  5.09  4.88 0.00  0.21  1.05S    0.110
 ED11 YR 001      14.0 242  72  P     26.51  2.62  2.54 0.00  0.08  1.05     0.060                                           
 ED16 YR 001      14.1  46  64  P     26.61  2.72  2.56 0.00  0.16  1.05     0.033                                           
        S                       S     29.11  5.22  5.01 0.00  0.21  1.05S    0.096
 T1299IV 001      15.2 147  72  P     26.91  3.02  2.75 0.00  0.27  1.05     0.040                                           
 ED12 YR 001      18.0 291  64  P     27.40  3.51  3.22 0.00  0.29  1.05     0.051                                           
        S                       S     30.03  6.14  6.27 0.00 -0.13  1.05S    0.116
 MC2  IVS001      18.0   1  64  S     31.07  7.18  6.28 0.00  0.90* 0.00S    0.000                                           
 SMA1 IV 001      18.2 136  72  P     27.43  3.54  3.26 0.00  0.28  1.05     0.038                                           
 ED19 YRS001      19.2 350  64  S     30.82  6.93  6.68 0.00  0.25  1.05S    0.078                                           
 MMO1 IV 001      20.4  35  64  P     27.51  3.62  3.63 0.00 -0.01  1.05     0.032                                           
        S                       S     30.94  7.05  7.05 0.00 -0.00  1.05S    0.091
 ED09 YR 001      20.5  73  64  P     27.40  3.51  3.65 0.00 -0.14  1.05     0.034                                           
        S                       S     30.80  6.91  7.08 0.00 -0.17  1.05S    0.105
 T1216IVS001      20.6 320  64  S     31.09  7.20  7.13 0.00  0.07  1.05S    0.090                                           
 ED20 YR 001      20.7  90  64  P     27.37  3.48  3.67 0.00 -0.19  1.05     0.034                                           
        S                       S     30.52  6.63  7.14 0.00 -0.51* 0.97S    0.093
 ED25 YR 001      21.7 140  64  P     28.07  4.18  3.85 0.00  0.33  1.05     0.038                                           
        S                       S     31.78  7.89  7.48 0.00  0.41  1.05S    0.113
 ED01 YR 001      25.9 197  64  P     28.42  4.53  4.55 0.00 -0.02  1.05     0.053                                           
        S                       S     32.71  8.82  8.81 0.00  0.01  1.05S    0.140
 ED17 YR 001      26.1  23  72  P     28.43  4.54  4.60 0.00 -0.06  1.05     0.032                                           
 T1215IV 001      26.4 283  64  P     28.57  4.68  4.63 0.00  0.05  1.05     0.054                                           
        S                       S     32.59  8.70  8.98 0.00 -0.28  1.05S    0.123
 ED02 YR 001      26.4 233  64  P     28.54  4.65  4.64 0.00  0.01  1.05     0.060                                           
        S                       S     32.60  8.71  8.98 0.00 -0.27  1.05S    0.151
 ED07 YR 001      26.8 120  64  P     28.54  4.65  4.70 0.00 -0.05  1.05     0.036                                           
        S                       S     32.54  8.65  9.11 0.00 -0.46  1.04S    0.108
 ED18 YRS001      27.3  10  64  S     33.33  9.44  9.29 0.00  0.15  1.05S    0.080                                           
 ED22 YR 001      30.9  22  64  P     29.67  5.78  5.39 0.00  0.39  1.05     0.032                                           
        S                       S     34.58 10.69 10.42 0.00  0.27  1.05S    0.085
 T1246IV 001      31.4 125  64  P     29.19  5.30  5.49 0.00 -0.19  1.05     0.036                                           
        S                       S     33.80  9.91 10.61 0.00 -0.70* 0.31S    0.009
 ED21 YRS001      32.0  13  64  S     34.47 10.58 10.80 0.00 -0.22  1.05S    0.081                                           
 ED05 YRS001      33.1 153  64  S     34.72 10.83 11.15 0.00 -0.32  1.05S    0.117                                           
 CESI IVS001      36.3 322  64  S     35.73 11.84 12.20 0.00 -0.36  1.05S    0.089                                           
 GUMA IVS001      37.0  19  64  S     37.05 13.16 12.39 0.00  0.77* 0.11S    0.000                                           
 TERO IV 001      37.3 112  64  P     29.96  6.07  6.47 0.00 -0.40  1.05     0.035                                           
        S                       S     35.51 11.62 12.50 0.00 -0.88* 0.00S    0.000
 CSP1 IV 001      38.1   2  64  P     30.64  6.75  6.61 0.00  0.14  1.05     0.033                                           
        S                       S     36.52 12.63 12.75 0.00 -0.12  1.05S    0.079
 ED14 YR 001      39.6 148  64  P     30.66  6.77  6.86 0.00 -0.09  1.05     0.040                                           
        S                       S     36.41 12.52 13.24 0.00 -0.72* 0.23S    0.005
 ####################################################################################
