  14 OCT 2016,  0:12  SEQUENCE NO.   18, ID NO.         0
                                                        ADJUSTMENTS (KM)
  I ORIGIN   LAT N     LON W     Z   NWR  RMS    DT    DLAT   DLON    DZ    RR NF MOD
  1  9.12  42 45.87   13E12.22  8.00  73 1.19  0.938 -2.967  0.864  0.000 3.091 3 MOD
 FREE DEPTH
  2 10.06  42 44.27   13E11.58  8.00  73 0.24  0.112 -0.273  0.067 -1.121 1.156 4 MOD
  3 10.17  42 44.12   13E11.54  6.88  73 0.22 -0.006 -0.020 -0.007  0.047 0.052 4 MOD
 BEGIN MAIN DISTANCE WEIGHTING
 BEGIN RESIDUAL WEIGHTING
  4 10.17  42 44.11   13E11.54  6.93  71 0.15 -0.024  0.086 -0.049  0.153 0.182 4 MOD
  5 10.14  42 44.16   13E11.58  7.08  69 0.13 -0.010  0.062 -0.065 -0.141 0.168 4 MOD
  6 10.13  42 44.19   13E11.62  6.94  69 0.13 -0.002  0.011 -0.014  0.208 0.209 4 MOD
  7 10.13  42 44.20   13E11.63  7.15  69 0.13 -0.003  0.004 -0.026 -0.183 0.185 4 MOD

              EIGENVALUES
     ( 8.564  1.459  1.078  0.261)
      EIGENVECTORS OF ADJUSTMENT                COVARIANCE             ERRORS
 OT  (-0.999  0.020 -0.035 -0.018) (   0.001   0.000  -0.001  -0.007)   0.023
 LAT (-0.011 -0.970 -0.243 -0.016) (   0.000   0.014  -0.003  -0.006)   0.117
 LON (-0.039 -0.243  0.969  0.007) (  -0.001  -0.003   0.023   0.003)   0.152
 Z   (-0.018 -0.013 -0.011  1.000) (  -0.007  -0.006   0.003   0.404)   0.636
 ERROR ELLIPSE: <SERR AZ DIP>-<   0.64 205 89>-<   0.15 256  0>-<   0.11 165  0>
 ------------------------------------------------------------------------------------
 YEAR MO DA  --ORIGIN--  --LAT N-  --LON W--  DEPTH-M RMS   ERH   ERZ  XMAG1 FMAG1 PMAG GEOID-DEP
 2016-10-14  0012 10.13  42 44.20   13E11.63   7.15  0.13  0.15  0.64                       5.93
                                                                                          SOURCE
 NSTA NPHS  DMIN MODEL GAP ITR NFM NWR NWS NVR REMRKS-AVH  N.XMG-XMMAD-T   N.FMG-FMMAD-T  L F X
   44   73   2.8  MODS  30   7   0  69  26  73                                                 

 XMAG2-N.XMG2-XMMAD-T-S  FMAG2-N.FMG2-FMMAD-T-S  PREF.MAG-N.PMAG-PRMAD-T DEPDAT NS ZT TYP
                                                                           1215  5  M CRH

 EXTERNAL MAG= 1.54  NUMBER READINGS=    0  TYPE=L
 REGION=                          

 STA NET COM L CR DIST AZM  AN P/S WT   SEC (TOBS -TCAL -DLY  =RES)  WT   SR  INFO  CAL  DUR-W-FMAG-T -AMP-U-PER-W-XMAG-T DE
 T1214IV 001       2.8  25 156  P     11.12  0.99  1.33 0.00 -0.34  0.72     0.137                                           
 T1202IV 001       4.5 145 145  P     11.47  1.34  1.46 0.00 -0.12  1.06     0.231                                           
 ED23 YR 001       7.7  84 128  P     12.03  1.90  1.82 0.00  0.08  1.06     0.136                                           
 ED24 YR 001       9.0 181 123  P     11.87  1.74  1.99 0.00 -0.25  1.06     0.102                                           
 T1218IV 001       9.8 222 120  P     12.20  2.07  2.10 0.00 -0.03  1.06     0.099                                           
 T1204IV 001      12.1 123 103  P     12.72  2.59  2.43 0.00  0.16  1.06     0.056                                           
        S                       S     15.08  4.95  4.72 0.00  0.23  1.06S    0.103
 T1212IV 001      12.3 278 112  P     12.54  2.41  2.47 0.00 -0.06  1.06     0.077                                           
 NRCA IV 001      12.6 329 111  P     12.47  2.34  2.50 0.00 -0.16  1.06     0.066                                           
 T1299IV 001      13.5 147  98  P     13.01  2.88  2.64 0.00  0.24  1.06     0.043                                           
        S                       S     15.66  5.53  5.12 0.00  0.41  0.21S    0.002
 ED11 YR 001      14.2 248 107  P     12.84  2.71  2.75 0.00 -0.04  1.06     0.063                                           
 ED16 YR 001      14.5  39  95  P     12.98  2.85  2.80 0.00  0.05  1.06     0.045                                           
        S                       S     15.56  5.43  5.42 0.00  0.01  1.06S    0.077
 ED03 YR 001      14.8 182  94  P     13.00  2.87  2.85 0.00  0.02  1.06     0.040                                           
        S                       S     15.76  5.63  5.52 0.00  0.11  1.06S    0.065
 SMA1 IV 001      16.5 135 102  P     13.32  3.19  3.11 0.00  0.08  1.06     0.028                                           
 ED12 YR 001      19.4 294  96  P     13.70  3.57  3.56 0.00  0.01  1.06     0.048                                           
 MC2  IV 001      19.4 359  91  P     13.81  3.68  3.57 0.00  0.11  1.06     0.031                                           
        S                       S     17.46  7.33  6.87 0.00  0.46  0.02S    0.000
 ED20 YR 001      19.8  85  91  P     13.65  3.52  3.64 0.00 -0.12  1.06     0.030                                           
        S                       S     16.82  6.69  6.98 0.00 -0.29  0.98S    0.068
 ED04 YR 001      19.9 154  95  P     14.18  4.05  3.65 0.00  0.40  0.27     0.001                                           
 ED25 YR 001      20.0 139  91  P     13.95  3.82  3.67 0.00  0.15  1.06     0.025                                           
        S                       S     17.73  7.60  7.05 0.00  0.55* 0.00S    0.000
 ED09 YR 001      20.1  69  91  P     13.70  3.57  3.68 0.00 -0.11  1.06     0.031                                           
        S                       S     17.03  6.90  7.06 0.00 -0.16  1.06S    0.082
 ED19 YR 001      20.8 348  91  P     14.03  3.90  3.80 0.00  0.10  1.06     0.033                                           
        S                       S     17.50  7.37  7.27 0.00  0.10  1.06S    0.069
 MMO1 IV 001      21.1  30  91  P     13.89  3.76  3.84 0.00 -0.08  1.06     0.031                                           
        S                       S     17.39  7.26  7.35 0.00 -0.09  1.06S    0.072
 T1217IV 001      21.7 263  93  P     14.03  3.90  3.94 0.00 -0.04  1.06     0.055                                           
 T1216IV 001      22.3 321  92  P     14.09  3.96  4.04 0.00 -0.08  1.06     0.041                                           
 ED01 YR 001      24.8 200  90  P     14.57  4.44  4.44 0.00 -0.00  1.06     0.042                                           
        S                       S     18.62  8.49  8.43 0.00  0.06  1.06S    0.089
 ED07 YR 001      25.3 118  90  P     14.61  4.48  4.52 0.00 -0.04  1.06     0.030                                           
        S                       S     18.68  8.55  8.58 0.00 -0.03  1.06S    0.070
 RM33 IV 001      25.3 176  90  P     14.69  4.56  4.53 0.00  0.03  1.06     0.034                                           
        S                       S     18.65  8.52  8.60 0.00 -0.08  1.06S    0.069
 ED02 YR 001      26.3 236  90  P     14.79  4.66  4.68 0.00 -0.02  1.06     0.054                                           
        S                       S     18.90  8.77  8.87 0.00 -0.10  1.06S    0.121
 ED17 YR 001      27.1  20  90  P     14.83  4.70  4.82 0.00 -0.12  1.06     0.033                                           
        S                       S     19.43  9.30  9.12 0.00  0.18  1.06S    0.071
 T1215IV 001      27.6 286  90  P     14.95  4.82  4.89 0.00 -0.07  1.06     0.054                                           
        S                       S     19.27  9.14  9.26 0.00 -0.12  1.06S    0.117
 CAMP IV 001      28.4 141  90  P     15.27  5.14  5.03 0.00  0.11  1.06     0.029                                           
        S                       S     19.39  9.26  9.51 0.00 -0.25  1.06S    0.062
 ED18 YR 001      28.6   8  90  P     15.17  5.04  5.06 0.00 -0.02  1.06     0.034                                           
        S                       S     19.96  9.83  9.56 0.00  0.27  1.03S    0.065
 T1246IV 001      29.9 124  90  P     15.33  5.20  5.25 0.00 -0.05  1.06     0.031                                           
        S                       S     19.90  9.77  9.92 0.00 -0.15  1.06S    0.067
 ED06 YR 001      30.4 174  90  P     15.76  5.63  5.34 0.00  0.29  0.97     0.029                                           
        S                       S     20.31 10.18 10.09 0.00  0.09  1.06S    0.068
 ED05 YR 001      31.4 153  90  P     15.73  5.60  5.50 0.00  0.10  1.06     0.032                                           
        S                       S     20.63 10.50 10.39 0.00  0.11  1.06S    0.061
 ED22 YR 001      31.9  19  90  P     15.86  5.73  5.57 0.00  0.16  1.06     0.034                                           
        S                       S     21.06 10.93 10.51 0.00  0.42  0.16S    0.001
 ED08 YR 001      32.9 201  90  P     15.96  5.83  5.75 0.00  0.08  1.06     0.045                                           
 ED21 YR 001      33.2  11  90  P     15.84  5.71  5.79 0.00 -0.08  1.06     0.035                                           
        S                       S     21.07 10.94 10.91 0.00  0.03  1.06S    0.069
 FDMO IV 001      34.4 346  90  P     16.06  5.93  5.99 0.00 -0.06  1.06     0.038                                           
 TERO IV 001      35.9 110  90  P     16.16  6.03  6.23 0.00 -0.20  1.06     0.032                                           
        S                       S     21.51 11.38 11.71 0.00 -0.33  0.78S    0.039
 ED15 YR 001      37.8 127  90  P     16.55  6.42  6.54 0.00 -0.12  1.06     0.031                                           
        S                       S     22.32 12.19 12.27 0.00 -0.08  1.06S    0.066
 ED14 YR 001      37.9 148  90  P     16.67  6.54  6.55 0.00 -0.01  1.06     0.031                                           
        S                       S     22.40 12.27 12.29 0.00 -0.02  1.06S    0.061
 GUMA IV 001      38.0  17  90  P     17.20  7.07  6.57 0.00  0.50  0.00     0.000                                           
        S                       S     23.48 13.35 12.32 0.00  1.03* 0.00S    0.000
 CESI IV 001      38.0 322  90  P     16.68  6.55  6.57 0.00 -0.02  1.06     0.044                                           
        S                       S     22.24 12.11 12.33 0.00 -0.22  1.06S    0.086
 CSP1 IV 001      39.5   1  90  P     16.95  6.82  6.80 0.00  0.02  1.06     0.035                                           
        S                       S     23.05 12.92 12.75 0.00  0.17  1.06S    0.069
 ####################################################################################
  14 OCT 2016,  0:13  SEQUENCE NO.   19, ID NO.         0
                                                        ADJUSTMENTS (KM)
  I ORIGIN   LAT N     LON W     Z   NWR  RMS    DT    DLAT   DLON    DZ    RR NF MOD
  1 28.26  42 45.87   13E12.22  8.00  10 0.62  0.682 -2.770  0.804  0.000 2.885 3 MOD
 FREE DEPTH
  2 28.94  42 44.37   13E11.63  8.00  10 0.26  0.351  0.034 -0.536 -2.531 2.587 4 MOD
  3 29.29  42 44.39   13E12.02  5.47  10 0.17 -0.065  0.054 -0.059  0.374 0.382 4 MOD
 BEGIN MAIN DISTANCE WEIGHTING
 BEGIN RESIDUAL WEIGHTING
  4 29.23  42 44.42   13E12.07  5.84  10 0.11 -0.058  0.197 -0.106  0.071 0.235 4 MOD
  5 29.17  42 44.53   13E12.14  5.91   9 0.10 -0.007  0.022 -0.012  0.012 0.027 4 MOD
  6 29.16  42 44.54   13E12.15  5.93   9 0.10 -0.003  0.010 -0.005 -0.008 0.014 4 MOD

              EIGENVALUES
     ( 3.373  0.510  0.415  0.285)
      EIGENVECTORS OF ADJUSTMENT                COVARIANCE             ERRORS
 OT  (-0.988 -0.017 -0.002 -0.153) (   0.007  -0.018  -0.017  -0.026)   0.085
 LAT (-0.080  0.084  0.863  0.491) (  -0.018   0.142   0.033   0.040)   0.376
 LON (-0.063 -0.838 -0.209  0.500) (  -0.017   0.033   0.117   0.060)   0.342
 Z   (-0.117  0.538 -0.459  0.697) (  -0.026   0.040   0.060   0.161)   0.401
 ERROR ELLIPSE: <SERR AZ DIP>-<   0.48 314 44>-<   0.34 193 27>-<   0.27  85 32>
 ------------------------------------------------------------------------------------
 YEAR MO DA  --ORIGIN--  --LAT N-  --LON W--  DEPTH-M RMS   ERH   ERZ  XMAG1 FMAG1 PMAG GEOID-DEP
 2016-10-14  0013 29.16  42 44.54   13E12.15   5.93  0.10  0.34  0.34                       4.75
                                                                                          SOURCE
 NSTA NPHS  DMIN MODEL GAP ITR NFM NWR NWS NVR REMRKS-AVH  N.XMG-XMMAD-T   N.FMG-FMMAD-T  L F X
    7   10   2.0  MODS 127   6   0   9   5  10                                                 

 XMAG2-N.XMG2-XMMAD-T-S  FMAG2-N.FMG2-FMMAD-T-S  PREF.MAG-N.PMAG-PRMAD-T DEPDAT NS ZT TYP
                                                                           1173  5  M CRH

 EXTERNAL MAG= 0.11  NUMBER READINGS=    0  TYPE=L
 REGION=                          

 STA NET COM L CR DIST AZM  AN P/S WT   SEC (TOBS -TCAL -DLY  =RES)  WT   SR  INFO  CAL  DUR-W-FMAG-T -AMP-U-PER-W-XMAG-T DE
 T1214IV 001       2.0  14 160  P     30.26  1.10  1.09 0.00  0.01  1.11     0.291                                           
        S                       S     31.14  1.98  2.13 0.00 -0.15  1.11S    0.586
 T1202IV 001       4.7 157 139  P     30.64  1.48  1.32 0.00  0.16  1.11     0.116                                           
        S                       S     31.77  2.61  2.57 0.00  0.04  1.11S    0.501
 ED23 YR 001       6.9  89 128  P     31.21  2.05  1.59 0.00  0.46  0.00     0.000                                           
 ED24 YR 001       9.7 185 117  P     31.14  1.98  1.97 0.00  0.01  1.11     0.195                                           
        S                       S     32.91  3.75  3.85 0.00 -0.10  1.11S    0.496
 ED11 YR 001      15.1 247 107  P     32.02  2.86  2.82 0.00  0.04  1.11     0.617                                           
 ED20 YRS001      19.1  87 102  S     35.98  6.82  6.73 0.00  0.09  1.11S    0.519                                           
 TERO IVS001      35.5 111  65  S     40.76 11.60 11.72 0.00 -0.12  1.11S    0.674                                           
 ####################################################################################
  14 OCT 2016,  0:14  SEQUENCE NO.   20, ID NO.         0
                                                        ADJUSTMENTS (KM)
  I ORIGIN   LAT N     LON W     Z   NWR  RMS    DT    DLAT   DLON    DZ    RR NF MOD
  1 44.15  42 48.31   13E25.12  8.00  23 1.01  0.280  0.437  4.841  0.000 4.861 3 MOD
 FREE DEPTH
  2 44.43  42 48.55   13E21.56  8.00  23 0.58 -0.596  0.528  0.505  6.392 6.434 4 MOD
  3 43.83  42 48.83   13E21.19 14.39  23 0.47 -0.417  0.039  0.918  1.044 1.391 4 MOD
 BEGIN MAIN DISTANCE WEIGHTING
 BEGIN RESIDUAL WEIGHTING
  4 43.42  42 48.85   13E20.51 15.44  22 0.21 -0.103  0.159 -0.237  0.493 0.570 4 MOD
  5 43.31  42 48.94   13E20.69 15.93  22 0.21 -0.027  0.074 -0.069  0.160 0.189 4 MOD
  6 43.29  42 48.98   13E20.74 16.09  22 0.21 -0.010  0.042 -0.030  0.075 0.091 4 MOD
  7 43.28  42 49.00   13E20.76 16.16  22 0.21 -0.010  0.031  0.002  0.074 0.080 4 MOD
  8 43.27  42 49.02   13E20.76 16.24  22 0.21  0.000  0.024 -0.024 -0.001 0.034 4 MOD

              EIGENVALUES
     ( 4.766  0.739  0.484  0.247)
      EIGENVECTORS OF ADJUSTMENT                COVARIANCE             ERRORS
 OT  (-0.985 -0.008 -0.064 -0.163) (   0.026  -0.020  -0.005  -0.137)   0.161
 LAT (-0.050  0.897  0.428  0.095) (  -0.020   0.126  -0.040   0.073)   0.355
 LON ( 0.034  0.418 -0.899  0.124) (  -0.005  -0.040   0.211   0.085)   0.459
 Z   (-0.164 -0.142  0.062  0.974) (  -0.137   0.073   0.085   0.818)   0.904
 ERROR ELLIPSE: <SERR AZ DIP>-<   0.91 306 80>-<   0.47  64  4>-<   0.31 155  8>
 ------------------------------------------------------------------------------------
 YEAR MO DA  --ORIGIN--  --LAT N-  --LON W--  DEPTH-M RMS   ERH   ERZ  XMAG1 FMAG1 PMAG GEOID-DEP
 2016-10-14  0014 43.27  42 49.02   13E20.76  16.24  0.21  0.47  0.90                      15.36
                                                                                          SOURCE
 NSTA NPHS  DMIN MODEL GAP ITR NFM NWR NWS NVR REMRKS-AVH  N.XMG-XMMAD-T   N.FMG-FMMAD-T  L F X
   19   23   3.9  MODS 110   8   0  22  16  23                                                 

 XMAG2-N.XMG2-XMMAD-T-S  FMAG2-N.FMG2-FMMAD-T-S  PREF.MAG-N.PMAG-PRMAD-T DEPDAT NS ZT TYP
                                                                            880  5  M CRH

 EXTERNAL MAG= 0.56  NUMBER READINGS=    0  TYPE=L
 REGION=                          

 STA NET COM L CR DIST AZM  AN P/S WT   SEC (TOBS -TCAL -DLY  =RES)  WT   SR  INFO  CAL  DUR-W-FMAG-T -AMP-U-PER-W-XMAG-T DE
 ED16 YRS001       3.9 306 165  S     48.73  5.46  5.22 0.00  0.24  1.01S    0.248                                           
 ED09 YR 001       6.6 106 156  P     46.15  2.88  2.92 0.00 -0.04  1.01     0.091                                           
        S                       S     48.56  5.29  5.49 0.00 -0.20  1.01S    0.354
 MMO1 IVS001       9.3 351 148  S     48.96  5.69  5.85 0.00 -0.16  1.01S    0.217                                           
 ED23 YR 001       9.5 211 147  P     46.62  3.35  3.13 0.00  0.22  1.01     0.060                                           
        S                       S     49.48  6.21  5.88 0.00  0.33  1.00S    0.189
 ED20 YR 001      10.5 135 145  P     46.50  3.23  3.22 0.00  0.01  1.01     0.089                                           
 T1214IVS001      12.9 241 139  S     48.53  5.26  6.48 0.00 -1.22* 0.00S    0.000                                           
 T1245IVS001      13.6 289 137  S     50.09  6.82  6.62 0.00  0.20  1.01S    0.145                                           
 T1202IVS001      16.0 219 132  S     50.03  6.76  7.12 0.00 -0.36  0.97S    0.144                                           
 NRCA IVS001      19.0 276 127  S     50.85  7.58  7.80 0.00 -0.22  1.01S    0.190                                           
 ED19 YRS001      20.4 305 125  S     51.25  7.98  8.12 0.00 -0.14  1.01S    0.191                                           
 SMA1 IVS001      20.7 183 124  S     51.09  7.82  8.21 0.00 -0.39  0.89S    0.101                                           
 ED22 YRS001      21.1 356 123  S     51.81  8.54  8.31 0.00  0.23  1.01S    0.268                                           
 ED24 YRS001      21.9 216 122  S     52.08  8.81  8.49 0.00  0.32  1.01S    0.175                                           
 ED07 YR 001      23.1 155 121  P     48.07  4.80  4.70 0.00  0.10  1.01     0.141                                           
        S                       S     52.03  8.76  8.80 0.00 -0.04  1.01S    0.154
 ED25 YRS001      24.2 178 119  S     52.44  9.17  9.08 0.00  0.09  1.01S    0.133                                           
 ED21 YRS001      24.4 346 119  S     52.16  8.89  9.13 0.00 -0.24  1.01S    0.280                                           
 T1212IVS001      25.7 254 118  S     52.66  9.39  9.46 0.00 -0.07  1.01S    0.272                                           
 T1246IV 001      28.6 155 115  P     48.77  5.50  5.47 0.00  0.03  1.01     0.174                                           
        S                       S     53.29 10.02 10.22 0.00 -0.20  1.01S    0.163
 TERO IV 001      30.2 135 115  P     49.09  5.82  5.69 0.00  0.13  1.01     0.208                                           
 ####################################################################################
