  14 OCT 2016,  0:02  SEQUENCE NO.    3, ID NO.         0
                                                        ADJUSTMENTS (KM)
  I ORIGIN   LAT N     LON W     Z   NWR  RMS    DT    DLAT   DLON    DZ    RR NF MOD
  1 37.34  42 40.86   13E18.70  8.00  39 0.64  0.214 -2.068  2.123  0.000 2.964 3 MOD
 FREE DEPTH
  2 37.55  42 39.74   13E17.14  8.00  39 0.39 -0.047 -0.178  0.229  0.333 0.442 4 MOD
  3 37.51  42 39.65   13E16.97  8.33  39 0.38  0.006 -0.021  0.017 -0.131 0.134 4 MOD
 BEGIN MAIN DISTANCE WEIGHTING
 BEGIN RESIDUAL WEIGHTING
  4 37.51  42 39.64   13E16.96  8.20  37 0.28 -0.186 -0.072 -0.362  3.694 3.712 4 MOD
  5 37.33  42 39.60   13E17.23 11.90  37 0.23 -0.020 -0.082  0.023 -0.492 0.500 4 MOD
  6 37.31  42 39.55   13E17.21 11.40  37 0.22 -0.030  0.030 -0.036  0.129 0.137 4 MOD
  7 37.28  42 39.57   13E17.24 11.53  37 0.22 -0.006  0.033 -0.027  0.005 0.042 4 MOD

              EIGENVALUES
     ( 6.128  1.055  0.830  0.242)
      EIGENVECTORS OF ADJUSTMENT                COVARIANCE             ERRORS
 OT  (-0.994 -0.003  0.004 -0.113) (   0.014   0.001   0.007  -0.110)   0.119
 LAT (-0.001 -0.503 -0.864 -0.011) (   0.001   0.076  -0.013  -0.010)   0.276
 LON ( 0.011 -0.862  0.503 -0.059) (   0.007  -0.013   0.064  -0.055)   0.252
 Z   (-0.112 -0.057  0.021  0.992) (  -0.110  -0.010  -0.055   0.971)   0.986
 ERROR ELLIPSE: <SERR AZ DIP>-<   0.99 100 86>-<   0.29 210  1>-<   0.23 300  3>
 ------------------------------------------------------------------------------------
 YEAR MO DA  --ORIGIN--  --LAT N-  --LON W--  DEPTH-M RMS   ERH   ERZ  XMAG1 FMAG1 PMAG GEOID-DEP
 2016-10-14  0002 37.28  42 39.57   13E17.24  11.53  0.22  0.29  0.99                      10.34
                                                                                          SOURCE
 NSTA NPHS  DMIN MODEL GAP ITR NFM NWR NWS NVR REMRKS-AVH  N.XMG-XMMAD-T   N.FMG-FMMAD-T  L F X
   29   39   2.8  MODS  46   7   0  37  23  39                                                 

 XMAG2-N.XMG2-XMMAD-T-S  FMAG2-N.FMG2-FMMAD-T-S  PREF.MAG-N.PMAG-PRMAD-T DEPDAT NS ZT TYP
                                                                           1191  5  M CRH

 EXTERNAL MAG= 0.60  NUMBER READINGS=    0  TYPE=L
 REGION=                          

 STA NET COM L CR DIST AZM  AN P/S WT   SEC (TOBS -TCAL -DLY  =RES)  WT   SR  INFO  CAL  DUR-W-FMAG-T -AMP-U-PER-W-XMAG-T DE
 T1299IV 001       2.8 189 165  P     39.38  2.10  2.00 0.00  0.10  1.01     0.060                                           
 T1204IV 001       3.0  52 164  P     39.34  2.06  2.01 0.00  0.05  1.01     0.059                                           
 SMA1 IV 001       5.1 129 155  P     39.48  2.20  2.12 0.00  0.08  1.01     0.047                                           
 T1202IV 001       7.1 314 145  P     39.84  2.56  2.28 0.00  0.28  1.01     0.045                                           
        S                       S     40.09  2.81  4.33 0.00 -1.52* 0.00S    0.000
 ED24 YR 001       7.8 267 142  P     39.80  2.52  2.35 0.00  0.17  1.01     0.043                                           
        S                       S     39.91  2.63  4.46 0.00 -1.83* 0.00S    0.000
 ED25 YR 001       8.6 141 139  P     39.88  2.60  2.42 0.00  0.18  1.01     0.039                                           
        S                       S     41.87  4.59  4.60 0.00 -0.01  1.01S    0.248
 ED23 YR 001       9.3   0 137  P     40.02  2.74  2.50 0.00  0.24  1.01     0.045                                           
        S                       S     42.04  4.76  4.74 0.00  0.02  1.01S    0.272
 ED03 YR 001      10.1 232 136  P     40.02  2.74  2.59 0.00  0.15  1.01     0.043                                           
 T1218IV 001      14.2 275 123  P     40.48  3.20  3.08 0.00  0.12  1.01     0.044                                           
        S                       S     42.93  5.65  5.83 0.00 -0.18  1.01S    0.154
 ED07 YR 001      15.0 103 122  P     40.66  3.38  3.18 0.00  0.20  1.01     0.063                                           
        S                       S     43.22  5.94  6.04 0.00 -0.10  1.01S    0.107
 ED20 YRS001      15.7  50 120  S     43.08  5.80  6.21 0.00 -0.41  0.92S    0.112                                           
 CAMP IVS001      17.0 143 118  S     43.63  6.35  6.54 0.00 -0.19  1.01S    0.101                                           
 RM33 IVS001      17.8 200 116  S     43.92  6.64  6.74 0.00 -0.10  1.01S    0.132                                           
 T1246IV 001      18.9 116 115  P     41.19  3.91  3.72 0.00  0.19  1.01     0.086                                           
        S                       S     44.11  6.83  7.04 0.00 -0.21  1.01S    0.098
 ED09 YRS001      19.2  35 114  S     44.04  6.76  7.13 0.00 -0.37  1.00S    0.135                                           
 ED16 YRS001      19.8   4 113  S     44.79  7.51  7.29 0.00  0.22  1.01S    0.131                                           
 ED05 YRS001      20.6 161 112  S     45.06  7.78  7.49 0.00  0.29  1.01S    0.114                                           
 ED11 YR 001      21.1 279 111  P     41.45  4.17  4.04 0.00  0.13  1.01     0.070                                           
        S                       S     44.63  7.35  7.63 0.00 -0.28  1.01S    0.098
 ED01 YR 001      21.8 228 111  P     41.65  4.37  4.14 0.00  0.23  1.01     0.087                                           
        S                       S     45.16  7.88  7.82 0.00  0.06  1.01S    0.129
 T1212IVS001      22.4 298 110  S     44.98  7.70  7.98 0.00 -0.28  1.01S    0.093                                           
 TERO IV 001      26.3  98 106  P     42.15  4.87  4.82 0.00  0.05  1.01     0.137                                           
        S                       S     45.91  8.63  9.08 0.00 -0.45  0.78S    0.089
 ED15 YRS001      26.6 123 106  S     46.13  8.85  9.17 0.00 -0.32  1.01S    0.142                                           
 ED14 YRS001      26.7 153 106  S     46.47  9.19  9.19 0.00 -0.00  1.01S    0.145                                           
 MMO1 IVS001      26.8   6 106  S     46.60  9.32  9.24 0.00  0.08  1.01S    0.158                                           
 T1217IVS001      29.7 282 103  S     47.08  9.80 10.06 0.00 -0.26  1.01S    0.113                                           
 ED02 YRS001      30.1 259 103  S     47.09  9.81 10.15 0.00 -0.34  1.01S    0.130                                           
 ED12 YRS001      30.2 303 103  S     47.88 10.60 10.19 0.00  0.41  0.90S    0.089                                           
 ED17 YRS001      34.1   2 101  S     48.65 11.37 11.31 0.00  0.06  1.01S    0.189                                           
 T1215IVS001      37.8 295 100  S     49.34 12.06 12.37 0.00 -0.31  1.01S    0.136                                           
 ####################################################################################
  14 OCT 2016,  0:02  SEQUENCE NO.    4, ID NO.         0
                                                        ADJUSTMENTS (KM)
  I ORIGIN   LAT N     LON W     Z   NWR  RMS    DT    DLAT   DLON    DZ    RR NF MOD
  1 57.87  42 38.35   13E16.63  8.00  14 0.64  0.510  0.802  0.873  0.000 1.186 3 MOD
 FREE DEPTH
  2 58.38  42 38.78   13E15.99  8.00  14 0.27 -0.266 -0.103  0.243  1.965 1.982 4 MOD
  3 58.11  42 38.73   13E15.81  9.96  14 0.21 -0.093 -0.026  0.034  0.390 0.393 4 MOD
 BEGIN MAIN DISTANCE WEIGHTING
 BEGIN RESIDUAL WEIGHTING
  4 58.02  42 38.71   13E15.79 10.36  14 0.14  0.179 -0.240  0.196 -1.015 1.062 4 MOD
  5 58.20  42 38.58   13E15.64  9.34  12 0.10  0.021  0.013  0.037 -0.148 0.154 4 MOD
  6 58.22  42 38.59   13E15.62  9.19  12 0.10 -0.003  0.009 -0.009  0.013 0.018 4 MOD
  7 58.22  42 38.60   13E15.62  9.20  12 0.10  0.005 -0.004  0.009 -0.033 0.035 4 MOD

              EIGENVALUES
     ( 3.802  0.570  0.382  0.229)
      EIGENVECTORS OF ADJUSTMENT                COVARIANCE             ERRORS
 OT  (-0.983 -0.004  0.008 -0.181) (   0.014   0.016   0.002  -0.066)   0.118
 LAT ( 0.047  0.079  0.973 -0.214) (   0.016   0.149  -0.004  -0.049)   0.385
 LON ( 0.000  0.996 -0.087 -0.029) (   0.002  -0.004   0.063  -0.010)   0.251
 Z   (-0.175  0.047  0.216  0.959) (  -0.066  -0.049  -0.010   0.358)   0.598
 ERROR ELLIPSE: <SERR AZ DIP>-<   0.61 172 77>-<   0.37   5 12>-<   0.25 274  2>
 ------------------------------------------------------------------------------------
 YEAR MO DA  --ORIGIN--  --LAT N-  --LON W--  DEPTH-M RMS   ERH   ERZ  XMAG1 FMAG1 PMAG GEOID-DEP
 2016-10-14  0002 58.22  42 38.60   13E15.62   9.20  0.10  0.36  0.59                       8.05
                                                                                          SOURCE
 NSTA NPHS  DMIN MODEL GAP ITR NFM NWR NWS NVR REMRKS-AVH  N.XMG-XMMAD-T   N.FMG-FMMAD-T  L F X
   11   14   2.1  MODS 114   7   0  12   9  14                                                 

 XMAG2-N.XMG2-XMMAD-T-S  FMAG2-N.FMG2-FMMAD-T-S  PREF.MAG-N.PMAG-PRMAD-T DEPDAT NS ZT TYP
                                                                           1151  5  M CRH

 EXTERNAL MAG= 0.26  NUMBER READINGS=    0  TYPE=L
 REGION=                          

 STA NET COM L CR DIST AZM  AN P/S WT   SEC (TOBS -TCAL -DLY  =RES)  WT   SR  INFO  CAL  DUR-W-FMAG-T -AMP-U-PER-W-XMAG-T DE
 T1299IV 001       2.1 119 165  P     59.87  1.65  1.61 0.00  0.04  1.08     0.141                                           
        S                       S     61.19  2.97  3.09 0.00 -0.12  1.08S    0.335
 ED24 YR 001       5.7 284 144  P     60.17  1.95  1.85 0.00  0.10  1.08     0.159                                           
        S                       S     61.75  3.53  3.55 0.00 -0.02  1.08S    0.271
 T1204IVS001       5.9  51 143  S     61.65  3.43  3.57 0.00 -0.14  1.08S    0.271                                           
 SMA1 IVS001       6.3 102 141  S     62.07  3.85  3.65 0.00  0.20  1.08S    0.276                                           
 ED03 YRS001       7.3 233 136  S     62.05  3.83  3.84 0.00 -0.01  1.08S    0.436                                           
 T1202IVS001       7.3 337 136  S     62.11  3.89  3.84 0.00  0.05  1.08S    0.322                                           
 ED25 YRS001       9.0 123 129  S     62.86  4.64  4.20 0.00  0.44  0.05S    0.000                                           
 ED23 YR 001      11.3  11 121  P     60.79  2.57  2.49 0.00  0.08  1.08     0.255                                           
        S                       S     62.99  4.77  4.76 0.00  0.01  1.08S    0.417
 ED07 YRS001      16.9  95 109  S     64.33  6.11  6.23 0.00 -0.12  1.08S    0.598                                           
 ED11 YRS001      19.3 286 105  S     65.02  6.80  6.91 0.00 -0.11  1.08S    0.512                                           
 TERO IVS001      28.3  94  97  S     67.11  8.89  9.51 0.00 -0.62* 0.00S    0.000                                           
 ####################################################################################
  14 OCT 2016,  0:03  SEQUENCE NO.    5, ID NO.         0
                                                        ADJUSTMENTS (KM)
  I ORIGIN   LAT N     LON W     Z   NWR  RMS    DT    DLAT   DLON    DZ    RR NF MOD
  1  4.41  42 45.87   13E12.22  8.00   8 0.70  0.669 -3.461  1.492  0.000 3.769 3 MOD
 FREE DEPTH
  2  5.08  42 44.00   13E11.12  8.00   8 0.38  0.430  1.646 -1.387 -2.766 3.505 4 MOD
  3  5.51  42 44.89   13E12.14  5.23   8 0.27 -0.136 -0.303  0.216  0.530 0.648 4 MOD
 BEGIN MAIN DISTANCE WEIGHTING
 BEGIN RESIDUAL WEIGHTING
  4  5.37  42 44.73   13E11.98  5.76   8 0.19 -0.061  0.644 -0.759 -0.028 0.996 4 MOD
  5  5.31  42 45.07   13E12.54  5.74   7 0.13 -0.023  0.089 -0.153 -0.049 0.184 4 MOD
  6  5.29  42 45.12   13E12.65  5.69   7 0.13 -0.003 -0.018  0.024  0.005 0.031 4 MOD
  7  5.28  42 45.11   13E12.64  5.69   7 0.13 -0.000  0.003  0.009 -0.000 0.009 4 MOD

              EIGENVALUES
     ( 2.671  0.500  0.300  0.171)
      EIGENVECTORS OF ADJUSTMENT                COVARIANCE             ERRORS
 OT  (-0.991  0.057 -0.124  0.007) (   0.009  -0.011  -0.009  -0.034)   0.093
 LAT (-0.031  0.462  0.506  0.728) (  -0.011   0.579  -0.347  -0.074)   0.761
 LON ( 0.007  0.733  0.244 -0.635) (  -0.009  -0.347   0.440   0.170)   0.663
 Z   (-0.133 -0.496  0.818 -0.259) (  -0.034  -0.074   0.170   0.284)   0.533
 ERROR ELLIPSE: <SERR AZ DIP>-<   0.95 222 15>-<   0.54 334 55>-<   0.33 122 30>
 ------------------------------------------------------------------------------------
 YEAR MO DA  --ORIGIN--  --LAT N-  --LON W--  DEPTH-M RMS   ERH   ERZ  XMAG1 FMAG1 PMAG GEOID-DEP
 2016-10-14  0003  5.28  42 45.11   13E12.64   5.69  0.13  0.92  0.44                       4.54
                                                                                          SOURCE
 NSTA NPHS  DMIN MODEL GAP ITR NFM NWR NWS NVR REMRKS-AVH  N.XMG-XMMAD-T   N.FMG-FMMAD-T  L F X
    6    8   0.9  MODS 123   7   0   7   4   8                                                 

 XMAG2-N.XMG2-XMMAD-T-S  FMAG2-N.FMG2-FMMAD-T-S  PREF.MAG-N.PMAG-PRMAD-T DEPDAT NS ZT TYP
                                                                           1147  5  M CRH

 EXTERNAL MAG= 0.11  NUMBER READINGS=    0  TYPE=L
 REGION=                          

 STA NET COM L CR DIST AZM  AN P/S WT   SEC (TOBS -TCAL -DLY  =RES)  WT   SR  INFO  CAL  DUR-W-FMAG-T -AMP-U-PER-W-XMAG-T DE
 T1214IV 001       0.9 350 170  P      6.41  1.13  1.00 0.00  0.13  1.00     0.242                                           
        S                       S      7.28  2.00  1.96 0.00  0.04  1.00S    0.735
 T1202IV 001       5.5 167 132  P      6.71  1.43  1.38 0.00  0.05  1.00     0.251                                           
        S                       S      7.95  2.67  2.70 0.00 -0.03  1.00S    0.803
 ED10 YRS001       6.3 297 128  S      7.94  2.66  2.90 0.00 -0.24  1.00S    0.478                                           
 ED23 YR 001       6.3  98 129  P      7.48  2.20  1.49 0.00  0.71* 0.00     0.000                                           
 ED12 YR 001      20.0 288 101  P      9.07  3.79  3.62 0.00  0.17  1.00     0.590                                           
 TERO IVS001      35.3 113  65  S     16.88 11.60 11.69 0.00 -0.09  1.00S    0.898                                           
 ####################################################################################
  14 OCT 2016,  0:03  SEQUENCE NO.    6, ID NO.         0
                                                        ADJUSTMENTS (KM)
  I ORIGIN   LAT N     LON W     Z   NWR  RMS    DT    DLAT   DLON    DZ    RR NF MOD
  1 19.01  42 46.92   13E 8.17  8.00  17 0.74  0.521  3.082 -1.754  0.000 3.547 3 MOD
 FREE DEPTH
  2 19.53  42 48.58   13E 9.46  8.00  17 0.30  0.046  0.181 -0.260 -0.791 0.852 4 MOD
  3 19.58  42 48.68   13E 9.65  7.21  17 0.29 -0.014  0.018  0.009  0.013 0.024 4 MOD
 BEGIN MAIN DISTANCE WEIGHTING
 BEGIN RESIDUAL WEIGHTING
  4 19.56  42 48.69   13E 9.64  7.22  16 0.18 -0.036  0.154  0.176 -0.321 0.397 4 MOD
  5 19.53  42 48.77   13E 9.52  6.90  16 0.16 -0.033  0.015  0.070  0.228 0.239 4 MOD
  6 19.49  42 48.78   13E 9.46  7.13  16 0.16  0.029  0.042 -0.130 -0.427 0.449 4 MOD
  7 19.52  42 48.80   13E 9.56  6.70  16 0.16 -0.062 -0.042  0.225  0.645 0.684 4 MOD
  8 19.46  42 48.78   13E 9.39  7.35  16 0.16  0.061  0.029 -0.196 -0.581 0.614 4 MOD
  9 19.52  42 48.80   13E 9.54  6.77  16 0.16 -0.063 -0.037  0.218  0.615 0.653 4 MOD
 10 19.46  42 48.78   13E 9.38  7.38  16 0.17  0.063  0.046 -0.202 -0.570 0.607 4 MOD
 11 19.52  42 48.80   13E 9.53  6.81  16 0.16 -0.061 -0.042  0.194  0.558 0.593 4 MOD
 12 19.46  42 48.78   13E 9.38  7.37  16 0.17  0.062  0.041 -0.194 -0.572 0.605 4 MOD
 13 19.52  42 48.80   13E 9.53  6.80  16 0.16 -0.031 -0.021  0.104  0.298 0.317 4 MOD
 14 19.49  42 48.79   13E 9.45  7.10  16 0.16  0.016  0.017 -0.077 -0.215 0.229 4 MOD
 15 19.51  42 48.80   13E 9.51  6.88  16 0.16 -0.011 -0.001  0.015  0.133 0.134 4 MOD

              EIGENVALUES
     ( 4.038  0.825  0.627  0.449)
      EIGENVECTORS OF ADJUSTMENT                COVARIANCE             ERRORS
 OT  (-0.997 -0.013 -0.010 -0.073) (   0.003  -0.001  -0.008  -0.009)   0.055
 LAT ( 0.001 -0.581 -0.792  0.187) (  -0.001   0.078   0.025   0.002)   0.279
 LON (-0.052  0.687 -0.356  0.631) (  -0.008   0.025   0.103   0.050)   0.320
 Z   (-0.054 -0.436  0.496  0.749) (  -0.009   0.002   0.050   0.127)   0.356
 ERROR ELLIPSE: <SERR AZ DIP>-<   0.41 286 48>-<   0.30 156 29>-<   0.22  50 25>
 ------------------------------------------------------------------------------------
 YEAR MO DA  --ORIGIN--  --LAT N-  --LON W--  DEPTH-M RMS   ERH   ERZ  XMAG1 FMAG1 PMAG GEOID-DEP
 2016-10-14  0003 19.51  42 48.80   13E 9.51   6.88  0.16  0.27  0.31                       5.81
                                                                                          SOURCE
 NSTA NPHS  DMIN MODEL GAP ITR NFM NWR NWS NVR REMRKS-AVH  N.XMG-XMMAD-T   N.FMG-FMMAD-T  L F X
   13   17   4.2  MODS  68  15   0  16  12  17                                                 

 XMAG2-N.XMG2-XMMAD-T-S  FMAG2-N.FMG2-FMMAD-T-S  PREF.MAG-N.PMAG-PRMAD-T DEPDAT NS ZT TYP
                                                                           1066  5  M CRH

 EXTERNAL MAG= 0.62  NUMBER READINGS=    0  TYPE=L
 REGION=                          

 STA NET COM L CR DIST AZM  AN P/S WT   SEC (TOBS -TCAL -DLY  =RES)  WT   SR  INFO  CAL  DUR-W-FMAG-T -AMP-U-PER-W-XMAG-T DE
 NRCA IV 001       4.2 302 146  P     21.94  2.43  1.40 0.00  1.03* 0.00     0.000                                           
        S                       S     22.07  2.56  2.73 0.00 -0.17  1.03S    0.288
 ED10 YR 001       4.3 200 146  P     21.01  1.50  1.40 0.00  0.10  1.03     0.103                                           
        S                       S     22.08  2.57  2.74 0.00 -0.17  1.03S    0.256
 T1214IVS001       7.3 145 130  S     23.08  3.57  3.38 0.00  0.19  1.03S    0.358                                           
 T1212IV 001      11.6 234 117  P     21.95  2.44  2.33 0.00  0.11  1.03     0.143                                           
        S                       S     23.96  4.45  4.54 0.00 -0.09  1.03S    0.271
 ED19 YRS001      11.9 353 116  S     24.25  4.74  4.64 0.00  0.10  1.03S    0.327                                           
 ED16 YRS001      12.4  77 115  S     24.68  5.17  4.79 0.00  0.38  0.55S    0.088                                           
 MMO1 IVS001      16.8  55 108  S     25.65  6.14  6.08 0.00  0.06  1.03S    0.248                                           
 ED11 YRS001      17.2 217  65  S     25.84  6.33  6.23 0.00  0.10  1.03S    0.544                                           
 ED17 YR 001      20.9  35  65  P     23.44  3.93  3.81 0.00  0.12  1.03     0.104                                           
        S                       S     26.55  7.04  7.31 0.00 -0.27  1.03S    0.277
 ED09 YR 001      21.7  93 104  P     23.53  4.02  3.94 0.00  0.08  1.03     0.103                                           
 ED20 YRS001      23.8 107  65  S     27.48  7.97  8.15 0.00 -0.18  1.03S    0.283                                           
 ED22 YRS001      25.4  32  65  S     28.14  8.63  8.64 0.00 -0.01  1.03S    0.291                                           
 TERO IVS001      42.2 119  65  S     32.84 13.33 13.57 0.00 -0.24  1.03S    0.308                                           
 ####################################################################################
