  14 OCT 2016,  0:08  SEQUENCE NO.   13, ID NO.         0
                                                        ADJUSTMENTS (KM)
  I ORIGIN   LAT N     LON W     Z   NWR  RMS    DT    DLAT   DLON    DZ    RR NF MOD
  1 -0.24  42 39.64   13E11.24  8.00  37 0.76  0.489 -0.617 -3.301  0.000 3.358 3 MOD
 FREE DEPTH
  2  0.25  42 39.31   13E13.66  8.00  37 0.31 -0.188 -0.115 -0.346  2.165 2.195 4 MOD
  3  0.06  42 39.24   13E13.92 10.16  37 0.26 -0.035  0.037 -0.102  0.001 0.109 4 MOD
 BEGIN MAIN DISTANCE WEIGHTING
 BEGIN RESIDUAL WEIGHTING
  4  0.03  42 39.26   13E13.99 10.17  36 0.21  0.039  0.117  0.085 -0.448 0.471 4 MOD
  5  0.06  42 39.33   13E13.93  9.72  36 0.19  0.033  0.198 -0.022 -0.503 0.541 4 MOD
  6  0.10  42 39.43   13E13.94  9.21  33 0.16 -0.003  0.068 -0.013 -0.098 0.120 4 MOD
  7  0.09  42 39.47   13E13.95  9.12  33 0.16 -0.006  0.011  0.004  0.031 0.033 4 MOD
  8  0.09  42 39.48   13E13.95  9.15  33 0.16 -0.001  0.003  0.004 -0.001 0.005 4 MOD

              EIGENVALUES
     ( 5.994  1.036  0.764  0.343)
      EIGENVECTORS OF ADJUSTMENT                COVARIANCE             ERRORS
 OT  (-0.995 -0.022  0.005 -0.099) (   0.004   0.002  -0.001  -0.030)   0.063
 LAT (-0.008  0.539 -0.839 -0.077) (   0.002   0.055  -0.013  -0.019)   0.234
 LON (-0.019  0.842  0.539  0.031) (  -0.001  -0.013   0.042   0.007)   0.205
 Z   (-0.100  0.014 -0.082  0.992) (  -0.030  -0.019   0.007   0.300)   0.548
 ERROR ELLIPSE: <SERR AZ DIP>-<   0.55 202 85>-<   0.25  32  4>-<   0.18 122  0>
 ------------------------------------------------------------------------------------
 YEAR MO DA  --ORIGIN--  --LAT N-  --LON W--  DEPTH-M RMS   ERH   ERZ  XMAG1 FMAG1 PMAG GEOID-DEP
 2016-10-14  0008  0.09  42 39.48   13E13.95   9.15  0.16  0.25  0.55                       7.98
                                                                                          SOURCE
 NSTA NPHS  DMIN MODEL GAP ITR NFM NWR NWS NVR REMRKS-AVH  N.XMG-XMMAD-T   N.FMG-FMMAD-T  L F X
   24   37   3.3  MODS  51   8   0  33  18  37                                                 

 XMAG2-N.XMG2-XMMAD-T-S  FMAG2-N.FMG2-FMMAD-T-S  PREF.MAG-N.PMAG-PRMAD-T DEPDAT NS ZT TYP
                                                                           1171  5  M CRH

 EXTERNAL MAG= 0.53  NUMBER READINGS=    0  TYPE=L
 REGION=                          

 STA NET COM L CR DIST AZM  AN P/S WT   SEC (TOBS -TCAL -DLY  =RES)  WT   SR  INFO  CAL  DUR-W-FMAG-T -AMP-U-PER-W-XMAG-T DE
 ED24 YR 001       3.3 266 158  P      1.76  1.67  1.66 0.00  0.01  1.06     0.061                                           
 T1299IV 001       4.9 122 148  P      1.89  1.80  1.76 0.00  0.04  1.06     0.049                                           
        S                       S      3.42  3.33  3.39 0.00 -0.06  1.06S    0.259
 T1202IV 001       5.1 353 147  P      2.12  2.03  1.78 0.00  0.25  1.06     0.061                                           
        S                       S      4.19  4.10  3.43 0.00  0.67* 0.00S    0.000
 ED03 YR 001       7.0 210 137  P      2.09  2.00  1.96 0.00  0.04  1.06     0.056                                           
        S                       S      3.67  3.58  3.77 0.00 -0.19  1.06S    0.212
 T1204IVS001       7.2  73 137  S      4.07  3.98  3.81 0.00  0.17  1.06S    0.229                                           
 SMA1 IVS001       9.0 109 129  S      4.28  4.19  4.18 0.00  0.01  1.06S    0.151                                           
 T1218IV 001       9.7 278 126  P      2.36  2.27  2.27 0.00  0.00  1.06     0.055                                           
        S                       S      4.26  4.17  4.36 0.00 -0.19  1.06S    0.159
 ED23 YR 001      10.5  25 124  P      3.04  2.95  2.37 0.00  0.58* 0.01     0.000                                           
        S                       S      5.27  5.18  4.54 0.00  0.64* 0.00S    0.000
 ED25 YR 001      11.8 123 120  P      3.11  3.02  2.54 0.00  0.48  0.34     0.004                                           
        S                       S      5.17  5.08  4.87 0.00  0.21  1.06S    0.107
 ED10 YRS001      15.2 331 111  S      6.05  5.96  5.77 0.00  0.19  1.06S    0.137                                           
 RM33 IVS001      16.6 186 109  S      6.22  6.13  6.16 0.00 -0.03  1.06S    0.169                                           
 ED11 YR 001      16.7 282 109  P      3.42  3.33  3.23 0.00  0.10  1.06     0.076                                           
        S                       S      6.17  6.08  6.17 0.00 -0.09  1.06S    0.133
 T1212IV 001      18.6 305 106  P      3.84  3.75  3.52 0.00  0.23  1.06     0.078                                           
        S                       S      6.49  6.40  6.71 0.00 -0.31  1.06S    0.128
 ED01 YR 001      18.6 219 106  P      3.76  3.67  3.52 0.00  0.15  1.06     0.105                                           
        S                       S      6.73  6.64  6.71 0.00 -0.07  1.06S    0.203
 ED07 YR 001      19.4  99 104  P      3.72  3.63  3.64 0.00 -0.01  1.06     0.071                                           
        S                       S      6.80  6.71  6.93 0.00 -0.22  1.06S    0.119
 ED20 YR 001      19.4  58 104  P      3.90  3.81  3.65 0.00  0.16  1.06     0.082                                           
        S                       S      6.89  6.80  6.95 0.00 -0.15  1.06S    0.166
 NRCA IVS001      21.8 334 102  S      7.62  7.53  7.62 0.00 -0.09  1.06S    0.151                                           
 ED05 YRS001      22.2 150 101  S      7.83  7.74  7.75 0.00 -0.01  1.06S    0.150                                           
 ED09 YR 001      22.2  44 105  P      4.12  4.03  4.08 0.00 -0.05  1.06     0.094                                           
 T1245IVS001      22.4 351 101  S      7.68  7.59  7.79 0.00 -0.20  1.06S    0.169                                           
 T1246IV 001      22.9 111 101  P      4.43  4.34  4.19 0.00  0.15  1.06     0.083                                           
        S                       S      7.81  7.72  7.95 0.00 -0.23  1.06S    0.126
 ED12 YR 001      26.6 309 101  P      5.25  5.16  4.77 0.00  0.39  0.84     0.064                                           
 ED14 YRS001      28.8 145  97  S      9.78  9.69  9.67 0.00  0.02  1.06S    0.171                                           
 TERO IV 001      30.7  97  96  P      5.32  5.23  5.42 0.00 -0.19  1.06     0.104                                           
        S                       S      9.55  9.46 10.22 0.00 -0.76* 0.00S    0.000
 ####################################################################################
  14 OCT 2016,  0:08  SEQUENCE NO.   14, ID NO.         0
                                                        ADJUSTMENTS (KM)
  I ORIGIN   LAT N     LON W     Z   NWR  RMS    DT    DLAT   DLON    DZ    RR NF MOD
  1 30.10  42 45.87   13E12.22  8.00  28 0.87  0.359 -0.217  2.844  0.000 2.852 3 MOD
 FREE DEPTH
  2 30.46  42 45.75   13E10.13  8.00  28 0.46 -0.252  0.048  0.733  3.436 3.514 4 MOD
  3 30.21  42 45.78   13E 9.59 11.44  28 0.45  0.046  0.008 -0.021 -1.091 1.092 4 MOD
 BEGIN MAIN DISTANCE WEIGHTING
 BEGIN RESIDUAL WEIGHTING
  4 30.25  42 45.78   13E 9.61 10.34  28 0.36  0.018  0.002 -0.155 -0.119 0.195 4 MOD
  5 30.27  42 45.78   13E 9.72 10.23  28 0.36  0.026  0.060 -0.174 -0.172 0.252 4 MOD
  6 30.30  42 45.82   13E 9.85 10.05  28 0.35  0.002  0.150 -0.166 -0.020 0.225 4 MOD
  7 30.30  42 45.90   13E 9.97 10.03  27 0.34 -0.020  0.227 -0.148  0.066 0.279 4 MOD
  8 30.28  42 46.02   13E10.08 10.10  27 0.33 -0.017  0.198 -0.128  0.033 0.239 4 MOD
  9 30.26  42 46.13   13E10.17 10.13  25 0.33 -0.005  0.061 -0.059  0.015 0.086 4 MOD
 10 30.26  42 46.16   13E10.22 10.15  25 0.33 -0.002  0.003 -0.019  0.026 0.032 4 MOD

              EIGENVALUES
     ( 5.622  0.856  0.677  0.241)
      EIGENVECTORS OF ADJUSTMENT                COVARIANCE             ERRORS
 OT  (-0.993 -0.051  0.018 -0.108) (   0.028  -0.019  -0.036  -0.215)   0.168
 LAT (-0.036  0.233 -0.970  0.057) (  -0.019   0.259  -0.009   0.102)   0.509
 LON (-0.059  0.960  0.240  0.133) (  -0.036  -0.009   0.200   0.245)   0.448
 Z   (-0.099 -0.149  0.026  0.984) (  -0.215   0.102   0.245   1.976)   1.406
 ERROR ELLIPSE: <SERR AZ DIP>-<   1.42 293 81>-<   0.51 193  1>-<   0.40 104  8>
 ------------------------------------------------------------------------------------
 YEAR MO DA  --ORIGIN--  --LAT N-  --LON W--  DEPTH-M RMS   ERH   ERZ  XMAG1 FMAG1 PMAG GEOID-DEP
 2016-10-14  0008 30.26  42 46.16   13E10.22  10.15  0.33  0.51  1.40                       8.94
                                                                                          SOURCE
 NSTA NPHS  DMIN MODEL GAP ITR NFM NWR NWS NVR REMRKS-AVH  N.XMG-XMMAD-T   N.FMG-FMMAD-T  L F X
   23   28   2.5  MODS  40  10   0  25  12  28                                                 

 XMAG2-N.XMG2-XMMAD-T-S  FMAG2-N.FMG2-FMMAD-T-S  PREF.MAG-N.PMAG-PRMAD-T DEPDAT NS ZT TYP
                                                                           1206  5  M CRH

 EXTERNAL MAG= 0.66  NUMBER READINGS=    0  TYPE=L
 REGION=                          

 STA NET COM L CR DIST AZM  AN P/S WT   SEC (TOBS -TCAL -DLY  =RES)  WT   SR  INFO  CAL  DUR-W-FMAG-T -AMP-U-PER-W-XMAG-T DE
 ED10 YR 001       2.5 290 165  P     32.52  2.26  1.77 0.00  0.49  1.12     0.097                                           
 T1214IV 001       3.3 109 160  P     32.10  1.84  1.81 0.00  0.03  1.12     0.094                                           
 NRCA IV 001       8.5 328 137  P     32.47  2.21  2.24 0.00 -0.03  1.12     0.101                                           
 T1202IV 001       8.6 148 137  P     32.42  2.16  2.25 0.00 -0.09  1.12     0.058                                           
 T1245IVS001       9.8   8 130  S     34.92  4.66  4.56 0.00  0.10  1.12S    0.333                                           
 ED23 YR 001      10.0 106 130  P     33.05  2.79  2.41 0.00  0.38  1.12     0.051                                           
        S                       S     34.93  4.67  4.61 0.00  0.06  1.12S    0.341
 T1212IVS001      10.5 260 128  S     34.39  4.13  4.72 0.00 -0.59* 1.11S    0.233                                           
 T1218IV 001      11.9 203 124  P     33.20  2.94  2.65 0.00  0.29  1.12     0.086                                           
        S                       S     35.20  4.94  5.06 0.00 -0.12  1.12S    0.257
 ED24 YR 001      12.8 171 124  P     32.98  2.72  2.76 0.00 -0.04  1.12     0.069                                           
 ED11 YR 001      14.4 232 121  P     33.83  3.57  2.98 0.00  0.59* 1.11     0.122                                           
 ED12 YR 001      16.3 285 114  P     33.51  3.25  3.25 0.00 -0.00  1.12     0.176                                           
        S                       S     35.79  5.53  6.19 0.00 -0.66* 1.04S    0.214
 ED03 YR 001      18.5 174 113  P     34.05  3.79  3.58 0.00  0.21  1.12     0.103                                           
 MMO1 IV 001      19.3  41 109  P     34.95  4.69  3.69 0.00  1.00* 0.07     0.000                                           
        S                       S     38.33  8.07  7.00 0.00  1.07* 0.01S    0.000
 ED09 YRS001      21.0  80 107  S     37.97  7.71  7.48 0.00  0.23  1.12S    0.154                                           
 ED20 YR 001      21.8  95 106  P     34.64  4.38  4.07 0.00  0.31  1.12     0.083                                           
        S                       S     37.75  7.49  7.71 0.00 -0.22  1.12S    0.132
 T1241IVS001      23.4  65 104  S     37.85  7.59  8.16 0.00 -0.57* 1.12S    0.191                                           
 ED25 YRS001      24.1 141 104  S     38.83  8.57  8.35 0.00  0.22  1.12S    0.149                                           
 ED17 YR 001      24.6  27 106  P     35.07  4.81  4.49 0.00  0.32  1.12     0.199                                           
 T1215IVS001      25.0 279 103  S     37.81  7.55  8.60 0.00 -1.05* 0.02S    0.000                                           
 ED18 YR 001      25.4  13 105  P     34.78  4.52  4.62 0.00 -0.10  1.12     0.229                                           
 T1246IVS001      33.6 127  98  S     40.91 10.65 11.09 0.00 -0.44  1.12S    0.151                                           
 ED05 YRS001      35.5 153  97  S     41.80 11.54 11.66 0.00 -0.12  1.12S    0.209                                           
 TERO IVS001      39.1 114  96  S     42.52 12.26 12.70 0.00 -0.44  1.12S    0.154                                           
 ####################################################################################
  14 OCT 2016,  0:09  SEQUENCE NO.   15, ID NO.         0
                                                        ADJUSTMENTS (KM)
  I ORIGIN   LAT N     LON W     Z   NWR  RMS    DT    DLAT   DLON    DZ    RR NF MOD
  1  2.95  42 40.86   13E18.70  8.00  17 0.60  0.466  0.451 -1.146  0.000 1.231 3 MOD
 FREE DEPTH
  2  3.42  42 41.10   13E19.54  8.00  17 0.19 -0.342  0.087  0.175  2.980 2.986 4 MOD
  3  3.07  42 41.15   13E19.41 10.98  17 0.14 -0.038 -0.023 -0.023 -0.101 0.107 4 MOD
 BEGIN MAIN DISTANCE WEIGHTING
 BEGIN RESIDUAL WEIGHTING
  4  3.04  42 41.14   13E19.43 10.88  17 0.11  0.021  0.103 -0.129 -0.133 0.212 4 MOD
  5  3.06  42 41.19   13E19.52 10.74  17 0.10  0.038  0.098 -0.142 -0.215 0.276 4 MOD
  6  3.09  42 41.25   13E19.63 10.53  16 0.09  0.011  0.034 -0.053 -0.060 0.086 4 MOD
  7  3.11  42 41.26   13E19.67 10.47  16 0.09  0.006  0.019 -0.023 -0.041 0.051 4 MOD
  8  3.11  42 41.27   13E19.68 10.43  16 0.09 -0.004 -0.006  0.002  0.024 0.025 4 MOD

              EIGENVALUES
     ( 4.305  0.568  0.460  0.190)
      EIGENVECTORS OF ADJUSTMENT                COVARIANCE             ERRORS
 OT  (-0.986  0.003 -0.060 -0.155) (   0.013  -0.001  -0.011  -0.073)   0.113
 LAT (-0.049 -0.386  0.920 -0.046) (  -0.001   0.079  -0.013  -0.017)   0.281
 LON (-0.007 -0.912 -0.374  0.169) (  -0.011  -0.013   0.070   0.069)   0.265
 Z   (-0.159  0.141  0.099  0.972) (  -0.073  -0.017   0.069   0.458)   0.677
 ERROR ELLIPSE: <SERR AZ DIP>-<   0.69 255 79>-<   0.29  22  6>-<   0.23 112  8>
 ------------------------------------------------------------------------------------
 YEAR MO DA  --ORIGIN--  --LAT N-  --LON W--  DEPTH-M RMS   ERH   ERZ  XMAG1 FMAG1 PMAG GEOID-DEP
 2016-10-14  0009  3.11  42 41.27   13E19.68  10.43  0.09  0.28  0.68                       9.25
                                                                                          SOURCE
 NSTA NPHS  DMIN MODEL GAP ITR NFM NWR NWS NVR REMRKS-AVH  N.XMG-XMMAD-T   N.FMG-FMMAD-T  L F X
   12   17   1.6  MODS  68   8   0  16   9  17                                                 

 XMAG2-N.XMG2-XMMAD-T-S  FMAG2-N.FMG2-FMMAD-T-S  PREF.MAG-N.PMAG-PRMAD-T DEPDAT NS ZT TYP
                                                                           1179  5  M CRH

 EXTERNAL MAG= 0.36  NUMBER READINGS=    0  TYPE=L
 REGION=                          

 STA NET COM L CR DIST AZM  AN P/S WT   SEC (TOBS -TCAL -DLY  =RES)  WT   SR  INFO  CAL  DUR-W-FMAG-T -AMP-U-PER-W-XMAG-T DE
 T1204IV 001       1.6 216 170  P      4.95  1.84  1.79 0.00  0.05  1.06     0.068                                           
 SMA1 IV 001       6.4 174 145  P      5.17  2.06  2.07 0.00 -0.01  1.06     0.091                                           
        S                       S      7.03  3.92  3.95 0.00 -0.03  1.06S    0.312
 ED23 YRS001       7.0 332 142  S      7.29  4.18  4.06 0.00  0.12  1.06S    0.418                                           
 T1299IV 001       7.1 213 142  P      5.23  2.12  2.13 0.00 -0.01  1.06     0.130                                           
        S                       S      7.12  4.01  4.07 0.00 -0.06  1.06S    0.253
 T1202IV 001       8.6 282 136  P      5.40  2.29  2.29 0.00  0.00  1.06     0.216                                           
        S                       S      7.57  4.46  4.37 0.00  0.09  1.06S    0.259
 ED25 YR 001      10.1 168 130  P      5.61  2.50  2.46 0.00  0.04  1.06     0.157                                           
        S                       S      7.91  4.80  4.68 0.00  0.12  1.06S    0.232
 ED20 YRS001      11.1  52 127  S      7.93  4.82  4.91 0.00 -0.09  1.06S    0.501                                           
 ED24 YRS001      11.7 253 126  S      7.98  4.87  5.05 0.00 -0.18  1.06S    0.298                                           
 ED07 YR 001      13.0 120 122  P      6.08  2.97  2.83 0.00  0.14  1.06     0.186                                           
        S                       S      8.40  5.29  5.38 0.00 -0.09  1.06S    0.256
 ED03 YRS001      14.7 231 118  S      8.49  5.38  5.80 0.00 -0.42  0.02S    0.000                                           
 ED09 YR 001      14.7  32 121  P      6.09  2.98  3.05 0.00 -0.07  1.06     0.340                                           
 T1246IVS001      17.8 130 112  S      9.74  6.63  6.63 0.00  0.00  1.06S    0.276                                           
 ####################################################################################
