  14 OCT 2016,  0:16  SEQUENCE NO.   21, ID NO.         0
                                                        ADJUSTMENTS (KM)
  I ORIGIN   LAT N     LON W     Z   NWR  RMS    DT    DLAT   DLON    DZ    RR NF MOD
  1 15.18  42 54.26   13E19.31  8.00  13 1.12  0.634 -5.024  5.433  0.000 7.400 3 MOD
  2 15.81  42 51.55   13E15.31  8.00  13 0.60 -0.364  0.323 -0.730  0.000 0.798 3 MOD
 FREE DEPTH
  3 15.45  42 51.72   13E15.85  8.00  13 0.43  0.308 -0.307  0.407 -3.195 3.235 4 MOD
 BEGIN MAIN DISTANCE WEIGHTING
 BEGIN RESIDUAL WEIGHTING
  4 15.76  42 51.56   13E15.55  4.80  12 0.27 -0.010  0.095  0.135 -0.762 0.780 4 MOD
  5 15.75  42 51.61   13E15.45  4.04  12 0.26 -0.009 -0.018  0.089 -0.248 0.265 4 MOD
  6 15.74  42 51.60   13E15.38  3.79  12 0.26 -0.007 -0.032  0.073 -0.067 0.104 4 MOD
  7 15.73  42 51.58   13E15.33  3.73  12 0.27 -0.009 -0.044  0.058 -0.031 0.080 4 MOD

              EIGENVALUES
     ( 3.471  0.778  0.606  0.120)
      EIGENVECTORS OF ADJUSTMENT                COVARIANCE             ERRORS
 OT  (-0.999  0.001 -0.019 -0.045) (   0.018  -0.003   0.029  -0.247)   0.134
 LAT (-0.002  0.991  0.132  0.011) (  -0.003   0.135   0.003   0.059)   0.367
 LON (-0.013 -0.129  0.982 -0.135) (   0.029   0.003   0.314  -0.708)   0.560
 Z   (-0.047 -0.028  0.132  0.990) (  -0.247   0.059  -0.708   5.411)   2.326
 ERROR ELLIPSE: <SERR AZ DIP>-<   2.35  86 82>-<   0.47 278  7>-<   0.36 187  1>
 ------------------------------------------------------------------------------------
 YEAR MO DA  --ORIGIN--  --LAT N-  --LON W--  DEPTH-M RMS   ERH   ERZ  XMAG1 FMAG1 PMAG GEOID-DEP
 2016-10-14  0016 15.73  42 51.58   13E15.33   3.73  0.27  0.46  2.33                       2.61
                                                                                          SOURCE
 NSTA NPHS  DMIN MODEL GAP ITR NFM NWR NWS NVR REMRKS-AVH  N.XMG-XMMAD-T   N.FMG-FMMAD-T  L F X
   10   13   4.9  MODS  80   7   0  12   9  13                                                 

 XMAG2-N.XMG2-XMMAD-T-S  FMAG2-N.FMG2-FMMAD-T-S  PREF.MAG-N.PMAG-PRMAD-T DEPDAT NS ZT TYP
                                                                           1115  5  M CRH

 EXTERNAL MAG= 0.35  NUMBER READINGS=    0  TYPE=L
 REGION=                          

 STA NET COM L CR DIST AZM  AN P/S WT   SEC (TOBS -TCAL -DLY  =RES)  WT   SR  INFO  CAL  DUR-W-FMAG-T -AMP-U-PER-W-XMAG-T DE
 ED16 YRS001       4.9 120 120  S     17.93  2.20  2.16 0.00  0.04  1.02S    0.819                                           
 T1245IV 001       5.5 267 119  P     17.96  2.23  1.18 0.00  1.05* 0.00     0.000                                           
 MMO1 IV 001       7.3  52 107  P     17.18  1.45  1.46 0.00 -0.01  1.02     0.135                                           
        S                       S     18.64  2.91  2.87 0.00  0.04  1.02S    0.307
 ED19 YR 001      11.6 306  97  P     17.85  2.12  2.16 0.00 -0.04  1.02     0.168                                           
        S                       S     19.83  4.10  4.23 0.00 -0.13  1.02S    0.423
 ED17 YRS001      12.6  20  96  S     20.23  4.50  4.54 0.00 -0.04  1.02S    0.318                                           
 ED10 YR 001      13.1 226  95  P     17.92  2.19  2.41 0.00 -0.22  1.02     0.157                                           
        S                       S     19.93  4.20  4.71 0.00 -0.51* 0.89S    0.269
 ED18 YRS001      14.7 357  94  S     21.26  5.53  5.21 0.00  0.32  1.02S    0.298                                           
 T1202IVS001      17.5 189  93  S     22.16  6.43  6.14 0.00  0.29  1.02S    0.279                                           
 ED20 YRS001      19.2 129  93  S     22.01  6.28  6.67 0.00 -0.39  1.02S    0.568                                           
 ED24 YRS001      23.2 193  92  S     24.20  8.47  7.98 0.00  0.49  0.94S    0.251                                           
 ####################################################################################
  14 OCT 2016,  0:17  SEQUENCE NO.   22, ID NO.         0
                                                        ADJUSTMENTS (KM)
  I ORIGIN   LAT N     LON W     Z   NWR  RMS    DT    DLAT   DLON    DZ    RR NF MOD
  1  9.04  42 51.69   13E10.98  8.00  38 1.27  1.034 -1.672  1.920  0.000 2.546 3 MOD
 FREE DEPTH
  2 10.07  42 50.79   13E 9.57  8.00  38 0.41  0.264 -0.338 -0.096 -2.988 3.009 4 MOD
  3 10.34  42 50.61   13E 9.64  5.01  38 0.40 -0.109  0.152  0.106  1.529 1.540 4 MOD
 BEGIN MAIN DISTANCE WEIGHTING
 BEGIN RESIDUAL WEIGHTING
  4 10.23  42 50.69   13E 9.56  6.54  36 0.32  0.005  0.546 -0.258  0.027 0.604 4 MOD
  5 10.23  42 50.98   13E 9.75  6.57  36 0.27 -0.025  0.376  0.026  0.207 0.430 4 MOD
  6 10.21  42 51.18   13E 9.73  6.78  35 0.25  0.004  0.085  0.031 -0.124 0.153 4 MOD
  7 10.21  42 51.23   13E 9.71  6.65  35 0.24  0.004  0.044  0.067 -0.012 0.080 4 MOD
  8 10.22  42 51.25   13E 9.66  6.64  35 0.23  0.005  0.022  0.036 -0.065 0.077 4 MOD
  9 10.22  42 51.27   13E 9.63  6.57  34 0.23  0.004  0.008  0.034 -0.062 0.071 4 MOD
 10 10.22  42 51.27   13E 9.61  6.51  34 0.22  0.004  0.004  0.034 -0.058 0.067 4 MOD
 11 10.23  42 51.27   13E 9.58  6.46  34 0.22  0.005 -0.005  0.024 -0.060 0.065 4 MOD
 12 10.23  42 51.27   13E 9.56  6.40  35 0.22  0.033 -0.097  0.008 -0.547 0.556 4 MOD
 13 10.27  42 51.22   13E 9.56  5.85  33 0.21  0.018 -0.063  0.012 -0.267 0.275 4 MOD
 14 10.28  42 51.18   13E 9.55  5.58  33 0.21  0.007 -0.021  0.034 -0.071 0.082 4 MOD
 15 10.29  42 51.17   13E 9.53  5.51  33 0.21  0.003 -0.006  0.029 -0.031 0.042 4 MOD
 16 10.29  42 51.17   13E 9.50  5.48  33 0.21  0.002 -0.008  0.027 -0.016 0.032 4 MOD

              EIGENVALUES
     ( 5.783  0.926  0.803  0.278)
      EIGENVECTORS OF ADJUSTMENT                COVARIANCE             ERRORS
 OT  (-0.998 -0.022  0.021  0.058) (   0.004  -0.007  -0.005  -0.039)   0.063
 LAT (-0.032  0.987 -0.041 -0.151) (  -0.007   0.077   0.009   0.093)   0.277
 LON (-0.024 -0.055 -0.995 -0.082) (  -0.005   0.009   0.087   0.049)   0.295
 Z   (-0.052 -0.148  0.090 -0.983) (  -0.039   0.093   0.049   0.672)   0.820
 ERROR ELLIPSE: <SERR AZ DIP>-<   0.83 331 80>-<   0.29  93  5>-<   0.25 183  8>
 ------------------------------------------------------------------------------------
 YEAR MO DA  --ORIGIN--  --LAT N-  --LON W--  DEPTH-M RMS   ERH   ERZ  XMAG1 FMAG1 PMAG GEOID-DEP
 2016-10-14  0017 10.29  42 51.17   13E 9.50   5.48  0.21  0.29  0.82                       4.58
                                                                                          SOURCE
 NSTA NPHS  DMIN MODEL GAP ITR NFM NWR NWS NVR REMRKS-AVH  N.XMG-XMMAD-T   N.FMG-FMMAD-T  L F X
   26   38   2.5  MODS  39  16   0  33  11  38                                                 

 XMAG2-N.XMG2-XMMAD-T-S  FMAG2-N.FMG2-FMMAD-T-S  PREF.MAG-N.PMAG-PRMAD-T DEPDAT NS ZT TYP
                                                                            903  5  M CRH

 EXTERNAL MAG= 0.90  NUMBER READINGS=    0  TYPE=L
 REGION=                          

 STA NET COM L CR DIST AZM  AN P/S WT   SEC (TOBS -TCAL -DLY  =RES)  WT   SR  INFO  CAL  DUR-W-FMAG-T -AMP-U-PER-W-XMAG-T DE
 T1245IV 001       2.5  80 154  P     11.04  0.75  1.05 0.00 -0.30  1.02     0.164                                           
 NRCA IV 001       4.2 240 140  P     11.15  0.86  1.21 0.00 -0.35  1.02     0.125                                           
 MC2  IV 001       7.0  20 124  P     11.90  1.61  1.55 0.00  0.06  1.02     0.072                                           
        S                       S     13.64  3.35  3.03 0.00  0.32  1.02S    0.256
 ED19 YR 001       7.6 349 123  P     11.86  1.57  1.63 0.00 -0.06  1.02     0.074                                           
 ED10 YR 001       8.5 190 119  P     11.85  1.56  1.77 0.00 -0.21  1.02     0.076                                           
 T1214IV 001      11.2 158 112  P     12.55  2.26  2.17 0.00  0.09  1.02     0.062                                           
 T1216IV 001      12.1 291 108  P     13.02  2.73  2.32 0.00  0.41  1.02     0.094                                           
        S                       S     14.59  4.30  4.53 0.00 -0.23  1.02S    0.216
 ED16 YR 001      12.3  98 110  P     12.96  2.67  2.34 0.00  0.33  1.02     0.063                                           
 T1212IV 001      14.6 220 104  P     13.01  2.72  2.72 0.00 -0.00  1.02     0.068                                           
        S                       S     15.44  5.15  5.29 0.00 -0.14  1.02S    0.189
 MMO1 IV 001      14.7  69 104  P     13.04  2.75  2.73 0.00  0.02  1.02     0.067                                           
        S                       S     15.59  5.30  5.32 0.00 -0.02  1.02S    0.182
 ED12 YR 001      15.7 251 104  P     13.21  2.92  2.90 0.00  0.02  1.02     0.087                                           
 T1202IV 001      17.5 161 101  P     13.63  3.34  3.18 0.00  0.16  1.02     0.052                                           
        S                       S     16.71  6.42  6.19 0.00  0.23  1.02S    0.175
 ED17 YR 001      17.5  44 101  P     13.47  3.18  3.20 0.00 -0.02  1.02     0.082                                           
        S                       S     17.63  7.34  6.22 0.00  1.12* 0.00S    0.000
 ED11 YR 001      20.9 210  99  P     14.26  3.97  3.76 0.00  0.21  1.02     0.067                                           
        S                       S     16.44  6.15  7.29 0.00 -1.14* 0.00S    0.000
 ED21 YR 001      21.8  25  98  P     14.19  3.90  3.90 0.00 -0.00  1.02     0.102                                           
        S                       S     17.78  7.49  7.56 0.00 -0.07  1.02S    0.196
 ED24 YR 001      22.1 172  99  P     14.40  4.11  3.95 0.00  0.16  1.02     0.054                                           
 ED09 YR 001      22.5 105  98  P     14.32  4.03  4.01 0.00  0.02  1.02     0.064                                           
        S                       S     17.49  7.20  7.78 0.00 -0.58* 0.70S    0.082
 T1215IV 001      24.4 257  98  P     14.59  4.30  4.33 0.00 -0.03  1.02     0.109                                           
 ED20 YR 001      25.4 116  97  P     14.64  4.35  4.51 0.00 -0.16  1.02     0.062                                           
        S                       S     18.04  7.75  8.72 0.00 -0.97* 0.00S    0.000
 CESI IVS001      26.7 310  96  S     19.36  9.07  9.14 0.00 -0.07  1.02S    0.282                                           
 GUMA IVS001      27.4  31  96  S     20.28  9.99  9.36 0.00  0.63* 0.55S    0.060                                           
 ED03 YR 001      27.9 174  96  P     15.53  5.24  4.92 0.00  0.32  1.02     0.056                                           
        S                       S     19.88  9.59  9.51 0.00  0.08  1.02S    0.143
 ED07 YR 001      35.4 134  95  P     16.43  6.14  6.18 0.00 -0.04  1.02     0.060                                           
 T1246IVS001      40.6 137  65  S     22.60 12.31 13.28 0.00 -0.97* 0.00S    0.000                                           
 ED05 YRS001      44.4 157  65  S     24.62 14.33 14.40 0.00 -0.07  1.02S    0.392                                           
 TERO IV 001      44.5 124  65  P     17.70  7.41  7.70 0.00 -0.29  1.02     0.150                                           
        S                       S     23.81 13.52 14.45 0.00 -0.93* 0.00S    0.000
 ####################################################################################
  14 OCT 2016,  0:18  SEQUENCE NO.   23, ID NO.         0
                                                        ADJUSTMENTS (KM)
  I ORIGIN   LAT N     LON W     Z   NWR  RMS    DT    DLAT   DLON    DZ    RR NF MOD
  1 13.10  42 54.26   13E19.31  8.00  15 1.24  0.558 -1.441  7.836  0.000 7.967 3 MOD
  2 13.66  42 53.48   13E13.54  8.00  15 0.63 -0.471  0.177 -0.494  0.000 0.525 3 MOD
 FREE DEPTH
  3 13.19  42 53.58   13E13.90  8.00  15 0.33  0.362  0.048 -0.241 -3.201 3.210 4 MOD
 BEGIN MAIN DISTANCE WEIGHTING
 BEGIN RESIDUAL WEIGHTING
  4 13.55  42 53.60   13E14.08  4.80  14 0.16  0.004 -0.147 -0.364  0.091 0.403 4 MOD
  5 13.55  42 53.53   13E14.35  4.89  14 0.14 -0.004 -0.022 -0.050  0.060 0.081 4 MOD
  6 13.55  42 53.51   13E14.38  4.95  14 0.14 -0.002  0.000 -0.008  0.018 0.019 4 MOD
  7 13.55  42 53.51   13E14.39  4.97  14 0.14  0.001  0.000  0.000 -0.023 0.023 4 MOD

              EIGENVALUES
     ( 3.763  0.760  0.671  0.197)
      EIGENVECTORS OF ADJUSTMENT                COVARIANCE             ERRORS
 OT  (-0.994 -0.025 -0.012 -0.104) (   0.010   0.003  -0.003  -0.077)   0.101
 LAT ( 0.030 -0.856 -0.516 -0.020) (   0.003   0.054   0.006  -0.014)   0.232
 LON (-0.006  0.516 -0.856  0.034) (  -0.003   0.006   0.061   0.023)   0.247
 Z   (-0.103 -0.038  0.017  0.994) (  -0.077  -0.014   0.023   0.733)   0.856
 ERROR ELLIPSE: <SERR AZ DIP>-<   0.86 240 87>-<   0.25 122  1>-<   0.22  32  1>
 ------------------------------------------------------------------------------------
 YEAR MO DA  --ORIGIN--  --LAT N-  --LON W--  DEPTH-M RMS   ERH   ERZ  XMAG1 FMAG1 PMAG GEOID-DEP
 2016-10-14  0018 13.55  42 53.51   13E14.39   4.97  0.14  0.25  0.86                       4.02
                                                                                          SOURCE
 NSTA NPHS  DMIN MODEL GAP ITR NFM NWR NWS NVR REMRKS-AVH  N.XMG-XMMAD-T   N.FMG-FMMAD-T  L F X
   12   15   4.7  MODS  76   7   0  14  11  15                                                 

 XMAG2-N.XMG2-XMMAD-T-S  FMAG2-N.FMG2-FMMAD-T-S  PREF.MAG-N.PMAG-PRMAD-T DEPDAT NS ZT TYP
                                                                            952  5  M CRH

 EXTERNAL MAG= 0.33  NUMBER READINGS=    0  TYPE=L
 REGION=                          

 STA NET COM L CR DIST AZM  AN P/S WT   SEC (TOBS -TCAL -DLY  =RES)  WT   SR  INFO  CAL  DUR-W-FMAG-T -AMP-U-PER-W-XMAG-T DE
 MC2  IVS001       4.7 298 133  S     16.05  2.50  2.35 0.00  0.15  1.00S    0.508                                           
 T1245IVS001       5.8 228 126  S     15.93  2.38  2.62 0.00 -0.24  1.00S    0.369                                           
 MMO1 IV 001       7.2  83 119  P     15.10  1.55  1.53 0.00  0.02  1.00     0.114                                           
        S                       S     16.46  2.91  2.99 0.00 -0.08  1.00S    0.334
 ED16 YRS001       8.2 137 115  S     17.09  3.54  3.29 0.00  0.25  0.99S    0.309                                           
 ED19 YR 001       8.8 291 113  P     15.50  1.95  1.77 0.00  0.18  1.00     0.151                                           
        S                       S     16.13  2.58  3.46 0.00 -0.88* 0.00S    0.000
 ED17 YR 001       9.9  34 110  P     15.51  1.96  1.95 0.00  0.01  1.00     0.131                                           
        S                       S     17.12  3.57  3.81 0.00 -0.24  1.00S    0.211
 ED18 YRS001      11.1   1 107  S     17.72  4.17  4.15 0.00  0.02  1.00S    0.215                                           
 NRCA IVS001      12.1 238 105  S     18.07  4.52  4.48 0.00  0.04  1.00S    0.291                                           
 ED22 YRS001      14.5  28 102  S     18.82  5.27  5.23 0.00  0.04  1.00S    0.231                                           
 ED10 YRS001      15.1 213 101  S     18.82  5.27  5.41 0.00 -0.14  1.00S    0.340                                           
 FDMO IVS001      20.3 323  97  S     20.59  7.04  7.07 0.00 -0.03  1.00S    0.367                                           
 ED20 YRS001      22.5 134  96  S     21.31  7.76  7.78 0.00 -0.02  1.00S    0.422                                           
 ####################################################################################
