  14 OCT 2016,  0:07  SEQUENCE NO.   22, ID NO.         0
                                                        ADJUSTMENTS (KM)
  I ORIGIN   LAT N     LON W     Z   NWR  RMS    DT    DLAT   DLON    DZ    RR NF MOD
  1 24.95  42 46.92   13E 8.17  8.00  11 1.28  0.930 -2.552  0.877  0.000 2.698 3 MOD
 FREE DEPTH
 AIRQUAKE PREVENTED
  2 25.88  42 45.54   13E 7.53  8.00  11 0.72  0.547 -0.071 -0.338 -4.000 4.015 4 MOD
  3 26.43  42 45.50   13E 7.77  4.00  11 0.46  0.339  0.013 -0.228 -3.958 3.965 4 MOD
 BEGIN MAIN DISTANCE WEIGHTING
 BEGIN RESIDUAL WEIGHTING
 AIRQUAKE PREVENTED
  4 26.77  42 45.51   13E 7.94  0.04  11 0.22 -0.002 -0.001 -0.001 -0.021 0.021 4 MOD
 AIRQUAKE PREVENTED
  5 26.76  42 45.51   13E 7.94  0.02  11 0.21 -0.001 -0.000 -0.001 -0.010 0.010 4 MOD

              EIGENVALUES
     ( 3.511  0.774  0.745  0.167)
      EIGENVECTORS OF ADJUSTMENT                COVARIANCE             ERRORS
 OT  (-0.994  0.002 -0.107 -0.027) (   0.007   0.013   0.008   0.052)   0.084
 LAT ( 0.108 -0.086 -0.989 -0.054) (   0.013   0.103   0.015   0.100)   0.321
 LON ( 0.014  0.987 -0.076 -0.141) (   0.008   0.015   0.129   0.261)   0.359
 Z   ( 0.019 -0.137  0.068 -0.988) (   0.052   0.100   0.261   1.916)   1.384
 ERROR ELLIPSE: <SERR AZ DIP>-<   1.40 291 81>-<   0.31 176  3>-<   0.30  86  7>
 ------------------------------------------------------------------------------------
 YEAR MO DA  --ORIGIN--  --LAT N-  --LON W--  DEPTH-M RMS   ERH   ERZ  XMAG1 FMAG1 PMAG GEOID-DEP
 2016-10-14  0007 26.76  42 45.51   13E 7.94   0.02  0.21  0.31  1.38                      -1.11
                                                                                          SOURCE
 NSTA NPHS  DMIN MODEL GAP ITR NFM NWR NWS NVR REMRKS-AVH  N.XMG-XMMAD-T   N.FMG-FMMAD-T  L F X
    8   11   2.2  MODS 108   5   0  11   8  11      #                                          

 XMAG2-N.XMG2-XMMAD-T-S  FMAG2-N.FMG2-FMMAD-T-S  PREF.MAG-N.PMAG-PRMAD-T DEPDAT NS ZT TYP
                                                                           1130  5  M CRH
 REGION=                          

 STA NET COM L CR DIST AZM  AN P/S WT   SEC (TOBS -TCAL -DLY  =RES)  WT   SR  INFO  CAL  DUR-W-FMAG-T -AMP-U-PER-W-XMAG-T DE
 ED10 YR 001       2.2  19  90  P     26.95  0.19  0.41-0.08 -0.14  1.15     0.169                                           
        S                       S     27.49  0.73  0.79-0.19  0.13  1.15S    0.310
 T1214IV 001       6.2  88  90  P     27.31  0.55  1.17-0.01 -0.61* 0.55     0.082                                           
        S                       S     28.30  1.54  2.27-0.16 -0.57* 0.11S    0.006
 T1212IV 001       7.2 264  90  P     27.97  1.21  1.36 0.03 -0.18  1.15     0.211                                           
        S                       S     29.32  2.56  2.62-0.02 -0.04  1.15S    0.443
 NRCA IVS001       8.5 350  90  S     29.43  2.67  3.07-0.23 -0.17  1.15S    0.266                                           
 T1245IVS001      11.8  22  90  S     30.79  4.03  4.28 0.12 -0.37  1.15S    0.321                                           
 ED24 YRS001      12.4 156  90  S     31.05  4.29  4.52 0.05 -0.28  1.15S    0.811                                           
 ED12 YRS001      13.8 293  90  S     31.63  4.87  5.00-0.01 -0.12  1.15S    0.375                                           
 ED20 YRS001      24.8  92  59  S     35.68  8.92  8.87-0.36  0.41  1.15S    0.999                                           
 ####################################################################################
  14 OCT 2016,  0:08  SEQUENCE NO.   23, ID NO.         0
                                                        ADJUSTMENTS (KM)
  I ORIGIN   LAT N     LON W     Z   NWR  RMS    DT    DLAT   DLON    DZ    RR NF MOD
  1 -0.26  42 39.64   13E11.24  8.00  51 0.83  0.511  0.255 -3.340  0.000 3.350 3 MOD
 FREE DEPTH
  2  0.25  42 39.78   13E13.69  8.00  51 0.37 -0.134 -0.029 -0.442  1.972 2.021 4 MOD
  3  0.12  42 39.76   13E14.01  9.97  51 0.34 -0.062  0.057 -0.078  0.357 0.370 4 MOD
 BEGIN MAIN DISTANCE WEIGHTING
 BEGIN RESIDUAL WEIGHTING
  4  0.05  42 39.79   13E14.07 10.33  48 0.18  0.114 -0.573  0.107 -0.750 0.950 4 MOD
  5  0.17  42 39.48   13E13.99  9.58  48 0.15  0.032 -0.112  0.036 -0.368 0.386 4 MOD
  6  0.20  42 39.42   13E13.97  9.21  48 0.15  0.019 -0.050  0.027 -0.238 0.245 4 MOD
  7  0.22  42 39.40   13E13.95  8.97  48 0.15  0.009 -0.020  0.023 -0.092 0.097 4 MOD
  8  0.23  42 39.39   13E13.93  8.88  47 0.15  0.005 -0.008  0.011 -0.046 0.048 4 MOD
  9  0.23  42 39.38   13E13.92  8.84  47 0.15 -0.000 -0.009  0.005  0.009 0.014 4 MOD
 10  0.23  42 39.38   13E13.92  8.84  47 0.14  0.002 -0.004  0.010 -0.012 0.016 4 MOD

              EIGENVALUES
     ( 7.030  1.167  0.913  0.418)
      EIGENVECTORS OF ADJUSTMENT                COVARIANCE             ERRORS
 OT  (-0.996  0.014 -0.018 -0.081) (   0.002   0.001   0.000  -0.014)   0.042
 LAT ( 0.026  0.408 -0.912 -0.040) (   0.001   0.035  -0.005  -0.006)   0.187
 LON ( 0.007  0.912  0.409 -0.019) (   0.000  -0.005   0.025  -0.003)   0.159
 Z   (-0.080  0.036 -0.031  0.996) (  -0.014  -0.006  -0.003   0.176)   0.420
 ERROR ELLIPSE: <SERR AZ DIP>-<   0.42 154 87>-<   0.19  24  1>-<   0.15 294  1>
 ------------------------------------------------------------------------------------
 YEAR MO DA  --ORIGIN--  --LAT N-  --LON W--  DEPTH-M RMS   ERH   ERZ  XMAG1 FMAG1 PMAG GEOID-DEP
 2016-10-14  0008  0.23  42 39.38   13E13.92   8.84  0.14  0.19  0.42                       7.67
                                                                                          SOURCE
 NSTA NPHS  DMIN MODEL GAP ITR NFM NWR NWS NVR REMRKS-AVH  N.XMG-XMMAD-T   N.FMG-FMMAD-T  L F X
   31   51   3.3  MODS  38  10   0  47  27  51                                                 

 XMAG2-N.XMG2-XMMAD-T-S  FMAG2-N.FMG2-FMMAD-T-S  PREF.MAG-N.PMAG-PRMAD-T DEPDAT NS ZT TYP
                                                                           1171  5  M CRH

 EXTERNAL MAG= 0.45  NUMBER READINGS=    0  TYPE=L
 REGION=                          

 STA NET COM L CR DIST AZM  AN P/S WT   SEC (TOBS -TCAL -DLY  =RES)  WT   SR  INFO  CAL  DUR-W-FMAG-T -AMP-U-PER-W-XMAG-T DE
 ED24 YR 001       3.3 269 156  P      1.74  1.51  1.61 0.00 -0.10  1.04     0.051                                           
        S                       S      3.47  3.24  3.04 0.05  0.15  1.04S    0.227
 T1299IV 001       4.8 120 147  P      1.85  1.62  1.72 0.17 -0.27  1.01     0.043                                           
        S                       S      3.58  3.35  3.24 0.23 -0.12  1.04S    0.181
 T1202IV 001       5.3 354 144  P      2.10  1.87  1.76 0.12 -0.01  1.04     0.043                                           
        S                       S      4.12  3.89  3.32 0.25  0.32  0.10S    0.001
 ED03 YR 001       6.8 211 136  P      2.26  2.03  1.91 0.05  0.07  1.04     0.048                                           
        S                       S      3.67  3.44  3.59 0.01 -0.16  1.04S    0.163
 T1204IV 001       7.3  72 133  P      2.42  2.19  1.96 0.10  0.13  1.04     0.038                                           
        S                       S      3.99  3.76  3.68 0.12 -0.04  1.04S    0.136
 SMA1 IV 001       8.9 108 126  P      2.60  2.37  2.15 0.11  0.11  1.04     0.038                                           
        S                       S      4.61  4.38  4.04 0.05  0.29  1.04S    0.106
 T1218IV 001       9.7 280 123  P      2.56  2.33  2.25 0.00  0.08  1.04     0.035                                           
        S                       S      4.45  4.22  4.21 0.06 -0.05  1.04S    0.102
 ED23 YR 001      10.7  25 120  P      2.77  2.54  2.37 0.19 -0.02  1.04     0.038                                           
        S                       S      5.16  4.93  4.44 0.38  0.11  0.94S    0.092
 T1214IVS001      11.6 351 117  S      4.66  4.43  4.67-0.16 -0.08  1.04S    0.097                                           
 ED10 YRS001      15.3 332 107  S      5.85  5.62  5.63-0.19  0.18  1.04S    0.079                                           
 RM33 IVS001      16.4 186 106  S      6.32  6.09  5.92-0.02  0.19  1.04S    0.128                                           
 ED11 YR 001      16.7 283 105  P      3.43  3.20  3.22 0.08 -0.10  1.04     0.042                                           
        S                       S      6.16  5.93  5.99 0.07 -0.13  1.04S    0.076
 ED01 YR 001      18.4 219 103  P      3.51  3.28  3.48-0.06 -0.14  1.04     0.067                                           
        S                       S      6.61  6.38  6.46 0.00 -0.08  1.04S    0.130
 T1212IV 001      18.6 305 102  P      3.80  3.57  3.51 0.03  0.03  1.04     0.042                                           
        S                       S      6.67  6.44  6.52-0.02 -0.06  1.04S    0.073
 ED07 YR 001      19.4  99 101  P      3.65  3.42  3.62-0.11 -0.09  1.04     0.055                                           
        S                       S      6.71  6.48  6.72-0.15 -0.09  1.04S    0.092
 ED20 YR 001      19.6  58 101  P      3.84  3.61  3.65-0.17  0.13  1.04     0.055                                           
        S                       S      6.76  6.53  6.78-0.36  0.11  1.04S    0.103
 ED16 YRS001      21.0  16 100  S      7.73  7.50  7.17 0.09  0.24  1.03S    0.106                                           
 NRCA IVS001      21.9 334  99  S      7.58  7.35  7.42-0.23  0.16  1.04S    0.086                                           
 ED05 YRS001      22.1 150  99  S      7.73  7.50  7.46 0.09 -0.05  1.04S    0.122                                           
 ED09 YR 001      22.4  44  99  P      3.82  3.59  4.09-0.15 -0.35  0.63     0.022                                           
        S                       S      7.56  7.33  7.56-0.24  0.01  1.04S    0.111
 T1245IVS001      22.5 351  99  S      7.59  7.36  7.59 0.12 -0.35  1.04S    0.097                                           
 T1246IV 001      22.9 110  98  P      4.38  4.15  4.16-0.13  0.12  1.04     0.063                                           
        S                       S      7.75  7.52  7.70-0.35  0.17  1.04S    0.101
 T1217IVS001      25.4 285  97  S      8.67  8.44  8.39 0.07 -0.02  1.04S    0.087                                           
 ED02 YR 001      25.5 257  97  P      4.74  4.51  4.57-0.06  0.00  1.04     0.066                                           
        S                       S      8.61  8.38  8.43-0.22  0.17  1.04S    0.111
 ED12 YR 001      26.7 309  96  P      5.19  4.96  4.75 0.02  0.19  1.04     0.053                                           
        S                       S      9.27  9.04  8.75-0.01  0.30  1.02S    0.081
 MMO1 IVS001      28.1  16  96  S      7.82  7.59  9.13-0.13 -1.41* 0.00S    0.000                                           
 ED14 YR 001      28.7 144  96  P      5.37  5.14  5.06-0.07  0.15  1.04     0.079                                           
        S                       S      9.73  9.50  9.30-0.01  0.21  1.02S    0.126
 ED19 YRS001      30.2 346  95  S      8.43  8.20  9.72-0.01 -1.51* 0.00S    0.000                                           
 TERO IV 001      30.7  96  95  P      5.22  4.99  5.38-0.28 -0.11  1.04     0.071                                           
        S                       S      9.49  9.26  9.87-0.35 -0.26  0.76S    0.059
 T1215IV 001      33.9 299  94  P      6.01  5.78  5.86-0.06 -0.02  1.04     0.060                                           
        S                       S     10.93 10.70 10.74-0.15  0.11  1.04S    0.090
 ED22 YR 001      39.7  11  94  P      5.95  5.72  6.77 0.08 -1.13* 0.00     0.000                                           
 ####################################################################################
