  14 OCT 2016,  0:01  SEQUENCE NO.    3, ID NO.         0
                                                        ADJUSTMENTS (KM)
  I ORIGIN   LAT N     LON W     Z   NWR  RMS    DT    DLAT   DLON    DZ    RR NF MOD
  1 49.01  42 45.87   13E12.22  8.00  56 1.19  0.959 -3.183  1.379  0.000 3.469 3 MOD
 FREE DEPTH
  2 49.97  42 44.15   13E11.21  8.00  56 0.32  0.277  0.121 -0.032 -3.967 3.969 4 MOD
  3 50.25  42 44.22   13E11.23  4.03  56 0.21 -0.089  0.041 -0.064  0.582 0.587 4 MOD
 BEGIN MAIN DISTANCE WEIGHTING
 BEGIN RESIDUAL WEIGHTING
  4 50.16  42 44.24   13E11.28  4.61  54 0.14  0.001  0.059  0.007 -0.401 0.405 4 MOD
  5 50.16  42 44.27   13E11.27  4.21  52 0.13 -0.005 -0.007 -0.013  0.007 0.016 4 MOD
  6 50.15  42 44.27   13E11.28  4.22  53 0.13 -0.002  0.003 -0.012 -0.001 0.013 4 MOD

              EIGENVALUES
     ( 7.496  1.301  1.205  0.343)
      EIGENVECTORS OF ADJUSTMENT                COVARIANCE             ERRORS
 OT  (-0.999 -0.003 -0.020 -0.043) (   0.001   0.001   0.000  -0.010)   0.031
 LAT ( 0.021 -0.351 -0.936 -0.024) (   0.001   0.019  -0.001  -0.005)   0.137
 LON (-0.004 -0.936  0.351 -0.018) (   0.000  -0.001   0.017  -0.004)   0.129
 Z   (-0.043 -0.025 -0.017  0.999) (  -0.010  -0.005  -0.004   0.235)   0.485
 ERROR ELLIPSE: <SERR AZ DIP>-<   0.48 142 88>-<   0.14  20  0>-<   0.13 290  1>
 ------------------------------------------------------------------------------------
 YEAR MO DA  --ORIGIN--  --LAT N-  --LON W--  DEPTH-M RMS   ERH   ERZ  XMAG1 FMAG1 PMAG GEOID-DEP
 2016-10-14  0001 50.15  42 44.27   13E11.28   4.22  0.13  0.14  0.48                       3.08
                                                                                          SOURCE
 NSTA NPHS  DMIN MODEL GAP ITR NFM NWR NWS NVR REMRKS-AVH  N.XMG-XMMAD-T   N.FMG-FMMAD-T  L F X
   32   56   2.9  MODS  40   6   0  53  25  56                                                 

 XMAG2-N.XMG2-XMMAD-T-S  FMAG2-N.FMG2-FMMAD-T-S  PREF.MAG-N.PMAG-PRMAD-T DEPDAT NS ZT TYP
                                                                           1142  5  M CRH

 EXTERNAL MAG= 0.19  NUMBER READINGS=    0  TYPE=L
 REGION=                          

 STA NET COM L CR DIST AZM  AN P/S WT   SEC (TOBS -TCAL -DLY  =RES)  WT   SR  INFO  CAL  DUR-W-FMAG-T -AMP-U-PER-W-XMAG-T DE
 T1214IV 001       2.9  35 140  P     51.01  0.86  0.92-0.01 -0.05  1.06     0.107                                           
        S                       S     51.92  1.77  1.79-0.16  0.14  1.06S    0.426
 T1202IV 001       4.9 141 123  P     51.29  1.14  1.15 0.12 -0.13  1.06     0.065                                           
        S                       S     52.58  2.43  2.23 0.25 -0.05  1.06S    0.219
 ED10 YR 001       5.8 319 117  P     51.34  1.19  1.29-0.08 -0.02  1.06     0.055                                           
        S                       S     52.59  2.44  2.49-0.19  0.14  1.06S    0.184
 ED23 YR 001       8.1  85 107  P     51.96  1.81  1.64 0.19 -0.02  1.06     0.038                                           
        S                       S     53.84  3.69  3.16 0.38  0.15  0.62S    0.034
 ED24 YR 001       9.1 177 104  P     51.84  1.69  1.80 0.00 -0.11  1.06     0.045                                           
        S                       S     53.47  3.32  3.46 0.05 -0.19  1.06S    0.106
 T1218IVS001       9.6 219 103  S     53.81  3.66  3.60 0.06 -0.00  1.06S    0.106                                           
 T1212IV 001      11.8 278  99  P     52.37  2.22  2.24 0.03 -0.05  1.06     0.039                                           
        S                       S     54.51  4.36  4.29-0.02  0.09  1.06S    0.086
 NRCA IV 001      12.2 331  99  P     52.36  2.21  2.31-0.12  0.02  1.06     0.036                                           
        S                       S     54.32  4.17  4.40-0.23  0.00  1.06S    0.082
 T1204IV 001      12.6 123  98  P     52.54  2.39  2.36 0.10 -0.07  1.06     0.042                                           
        S                       S     54.88  4.73  4.51 0.12  0.10  1.06S    0.087
 ED11 YR 001      13.8 247  97  P     52.66  2.51  2.57 0.08 -0.14  1.06     0.044                                           
        S                       S     55.31  5.16  4.89 0.07  0.20  1.06S    0.094
 T1299IV 001      13.9 146  97  P     52.97  2.82  2.58 0.17  0.07  1.06     0.046                                           
        S                       S     55.46  5.31  4.91 0.23  0.17  1.06S    0.094
 ED16 YR 001      14.7  41  97  P     52.86  2.71  2.72 0.07 -0.08  1.06     0.039                                           
        S                       S     55.46  5.31  5.18 0.09  0.04  1.06S    0.084
 ED03 YR 001      15.0 179  96  P     52.90  2.75  2.76 0.05 -0.06  1.06     0.051                                           
        S                       S     55.46  5.31  5.26 0.01  0.04  1.06S    0.103
 SMA1 IV 001      17.0 134  96  P     53.59  3.44  3.10 0.11  0.23  1.06     0.049                                           
 ED12 YR 001      18.9 294  95  P     53.54  3.39  3.42 0.02 -0.05  1.06     0.042                                           
        S                       S     56.53  6.38  6.47-0.01 -0.08  1.06S    0.082
 ED20 YR 001      20.3  86  94  P     53.50  3.35  3.66-0.17 -0.14  1.06     0.046                                           
        S                       S     56.72  6.57  6.91-0.36  0.02  1.06S    0.088
 ED09 YR 001      20.5  70  94  P     53.57  3.42  3.70-0.15 -0.13  1.06     0.045                                           
        S                       S     56.83  6.68  6.97-0.24 -0.05  1.06S    0.087
 ED19 YR 001      20.6 349  95  P     53.91  3.76  3.71 0.03  0.02  1.06     0.041                                           
 T1217IVS001      21.2 263  94  S     57.59  7.44  7.20 0.07  0.17  1.06S    0.092                                           
 MMO1 IV 001      21.2  32  94  P     53.77  3.62  3.82-0.07 -0.13  1.06     0.043                                           
        S                       S     57.20  7.05  7.20-0.13 -0.02  1.06S    0.088
 T1216IV 001      21.9 321  94  P     54.11  3.96  3.93-0.02  0.05  1.06     0.042                                           
        S                       S     57.56  7.41  7.41-0.12  0.12  1.06S    0.082
 RM33 IV 001      25.5 175  93  P     55.15  5.00  4.54 0.17  0.29  0.96     0.048                                           
 ED07 YR 001      25.8 118  93  P     55.17  5.02  4.59-0.11  0.54* 0.00     0.000                                           
        S                       S     58.67  8.52  8.62-0.15  0.05  1.06S    0.097
 ED02 YR 001      26.0 236  93  P     54.61  4.46  4.62-0.06 -0.10  1.06     0.054                                           
        S                       S     58.62  8.47  8.68-0.22  0.01  1.06S    0.104
 T1215IV 001      27.1 286  93  P     54.85  4.70  4.81-0.06 -0.05  1.06     0.046                                           
        S                       S     59.11  8.96  9.03-0.15  0.08  1.06S    0.087
 ED17 YR 001      27.2  21  93  P     54.88  4.73  4.83-0.10 -0.00  1.06     0.045                                           
        S                       S     59.18  9.03  9.06-0.13  0.10  1.06S    0.089
 ED18 YR 001      28.5   9  93  P     55.57  5.42  5.06 0.07  0.29  0.96     0.037                                           
 T1246IV 001      30.3 124  92  P     55.89  5.74  5.36-0.13  0.51* 0.00     0.000                                           
        S                       S     59.66  9.51 10.04-0.35 -0.18  0.15S    0.002
 ED22 YR 001      31.9  20  92  P     56.03  5.88  5.63 0.08  0.17  1.06     0.046                                           
        S                       S     61.07 10.92 10.53 0.18  0.21  0.85S    0.058
 ED21 YR 001      33.2  11  92  P     56.26  6.11  5.85-0.06  0.32  0.78     0.025                                           
 FDMO IV 001      34.2 347  92  P     56.01  5.86  6.02-0.06 -0.10  1.06     0.045                                           
 TERO IV 001      36.4 110  63  P     55.99  5.84  6.39-0.28 -0.27  1.01     0.050                                           
        S                       S     61.23 11.08 11.81-0.35 -0.38  0.01S    0.000
 ####################################################################################
  14 OCT 2016,  0:01  SEQUENCE NO.    4, ID NO.         0
                                                        ADJUSTMENTS (KM)
  I ORIGIN   LAT N     LON W     Z   NWR  RMS    DT    DLAT   DLON    DZ    RR NF MOD
  1 56.80  42 50.31   13E 6.56  8.00   9 1.30  0.828 -4.381 -9.382  0.00010.355 3 MOD
  2 57.63  42 47.95   13E13.46  8.00   9 0.85 -0.566  1.461  0.629  0.000 1.591 3 MOD
 FREE DEPTH
  3 57.06  42 48.73   13E13.00  8.00   9 0.21  0.192 -0.317  0.425 -2.910 2.958 4 MOD
 BEGIN MAIN DISTANCE WEIGHTING
 BEGIN RESIDUAL WEIGHTING
  4 57.26  42 48.56   13E12.68  5.09   9 0.12 -0.044 -0.146  0.001 -0.044 0.152 4 MOD
  5 57.21  42 48.48   13E12.68  5.05   9 0.11 -0.005 -0.010 -0.005 -0.004 0.012 4 MOD
  6 57.21  42 48.48   13E12.69  5.04   9 0.11 -0.001 -0.009 -0.005 -0.004 0.011 4 MOD

              EIGENVALUES
     ( 3.030  0.592  0.368  0.076)
      EIGENVECTORS OF ADJUSTMENT                COVARIANCE             ERRORS
 OT  (-0.990  0.046 -0.110  0.076) (   0.027  -0.011   0.027  -0.289)   0.163
 LAT ( 0.064 -0.519 -0.848 -0.084) (  -0.011   0.164   0.027   0.312)   0.405
 LON ( 0.101  0.849 -0.517  0.053) (   0.027   0.027   0.102  -0.201)   0.319
 Z   (-0.076  0.093  0.036 -0.992) (  -0.289   0.312  -0.201   3.779)   1.944
 ERROR ELLIPSE: <SERR AZ DIP>-<   1.95  33 84>-<   0.41 149  2>-<   0.25 240  5>
 ------------------------------------------------------------------------------------
 YEAR MO DA  --ORIGIN--  --LAT N-  --LON W--  DEPTH-M RMS   ERH   ERZ  XMAG1 FMAG1 PMAG GEOID-DEP
 2016-10-14  0001 57.21  42 48.48   13E12.69   5.04  0.11  0.40  1.94                       4.23
                                                                                          SOURCE
 NSTA NPHS  DMIN MODEL GAP ITR NFM NWR NWS NVR REMRKS-AVH  N.XMG-XMMAD-T   N.FMG-FMMAD-T  L F X
    6    9   8.4  MODS 179   6   0   9   6   9                                                 

 XMAG2-N.XMG2-XMMAD-T-S  FMAG2-N.FMG2-FMMAD-T-S  PREF.MAG-N.PMAG-PRMAD-T DEPDAT NS ZT TYP
                                                                            812  5  M CRH
 REGION=                          

 STA NET COM L CR DIST AZM  AN P/S WT   SEC (TOBS -TCAL -DLY  =RES)  WT   SR  INFO  CAL  DUR-W-FMAG-T -AMP-U-PER-W-XMAG-T DE
 NRCA IV 001       8.4 290 113  P     58.80  1.59  1.74-0.12 -0.03  1.00     0.119                                           
        S                       S     60.41  3.20  3.34-0.23  0.09  1.00S    0.793
 ED16 YR 001       8.5  67 113  P     59.01  1.80  1.75 0.07 -0.02  1.00     0.375                                           
        S                       S     60.61  3.40  3.35 0.09 -0.04  1.00S    0.706
 MC2  IVS001      11.6 351 105  S     61.89  4.68  4.29 0.43 -0.04  1.00S    0.440                                           
 ED19 YRS001      13.7 335 102  S     61.95  4.74  4.92-0.01 -0.17  1.00S    0.517                                           
 T1212IV 001      15.0 246 101  P     59.99  2.78  2.80 0.03 -0.05  1.00     0.303                                           
        S                       S     62.55  5.34  5.31-0.02  0.05  1.00S    0.343
 T1217IVS001      25.3 246  95  S     65.83  8.62  8.49 0.07  0.06  1.00S    0.400                                           
 ####################################################################################
  14 OCT 2016,  0:02  SEQUENCE NO.    5, ID NO.         0
                                                        ADJUSTMENTS (KM)
  I ORIGIN   LAT N     LON W     Z   NWR  RMS    DT    DLAT   DLON    DZ    RR NF MOD
  1 10.56  42 45.87   13E12.22  8.00  14 0.85  0.778 -0.734 -2.659  0.000 2.758 3 MOD
 FREE DEPTH
  2 11.34  42 45.47   13E14.17  8.00  14 0.30  0.404  0.709 -0.617 -3.200 3.335 4 MOD
  3 11.74  42 45.86   13E14.63  4.80  14 0.20  0.033  0.007  0.058 -0.492 0.495 4 MOD
 BEGIN MAIN DISTANCE WEIGHTING
 BEGIN RESIDUAL WEIGHTING
  4 11.78  42 45.86   13E14.59  4.31  13 0.12 -0.019  0.506  0.116 -0.197 0.555 4 MOD
  5 11.76  42 46.13   13E14.50  4.11  13 0.10 -0.010  0.152  0.020 -0.083 0.174 4 MOD
  6 11.75  42 46.22   13E14.49  4.03  13 0.11 -0.008  0.051  0.023 -0.020 0.060 4 MOD
  7 11.74  42 46.24   13E14.47  4.01  13 0.11 -0.004  0.032  0.023 -0.008 0.040 4 MOD
  8 11.73  42 46.26   13E14.45  4.00  13 0.11 -0.011  0.024  0.035  0.079 0.090 4 MOD
  9 11.72  42 46.27   13E14.43  4.08  13 0.12 -0.007  0.017  0.014  0.017 0.028 4 MOD
 10 11.72  42 46.28   13E14.42  4.10  13 0.12 -0.004  0.032  0.013  0.015 0.038 4 MOD

              EIGENVALUES
     ( 3.641  0.680  0.353  0.195)
      EIGENVECTORS OF ADJUSTMENT                COVARIANCE             ERRORS
 OT  (-0.993 -0.013  0.094  0.070) (   0.007  -0.008  -0.009  -0.045)   0.081
 LAT (-0.074 -0.138 -0.963  0.218) (  -0.008   0.208   0.006  -0.096)   0.456
 LON (-0.038  0.976 -0.167 -0.133) (  -0.009   0.006   0.065   0.078)   0.256
 Z   (-0.083 -0.167 -0.188 -0.964) (  -0.045  -0.096   0.078   0.589)   0.767
 ERROR ELLIPSE: <SERR AZ DIP>-<   0.79 212 75>-<   0.43 351 11>-<   0.23  82  9>
 ------------------------------------------------------------------------------------
 YEAR MO DA  --ORIGIN--  --LAT N-  --LON W--  DEPTH-M RMS   ERH   ERZ  XMAG1 FMAG1 PMAG GEOID-DEP
 2016-10-14  0002 11.72  42 46.28   13E14.42   4.10  0.12  0.43  0.76                       2.99
                                                                                          SOURCE
 NSTA NPHS  DMIN MODEL GAP ITR NFM NWR NWS NVR REMRKS-AVH  N.XMG-XMMAD-T   N.FMG-FMMAD-T  L F X
    8   14   2.9  MODS 162  10   0  13   6  14                                                 

 XMAG2-N.XMG2-XMMAD-T-S  FMAG2-N.FMG2-FMMAD-T-S  PREF.MAG-N.PMAG-PRMAD-T DEPDAT NS ZT TYP
                                                                           1107  5  M CRH

 EXTERNAL MAG= 0.12  NUMBER READINGS=    0  TYPE=L
 REGION=                          

 STA NET COM L CR DIST AZM  AN P/S WT   SEC (TOBS -TCAL -DLY  =RES)  WT   SR  INFO  CAL  DUR-W-FMAG-T -AMP-U-PER-W-XMAG-T DE
 T1214IV 001       2.9 243 140  P     12.56  0.84  0.90-0.01 -0.05  1.02     0.169                                           
        S                       S     13.47  1.75  1.75-0.16  0.16  1.02S    0.589
 ED23 YR 001       5.0 129 121  P     12.85  1.13  1.15 0.19 -0.21  1.02     0.107                                           
        S                       S     14.19  2.47  2.24 0.38 -0.15  1.02S    0.450
 T1202IV 001       7.6 190 107  P     13.31  1.59  1.55 0.12 -0.08  1.02     0.181                                           
        S                       S     14.99  3.27  3.00 0.25  0.02  1.02S    0.504
 ED10 YR 001       8.1 275 106  P     12.94  1.22  1.63-0.08 -0.33  0.73     0.154                                           
        S                       S     14.93  3.21  3.15-0.19  0.25  1.02S    0.508
 NRCA IVS001      12.4 304  98  S     16.74  5.02  4.45-0.23  0.80* 0.00S    0.000                                           
 ED24 YR 001      13.4 198  99  P     14.18  2.46  2.50 0.00 -0.04  1.02     0.323                                           
 ED09 YR 001      15.3  77  96  P     14.46  2.74  2.82-0.15  0.07  1.02     0.220                                           
        S                       S     17.04  5.32  5.37-0.24  0.19  1.02S    0.364
 ED20 YR 001      16.2  98  95  P     14.54  2.82  2.96-0.17  0.03  1.02     0.169                                           
        S                       S     17.12  5.40  5.62-0.36  0.14  1.02S    0.255
 ####################################################################################
