  14 OCT 2016,  0:05  SEQUENCE NO.   18, ID NO.         0
                                                        ADJUSTMENTS (KM)
  I ORIGIN   LAT N     LON W     Z   NWR  RMS    DT    DLAT   DLON    DZ    RR NF MOD
  1 37.05  42 51.69   13E10.98  8.00  28 1.06  0.642  2.009 -4.862  0.000 5.261 3 MOD
 FREE DEPTH
  2 37.69  42 52.77   13E14.56  8.00  28 0.29  0.194  0.196 -0.170 -3.542 3.552 4 MOD
  3 37.89  42 52.88   13E14.69  4.46  28 0.12 -0.061 -0.057  0.142  0.202 0.253 4 MOD
 BEGIN MAIN DISTANCE WEIGHTING
 BEGIN RESIDUAL WEIGHTING
  4 37.83  42 52.85   13E14.58  4.66  28 0.10 -0.008 -0.008  0.004  0.031 0.032 4 MOD
  5 37.82  42 52.84   13E14.58  4.69  28 0.10 -0.002  0.001 -0.002 -0.003 0.003 4 MOD

              EIGENVALUES
     ( 5.306  0.988  0.866  0.309)
      EIGENVECTORS OF ADJUSTMENT                COVARIANCE             ERRORS
 OT  (-0.997 -0.004 -0.042 -0.060) (   0.001   0.001   0.001  -0.012)   0.038
 LAT ( 0.031  0.560 -0.828  0.025) (   0.001   0.024   0.003   0.004)   0.154
 LON ( 0.029 -0.828 -0.559 -0.030) (   0.001   0.003   0.022  -0.005)   0.147
 Z   (-0.060 -0.039  0.001  0.997) (  -0.012   0.004  -0.005   0.199)   0.446
 ERROR ELLIPSE: <SERR AZ DIP>-<   0.45  50 87>-<   0.16 326  0>-<   0.14 236  2>
 ------------------------------------------------------------------------------------
 YEAR MO DA  --ORIGIN--  --LAT N-  --LON W--  DEPTH-M RMS   ERH   ERZ  XMAG1 FMAG1 PMAG GEOID-DEP
 2016-10-14  0005 37.82  42 52.84   13E14.58   4.69  0.10  0.16  0.45                       3.74
                                                                                          SOURCE
 NSTA NPHS  DMIN MODEL GAP ITR NFM NWR NWS NVR REMRKS-AVH  N.XMG-XMMAD-T   N.FMG-FMMAD-T  L F X
   17   28   5.2  MODS  84   5   0  28  17  28                                                 

 XMAG2-N.XMG2-XMMAD-T-S  FMAG2-N.FMG2-FMMAD-T-S  PREF.MAG-N.PMAG-PRMAD-T DEPDAT NS ZT TYP
                                                                            952  5  M CRH

 EXTERNAL MAG= 0.03  NUMBER READINGS=    0  TYPE=L
 REGION=                          

 STA NET COM L CR DIST AZM  AN P/S WT   SEC (TOBS -TCAL -DLY  =RES)  WT   SR  INFO  CAL  DUR-W-FMAG-T -AMP-U-PER-W-XMAG-T DE
 T1245IV 001       5.2 240 125  P     39.05  1.23  1.25-0.03  0.01  1.00     0.079                                           
        S                       S     40.27  2.45  2.42 0.12 -0.09  1.00S    0.279
 MC2  IV 001       5.6 308 123  P     39.22  1.40  1.30 0.15 -0.05  1.00     0.066                                           
        S                       S     40.45  2.63  2.50 0.43 -0.30  1.00S    0.236
 ED16 YRS001       7.1 132 115  S     40.81  2.99  2.92 0.09 -0.02  1.00S    0.231                                           
 MMO1 IV 001       7.2  73 115  P     39.23  1.41  1.52-0.07 -0.04  1.00     0.071                                           
        S                       S     40.60  2.78  2.93-0.13 -0.02  1.00S    0.180
 ED19 YR 001       9.5 298 107  P     39.68  1.86  1.89 0.03 -0.06  1.00     0.053                                           
        S                       S     41.41  3.59  3.62-0.01 -0.02  1.00S    0.135
 ED17 YR 001      10.9  29 104  P     39.79  1.97  2.10-0.10 -0.03  1.00     0.062                                           
        S                       S     41.60  3.78  4.02-0.13 -0.11  1.00S    0.127
 NRCA IVS001      11.8 244 103  S     41.99  4.17  4.29-0.23  0.11  1.00S    0.130                                           
 ED18 YR 001      12.3   0 102  P     40.11  2.29  2.34 0.07 -0.12  1.00     0.061                                           
        S                       S     42.44  4.62  4.46 0.08  0.08  1.00S    0.127
 ED10 YRS001      14.2 216 100  S     42.68  4.86  5.05-0.19  0.00  1.00S    0.146                                           
 ED22 YR 001      15.5  25  98  P     40.80  2.98  2.87 0.08  0.03  1.00     0.073                                           
        S                       S     43.49  5.67  5.45 0.18  0.04  1.00S    0.134
 ED21 YR 001      16.8   8  98  P     40.94  3.12  3.08-0.06  0.10  1.00     0.073                                           
        S                       S     43.47  5.65  5.83-0.12 -0.06  1.00S    0.136
 ED09 YR 001      17.3 121  97  P     40.87  3.05  3.16-0.15  0.04  1.00     0.104                                           
        S                       S     43.92  6.10  5.99-0.24  0.35  0.96S    0.181
 FDMO IVS001      21.5 324  95  S     45.16  7.34  7.29 0.00  0.05  1.00S    0.141                                           
 ED20 YR 001      21.5 132  95  P     41.39  3.57  3.87-0.17 -0.13  1.00     0.112                                           
        S                       S     44.87  7.05  7.30-0.36  0.11  1.00S    0.208
 T1212IVS001      21.7 229  95  S     45.15  7.33  7.35-0.02 -0.00  1.00S    0.141                                           
 ED12 YR 001      23.2 250  95  P     42.10  4.28  4.17 0.02  0.09  1.00     0.075                                           
        S                       S     45.81  7.99  7.84-0.01  0.16  1.00S    0.132
 T1215IVS001      31.8 255  63  S     48.15 10.33 10.47-0.15  0.01  1.00S    0.491                                           
 ####################################################################################
  14 OCT 2016,  0:05  SEQUENCE NO.   19, ID NO.         0
                                                        ADJUSTMENTS (KM)
  I ORIGIN   LAT N     LON W     Z   NWR  RMS    DT    DLAT   DLON    DZ    RR NF MOD
  1 54.88  42 45.87   13E12.22  8.00  34 0.92  0.877 -2.488  1.390  0.000 2.850 3 MOD
 FREE DEPTH
  2 55.76  42 44.53   13E11.20  8.00  34 0.27  0.285 -0.032  0.083 -3.322 3.323 4 MOD
  3 56.04  42 44.51   13E11.14  4.68  34 0.14 -0.070 -0.009 -0.035  0.382 0.384 4 MOD
 BEGIN MAIN DISTANCE WEIGHTING
 BEGIN RESIDUAL WEIGHTING
  4 55.97  42 44.51   13E11.16  5.06  34 0.10 -0.025  0.003  0.030  0.023 0.037 4 MOD
  5 55.95  42 44.51   13E11.14  5.08  33 0.09 -0.003 -0.000 -0.004 -0.008 0.009 4 MOD

              EIGENVALUES
     ( 5.960  1.096  0.869  0.418)
      EIGENVECTORS OF ADJUSTMENT                COVARIANCE             ERRORS
 OT  (-0.997 -0.010 -0.027 -0.066) (   0.001  -0.001  -0.000  -0.007)   0.031
 LAT (-0.032  0.026  0.996  0.079) (  -0.001   0.024   0.001   0.006)   0.156
 LON ( 0.006 -0.998  0.022  0.054) (  -0.000   0.001   0.015   0.005)   0.123
 Z   (-0.064  0.052 -0.082  0.993) (  -0.007   0.006   0.005   0.102)   0.319
 ERROR ELLIPSE: <SERR AZ DIP>-<   0.32 325 84>-<   0.15 179  4>-<   0.12  89  2>
 ------------------------------------------------------------------------------------
 YEAR MO DA  --ORIGIN--  --LAT N-  --LON W--  DEPTH-M RMS   ERH   ERZ  XMAG1 FMAG1 PMAG GEOID-DEP
 2016-10-14  0005 55.95  42 44.51   13E11.14   5.08  0.09  0.15  0.32                       3.94
                                                                                          SOURCE
 NSTA NPHS  DMIN MODEL GAP ITR NFM NWR NWS NVR REMRKS-AVH  N.XMG-XMMAD-T   N.FMG-FMMAD-T  L F X
   20   34   2.7  MODS  53   5   0  33  18  34                                                 

 XMAG2-N.XMG2-XMMAD-T-S  FMAG2-N.FMG2-FMMAD-T-S  PREF.MAG-N.PMAG-PRMAD-T DEPDAT NS ZT TYP
                                                                           1142  5  M CRH
 REGION=                          

 STA NET COM L CR DIST AZM  AN P/S WT   SEC (TOBS -TCAL -DLY  =RES)  WT   SR  INFO  CAL  DUR-W-FMAG-T -AMP-U-PER-W-XMAG-T DE
 T1214IV 001       2.7  43 149  P     56.88  0.93  1.02-0.01 -0.08  1.05     0.087                                           
        S                       S     57.75  1.80  1.97-0.16 -0.01  1.05S    0.324
 T1202IV 001       5.3 142 128  P     57.43  1.48  1.31 0.12  0.05  1.05     0.063                                           
        S                       S     58.60  2.65  2.51 0.25 -0.11  1.05S    0.227
 ED10 YR 001       5.3 318 128  P     57.27  1.32  1.31-0.08  0.09  1.05     0.068                                           
        S                       S     58.31  2.36  2.52-0.19  0.03  1.05S    0.197
 ED23 YR 001       8.3  88 114  P     57.88  1.93  1.73 0.19  0.01  1.05     0.057                                           
        S                       S     59.79  3.84  3.31 0.38  0.15  0.39S    0.020
 ED24 YR 001       9.6 176 110  P     57.79  1.84  1.92 0.00 -0.08  1.05     0.054                                           
        S                       S     59.63  3.68  3.68 0.05 -0.05  1.05S    0.155
 T1218IV 001       9.8 216 109  P     57.92  1.97  1.96 0.00  0.01  1.05     0.050                                           
        S                       S     59.71  3.76  3.76 0.06 -0.06  1.05S    0.131
 T1212IV 001      11.6 276 106  P     58.21  2.26  2.24 0.03 -0.01  1.05     0.059                                           
        S                       S     60.23  4.28  4.28-0.02  0.02  1.05S    0.116
 ED11 YR 001      13.8 245 102  P     58.56  2.61  2.60 0.08 -0.07  1.05     0.055                                           
        S                       S     61.07  5.12  4.94 0.07  0.11  1.05S    0.111
 ED16 YRS001      14.5  43 101  S     61.23  5.28  5.16 0.09  0.03  1.05S    0.166                                           
 ED03 YR 001      15.4 178 101  P     58.86  2.91  2.87 0.05 -0.01  1.05     0.059                                           
        S                       S     61.48  5.53  5.44 0.01  0.08  1.05S    0.142
 ED12 YR 001      18.5 293  98  P     59.44  3.49  3.38 0.02  0.09  1.05     0.079                                           
        S                       S     62.35  6.40  6.39-0.01  0.02  1.05S    0.147
 ED19 YRS001      20.1 350  97  S     63.03  7.08  6.89-0.01  0.20  1.05S    0.212                                           
 ED20 YR 001      20.5  87  97  P     59.53  3.58  3.71-0.17  0.04  1.05     0.067                                           
        S                       S     62.68  6.73  6.99-0.36  0.10  1.05S    0.125
 ED09 YR 001      20.5  71  97  P     59.45  3.50  3.72-0.15 -0.07  1.05     0.074                                           
        S                       S     62.85  6.90  7.01-0.24  0.13  1.05S    0.139
 T1217IVS001      21.1 262  97  S     63.59  7.64  7.19 0.07  0.38  0.06S    0.000                                           
 ED01 YR 001      25.1 198  96  P     60.48  4.53  4.49-0.06  0.10  1.05     0.066                                           
 ED02 YR 001      26.1 234  95  P     60.67  4.72  4.65-0.06  0.13  1.05     0.067                                           
        S                       S     64.50  8.55  8.73-0.22  0.04  1.05S    0.126
 ED07 YRS001      26.1 118  95  S     64.62  8.67  8.75-0.15  0.07  1.05S    0.124                                           
 T1215IVS001      26.8 285  95  S     64.64  8.69  8.96-0.15 -0.12  1.05S    0.149                                           
 TERO IV 001      36.7 110  63  P     62.04  6.09  6.42-0.28 -0.05  1.05     0.145                                           
        S                       S     67.30 11.35 11.79-0.35 -0.09  1.05S    0.323
 ####################################################################################
  14 OCT 2016,  0:06  SEQUENCE NO.   20, ID NO.         0
                                                        ADJUSTMENTS (KM)
  I ORIGIN   LAT N     LON W     Z   NWR  RMS    DT    DLAT   DLON    DZ    RR NF MOD
  1 30.56  42 51.69   13E10.98  8.00  10 0.62  0.625 -4.164  0.986  0.000 4.279 3 MOD
 FREE DEPTH
  2 31.18  42 49.44   13E10.25  8.00  10 0.17 -0.027 -0.237  0.019 -0.514 0.566 4 MOD
  3 31.16  42 49.32   13E10.24  7.49  10 0.12 -0.005 -0.015 -0.019 -0.070 0.074 4 MOD
 BEGIN MAIN DISTANCE WEIGHTING
 BEGIN RESIDUAL WEIGHTING
  4 31.15  42 49.31   13E10.25  7.42  10 0.12 -0.000 -0.015  0.003 -0.007 0.017 4 MOD
  5 31.15  42 49.30   13E10.25  7.41  10 0.12  0.003 -0.005  0.030 -0.012 0.033 4 MOD

              EIGENVALUES
     ( 3.194  0.460  0.254  0.194)
      EIGENVECTORS OF ADJUSTMENT                COVARIANCE             ERRORS
 OT  (-0.990  0.004  0.016  0.139) (   0.014  -0.007   0.016  -0.084)   0.120
 LAT (-0.015 -0.993 -0.102 -0.066) (  -0.007   0.116  -0.029   0.029)   0.341
 LON ( 0.032 -0.110  0.986  0.123) (   0.016  -0.029   0.365  -0.028)   0.604
 Z   (-0.135  0.053  0.132 -0.980) (  -0.084   0.029  -0.028   0.607)   0.779
 ERROR ELLIPSE: <SERR AZ DIP>-<   0.78  61 82>-<   0.60 265  7>-<   0.33 174  3>
 ------------------------------------------------------------------------------------
 YEAR MO DA  --ORIGIN--  --LAT N-  --LON W--  DEPTH-M RMS   ERH   ERZ  XMAG1 FMAG1 PMAG GEOID-DEP
 2016-10-14  0006 31.15  42 49.30   13E10.25   7.41  0.12  0.60  0.78                       6.21
                                                                                          SOURCE
 NSTA NPHS  DMIN MODEL GAP ITR NFM NWR NWS NVR REMRKS-AVH  N.XMG-XMMAD-T   N.FMG-FMMAD-T  L F X
    6   10   4.1  MODS 136   5   0  10   5  10                                                 

 XMAG2-N.XMG2-XMMAD-T-S  FMAG2-N.FMG2-FMMAD-T-S  PREF.MAG-N.PMAG-PRMAD-T DEPDAT NS ZT TYP
                                                                           1201  5  M CRH
 REGION=                          

 STA NET COM L CR DIST AZM  AN P/S WT   SEC (TOBS -TCAL -DLY  =RES)  WT   SR  INFO  CAL  DUR-W-FMAG-T -AMP-U-PER-W-XMAG-T DE
 T1245IV 001       4.1  19 145  P     32.56  1.41  1.48-0.03 -0.04  1.00     0.216                                           
        S                       S     34.13  2.98  2.80 0.12  0.06  1.00S    0.547
 NRCA IV 001       4.8 286 140  P     32.58  1.43  1.54-0.12  0.01  1.00     0.158                                           
        S                       S     33.97  2.82  2.92-0.23  0.13  1.00S    0.571
 ED10 YR 001       5.5 207 135  P     32.62  1.47  1.61-0.08 -0.06  1.00     0.141                                           
        S                       S     34.02  2.87  3.06-0.19  0.00  1.00S    0.433
 T1214IV 001       7.6 155 123  P     32.90  1.75  1.84-0.01 -0.08  1.00     0.279                                           
        S                       S     34.63  3.48  3.49-0.16  0.15  1.00S    0.502
 ED19 YRS001      11.2 347 106  S     35.45  4.30  4.41-0.01 -0.10  1.00S    0.579                                           
 ED11 YR 001      18.6 218  95  P     34.91  3.76  3.46 0.08  0.22  1.00     0.570                                           
 ####################################################################################
  14 OCT 2016,  0:06  SEQUENCE NO.   21, ID NO.         0
                                                        ADJUSTMENTS (KM)
  I ORIGIN   LAT N     LON W     Z   NWR  RMS    DT    DLAT   DLON    DZ    RR NF MOD
  1 51.62  42 51.69   13E10.98  8.00   9 1.66  0.623 -8.918 -2.856  0.000 9.364 3 MOD
  2 52.24  42 46.88   13E13.08  8.00   9 0.71 -0.591 -0.011 -1.165  0.000 1.165 3 MOD
 FREE DEPTH
  3 51.65  42 46.87   13E13.94  8.00   9 0.28 -0.059 -0.053 -0.053 -0.130 0.150 4 MOD
 BEGIN MAIN DISTANCE WEIGHTING
 BEGIN RESIDUAL WEIGHTING
  4 51.59  42 46.84   13E13.98  7.87   9 0.23 -0.001 -0.282 -0.071  0.510 0.587 4 MOD
  5 51.59  42 46.69   13E14.03  8.38   8 0.18  0.007 -0.118 -0.033  0.081 0.147 4 MOD
  6 51.60  42 46.63   13E14.05  8.46   8 0.18  0.000 -0.015 -0.005  0.008 0.018 4 MOD
  7 51.60  42 46.62   13E14.06  8.47   8 0.18  0.003  0.006 -0.008 -0.010 0.014 4 MOD

              EIGENVALUES
     ( 2.840  0.509  0.341  0.147)
      EIGENVECTORS OF ADJUSTMENT                COVARIANCE             ERRORS
 OT  (-0.996 -0.028  0.013 -0.086) (   0.020  -0.024   0.009  -0.166)   0.141
 LAT ( 0.007 -0.910 -0.384  0.156) (  -0.024   0.239  -0.077   0.270)   0.489
 LON ( 0.024 -0.391  0.920 -0.017) (   0.009  -0.077   0.338  -0.015)   0.582
 Z   (-0.087  0.135  0.078  0.984) (  -0.166   0.270  -0.015   1.911)   1.382
 ERROR ELLIPSE: <SERR AZ DIP>-<   1.40   6 80>-<   0.61 247  4>-<   0.41 156  7>
 ------------------------------------------------------------------------------------
 YEAR MO DA  --ORIGIN--  --LAT N-  --LON W--  DEPTH-M RMS   ERH   ERZ  XMAG1 FMAG1 PMAG GEOID-DEP
 2016-10-14  0006 51.60  42 46.62   13E14.06   8.47  0.18  0.61  1.38                       7.29
                                                                                          SOURCE
 NSTA NPHS  DMIN MODEL GAP ITR NFM NWR NWS NVR REMRKS-AVH  N.XMG-XMMAD-T   N.FMG-FMMAD-T  L F X
    6    9   7.6  MODS 120   7   0   8   5   9                                                 

 XMAG2-N.XMG2-XMMAD-T-S  FMAG2-N.FMG2-FMMAD-T-S  PREF.MAG-N.PMAG-PRMAD-T DEPDAT NS ZT TYP
                                                                           1178  5  M CRH

 EXTERNAL MAG= 0.08  NUMBER READINGS=    0  TYPE=L
 REGION=                          

 STA NET COM L CR DIST AZM  AN P/S WT   SEC (TOBS -TCAL -DLY  =RES)  WT   SR  INFO  CAL  DUR-W-FMAG-T -AMP-U-PER-W-XMAG-T DE
 ED10 YR 001       7.6 271 130  P     53.78  2.18  1.96-0.08  0.30  1.00     0.209                                           
        S                       S     55.11  3.51  3.68-0.19  0.02  1.00S    0.815
 ED16 YR 001       8.9  41 124  P     53.67  2.07  2.12 0.07 -0.12  1.00     0.281                                           
        S                       S     55.74  4.14  3.98 0.09  0.07  1.00S    0.693
 T1245IV 001       9.6 337 121  P     53.62  2.02  2.20-0.03 -0.15  1.00     0.186                                           
        S                       S     54.96  3.36  4.13 0.12 -0.89* 0.00S    0.000
 ED04 YRS001      23.1 167  97  S     59.22  7.62  7.73 0.14 -0.25  1.00S    0.468                                           
 ED05 YRS001      34.3 161  93  S     62.64 11.04 10.85 0.09  0.10  1.00S    0.508                                           
 CESI IVS001      37.0 314  93  S     63.25 11.65 11.59 0.03  0.03  1.00S    0.836                                           
 ####################################################################################
