  14 OCT 2016,  0:02  SEQUENCE NO.    6, ID NO.         0
                                                        ADJUSTMENTS (KM)
  I ORIGIN   LAT N     LON W     Z   NWR  RMS    DT    DLAT   DLON    DZ    RR NF MOD
  1 16.65  42 45.87   13E12.22  8.00  17 1.04  0.858 -3.725  1.514  0.000 4.021 3 MOD
 FREE DEPTH
  2 17.51  42 43.86   13E11.11  8.00  17 0.36  0.302  0.206 -0.014 -3.612 3.618 4 MOD
  3 17.81  42 43.97   13E11.12  4.39  17 0.18 -0.113  0.089 -0.139  0.551 0.575 4 MOD
 BEGIN MAIN DISTANCE WEIGHTING
 BEGIN RESIDUAL WEIGHTING
  4 17.70  42 44.02   13E11.22  4.94  17 0.11 -0.026  0.081 -0.122  0.073 0.163 4 MOD
  5 17.67  42 44.06   13E11.31  5.01  16 0.10 -0.005 -0.001 -0.043 -0.022 0.048 4 MOD
  6 17.67  42 44.06   13E11.34  4.99  16 0.10 -0.001  0.010 -0.002  0.002 0.010 4 MOD
  7 17.67  42 44.07   13E11.34  4.99  16 0.10  0.001 -0.007  0.005 -0.001 0.009 4 MOD

              EIGENVALUES
     ( 4.253  0.820  0.542  0.391)
      EIGENVECTORS OF ADJUSTMENT                COVARIANCE             ERRORS
 OT  (-0.997  0.004  0.058  0.044) (   0.002   0.001  -0.002  -0.007)   0.039
 LAT ( 0.031 -0.240  0.871 -0.427) (   0.001   0.076  -0.007   0.025)   0.276
 LON (-0.023 -0.954 -0.292 -0.061) (  -0.002  -0.007   0.033   0.010)   0.181
 Z   (-0.062  0.179 -0.390 -0.901) (  -0.007   0.025   0.010   0.115)   0.340
 ERROR ELLIPSE: <SERR AZ DIP>-<   0.36 351 64>-<   0.26 198 23>-<   0.17 105 10>
 ------------------------------------------------------------------------------------
 YEAR MO DA  --ORIGIN--  --LAT N-  --LON W--  DEPTH-M RMS   ERH   ERZ  XMAG1 FMAG1 PMAG GEOID-DEP
 2016-10-14  0002 17.67  42 44.07   13E11.34   4.99  0.10  0.24  0.32                       3.90
                                                                                          SOURCE
 NSTA NPHS  DMIN MODEL GAP ITR NFM NWR NWS NVR REMRKS-AVH  N.XMG-XMMAD-T   N.FMG-FMMAD-T  L F X
   13   17   3.2  MODS  97   7   0  16   9  17                                                 

 XMAG2-N.XMG2-XMMAD-T-S  FMAG2-N.FMG2-FMMAD-T-S  PREF.MAG-N.PMAG-PRMAD-T DEPDAT NS ZT TYP
                                                                           1095  5  M CRH

 EXTERNAL MAG= 0.12  NUMBER READINGS=    0  TYPE=L
 REGION=                          

 STA NET COM L CR DIST AZM  AN P/S WT   SEC (TOBS -TCAL -DLY  =RES)  WT   SR  INFO  CAL  DUR-W-FMAG-T -AMP-U-PER-W-XMAG-T DE
 T1214IV 001       3.2  30 143  P     18.65  0.98  1.05-0.01 -0.06  1.06     0.107                                           
        S                       S     19.58  1.91  2.03-0.16  0.04  1.06S    0.334
 T1202IV 001       4.5 139 133  P     18.94  1.27  1.19 0.12 -0.04  1.06     0.173                                           
        S                       S     20.22  2.55  2.30 0.25 -0.00  1.06S    0.514
 ED10 YRS001       6.1 321 123  S     20.16  2.49  2.70-0.19 -0.02  1.06S    0.233                                           
 ED23 YR 001       8.1  83 114  P     19.60  1.93  1.69 0.19  0.05  1.06     0.096                                           
        S                       S     21.51  3.84  3.24 0.38  0.22  0.03S    0.000
 T1212IVS001      12.0 280 104  S     21.99  4.32  4.38-0.02 -0.04  1.06S    0.245                                           
 ED11 YR 001      13.7 249 104  P     20.34  2.67  2.58 0.08  0.01  1.06     0.168                                           
 ED12 YR 001      19.1 295  99  P     21.22  3.55  3.48 0.02  0.05  1.06     0.139                                           
 ED09 YR 001      20.5  69  97  P     21.23  3.56  3.72-0.15 -0.01  1.06     0.110                                           
        S                       S     24.52  6.85  7.01-0.24  0.08  1.06S    0.243
 ED02 YR 001      25.8 236  96  P     22.38  4.71  4.61-0.06  0.16  1.06     0.200                                           
 T1215IVS001      27.3 287  95  S     26.71  9.04  9.11-0.15  0.08  1.06S    0.280                                           
 ED17 YRS001      27.5  20  95  S     26.95  9.28  9.17-0.13  0.24  1.06S    0.421                                           
 T1246IVS001      30.1 123  63  S     27.34  9.67  9.93-0.35  0.09  1.06S    0.373                                           
 TERO IVS001      36.2 109  63  S     28.98 11.31 11.65-0.35  0.01  1.06S    0.354                                           
 ####################################################################################
  14 OCT 2016,  0:02  SEQUENCE NO.    7, ID NO.         0
                                                        ADJUSTMENTS (KM)
  I ORIGIN   LAT N     LON W     Z   NWR  RMS    DT    DLAT   DLON    DZ    RR NF MOD
  1 37.33  42 40.86   13E18.70  8.00  60 0.61  0.393 -2.270  1.927  0.000 2.978 3 MOD
 FREE DEPTH
  2 37.72  42 39.63   13E17.29  8.00  60 0.19 -0.068 -0.354  0.231  1.071 1.151 4 MOD
  3 37.66  42 39.44   13E17.12  9.07  60 0.17 -0.016 -0.051  0.044  0.078 0.103 4 MOD
 BEGIN MAIN DISTANCE WEIGHTING
 BEGIN RESIDUAL WEIGHTING
  4 37.64  42 39.42   13E17.08  9.15  59 0.14 -0.007 -0.006  0.131 -0.181 0.224 4 MOD
  5 37.63  42 39.41   13E16.99  8.97  58 0.13 -0.001  0.015  0.046 -0.073 0.088 4 MOD
  6 37.63  42 39.42   13E16.95  8.89  56 0.13  0.000  0.008  0.003 -0.013 0.016 4 MOD
  7 37.63  42 39.43   13E16.95  8.88  56 0.13  0.001  0.006  0.004 -0.008 0.010 4 MOD

              EIGENVALUES
     ( 8.050  1.323  1.067  0.452)
      EIGENVECTORS OF ADJUSTMENT                COVARIANCE             ERRORS
 OT  (-0.997 -0.033  0.007 -0.073) (   0.001   0.001   0.001  -0.009)   0.033
 LAT ( 0.032 -0.690  0.721 -0.048) (   0.001   0.020  -0.004  -0.006)   0.141
 LON ( 0.022 -0.719 -0.693 -0.048) (   0.001  -0.004   0.020  -0.006)   0.140
 Z   (-0.070 -0.071  0.002  0.995) (  -0.009  -0.006  -0.006   0.130)   0.360
 ERROR ELLIPSE: <SERR AZ DIP>-<   0.36 135 86>-<   0.15  43  0>-<   0.12 313  3>
 ------------------------------------------------------------------------------------
 YEAR MO DA  --ORIGIN--  --LAT N-  --LON W--  DEPTH-M RMS   ERH   ERZ  XMAG1 FMAG1 PMAG GEOID-DEP
 2016-10-14  0002 37.63  42 39.43   13E16.95   8.88  0.13  0.15  0.36                       7.69
                                                                                          SOURCE
 NSTA NPHS  DMIN MODEL GAP ITR NFM NWR NWS NVR REMRKS-AVH  N.XMG-XMMAD-T   N.FMG-FMMAD-T  L F X
   36   60   2.5  MODS  45   7   0  56  32  60                                                 

 XMAG2-N.XMG2-XMMAD-T-S  FMAG2-N.FMG2-FMMAD-T-S  PREF.MAG-N.PMAG-PRMAD-T DEPDAT NS ZT TYP
                                                                           1191  5  M CRH

 EXTERNAL MAG= 0.52  NUMBER READINGS=    0  TYPE=L
 REGION=                          

 STA NET COM L CR DIST AZM  AN P/S WT   SEC (TOBS -TCAL -DLY  =RES)  WT   SR  INFO  CAL  DUR-W-FMAG-T -AMP-U-PER-W-XMAG-T DE
 T1299IV 001       2.5 181 161  P     39.37  1.74  1.58 0.17 -0.01  1.09     0.055                                           
        S                       S     40.81  3.18  2.98 0.23 -0.03  1.09S    0.234
 T1204IV 001       3.5  53 155  P     39.33  1.70  1.63 0.10 -0.03  1.09     0.051                                           
        S                       S     40.78  3.15  3.07 0.12 -0.04  1.09S    0.218
 SMA1 IV 001       5.2 124 144  P     39.46  1.83  1.77 0.11 -0.05  1.09     0.044                                           
        S                       S     41.01  3.38  3.32 0.05  0.01  1.09S    0.166
 T1202IV 001       7.0 318 135  P     39.83  2.20  1.94 0.12  0.14  1.09     0.035                                           
        S                       S     41.80  4.17  3.63 0.25  0.29  0.06S    0.000
 ED24 YR 001       7.4 269 133  P     39.79  2.16  1.98 0.00  0.18  1.09     0.037                                           
        S                       S     41.81  4.18  3.71 0.05  0.42  0.00S    0.000
 ED23 YR 001       9.6   2 124  P     39.99  2.36  2.23 0.19 -0.06  1.09     0.031                                           
        S                       S     41.99  4.36  4.19 0.38 -0.21  1.09S    0.106
 ED03 YR 001       9.7 232 124  P     39.99  2.36  2.24 0.05  0.07  1.09     0.039                                           
        S                       S     42.00  4.37  4.21 0.01  0.15  1.09S    0.118
 T1214IV 001      12.9 333 113  P     40.38  2.75  2.67-0.01  0.09  1.09     0.026                                           
        S                       S     42.69  5.06  5.00-0.16  0.22  1.09S    0.070
 T1218IV 001      13.8 277 111  P     40.45  2.82  2.80 0.00  0.02  1.09     0.031                                           
        S                       S     42.88  5.25  5.23 0.06 -0.04  1.09S    0.076
 ED07 YR 001      15.3 102 108  P     40.63  3.00  3.02-0.11  0.09  1.09     0.043                                           
        S                       S     43.20  5.57  5.63-0.15  0.09  1.09S    0.083
 ED20 YR 001      16.1  50 106  P     40.59  2.96  3.14-0.17 -0.01  1.09     0.042                                           
        S                       S     43.07  5.44  5.85-0.36 -0.05  1.09S    0.090
 CAMP IV 001      17.0 142 105  P     40.83  3.20  3.27-0.08  0.01  1.09     0.047                                           
        S                       S     43.56  5.93  6.08-0.32  0.17  1.09S    0.084
 RM33 IV 001      17.4 199 104  P     41.06  3.43  3.32 0.17 -0.06  1.09     0.050                                           
        S                       S     43.88  6.25  6.18-0.02  0.09  1.09S    0.100
 ED10 YRS001      17.7 320 104  S     43.67  6.04  6.26-0.19 -0.03  1.09S    0.056                                           
 T1246IV 001      19.1 115 102  P     41.15  3.52  3.58-0.13  0.07  1.09     0.051                                           
        S                       S     44.08  6.45  6.65-0.35  0.15  1.09S    0.088
 ED09 YR 001      19.7  35 101  P     41.15  3.52  3.67-0.15  0.00  1.09     0.045                                           
        S                       S     43.97  6.34  6.80-0.24 -0.22  0.79S    0.048
 ED16 YRS001      20.1   5 101  S     44.72  7.09  6.93 0.09  0.07  1.09S    0.074                                           
 ED05 YR 001      20.4 160 101  P     41.62  3.99  3.78-0.04  0.25  1.08     0.055                                           
        S                       S     44.96  7.33  7.02 0.09  0.22  0.49S    0.019
 ED11 YR 001      20.7 280 100  P     41.42  3.79  3.83 0.08 -0.12  1.09     0.037                                           
        S                       S     44.64  7.01  7.09 0.07 -0.15  1.09S    0.069
 ED01 YR 001      21.3 228 100  P     41.57  3.94  3.92-0.06  0.08  1.09     0.053                                           
        S                       S     45.08  7.45  7.25 0.00  0.20  1.07S    0.100
 T1212IV 001      22.1 299  99  P     41.59  3.96  4.04 0.03 -0.11  1.09     0.034                                           
        S                       S     44.92  7.29  7.48-0.02 -0.17  1.09S    0.060
 NRCA IV 001      24.0 325  98  P     41.96  4.33  4.32-0.12  0.13  1.09     0.035                                           
        S                       S     45.34  7.71  7.99-0.23 -0.05  1.09S    0.059
 ED14 YR 001      26.6 152  96  P     42.39  4.76  4.74-0.07  0.09  1.09     0.064                                           
        S                       S     46.41  8.78  8.73-0.01  0.06  1.09S    0.105
 TERO IV 001      26.6  98  96  P     42.10  4.47  4.74-0.28  0.01  1.09     0.062                                           
        S                       S     45.88  8.25  8.73-0.35 -0.13  1.09S    0.105
 ED15 YRS001      26.8 122  96  S     46.04  8.41  8.77-0.35 -0.01  1.09S    0.102                                           
 MMO1 IVS001      27.2   7  96  S     46.50  8.87  8.87-0.13  0.13  1.09S    0.082                                           
 T1217IV 001      29.4 283  95  P     42.62  4.99  5.17 0.05 -0.23  1.09     0.044                                           
        S                       S     47.03  9.40  9.50 0.07 -0.17  1.09S    0.074
 ED02 YR 001      29.6 259  95  P     42.75  5.12  5.20-0.06 -0.02  1.09     0.052                                           
        S                       S     47.05  9.42  9.56-0.22  0.08  1.09S    0.092
 ED12 YRS001      30.0 304  95  S     47.79 10.16  9.66-0.01  0.51* 0.00S    0.000                                           
 ED19 YRS001      31.4 339  95  S     47.80 10.17 10.06-0.01  0.12  1.09S    0.067                                           
 T1216IVS001      33.7 321  94  S     48.45 10.82 10.70-0.12  0.24  1.09S    0.063                                           
 ED17 YRS001      34.4   3  94  S     48.57 10.94 10.88-0.13  0.19  1.09S    0.083                                           
 ED18 YRS001      37.3 356  94  S     49.59 11.96 11.69 0.08  0.19  1.09S    0.080                                           
 T1215IVS001      37.5 296  94  S     49.24 11.61 11.76-0.15  0.00  1.09S    0.070                                           
 ED22 YRS001      39.0   5  93  S     50.17 12.54 12.17 0.18  0.19  0.97S    0.068                                           
 FDMO IVS001      45.1 340  93  S     51.84 14.21 13.86 0.00  0.35  0.10S    0.000                                           
 ####################################################################################
  14 OCT 2016,  0:02  SEQUENCE NO.    8, ID NO.         0
                                                        ADJUSTMENTS (KM)
  I ORIGIN   LAT N     LON W     Z   NWR  RMS    DT    DLAT   DLON    DZ    RR NF MOD
  1 57.83  42 38.35   13E16.63  8.00  17 0.60  0.492  1.309  1.005  0.000 1.650 3 MOD
 FREE DEPTH
  2 58.32  42 39.06   13E15.89  8.00  17 0.11  0.014  0.122  0.155  0.068 0.209 4 MOD
  3 58.34  42 39.12   13E15.78  8.07  17 0.11  0.002  0.000  0.006 -0.006 0.008 4 MOD
 BEGIN MAIN DISTANCE WEIGHTING
 BEGIN RESIDUAL WEIGHTING
  4 58.34  42 39.12   13E15.78  8.06  17 0.11  0.000  0.000  0.006 -0.006 0.009 4 MOD
  5 58.34  42 39.12   13E15.77  8.06  17 0.11  0.000  0.000  0.006 -0.006 0.009 4 MOD

              EIGENVALUES
     ( 4.162  0.552  0.391  0.253)
      EIGENVECTORS OF ADJUSTMENT                COVARIANCE             ERRORS
 OT  (-0.991  0.033 -0.021  0.131) (   0.007   0.008  -0.016  -0.039)   0.084
 LAT ( 0.016  0.102  0.963  0.249) (   0.008   0.150  -0.008  -0.046)   0.387
 LON (-0.076 -0.930  0.180 -0.312) (  -0.016  -0.008   0.097   0.076)   0.311
 Z   (-0.112  0.352  0.200 -0.907) (  -0.039  -0.046   0.076   0.287)   0.535
 ERROR ELLIPSE: <SERR AZ DIP>-<   0.57 232 66>-<   0.37 350 11>-<   0.26  83 20>
 ------------------------------------------------------------------------------------
 YEAR MO DA  --ORIGIN--  --LAT N-  --LON W--  DEPTH-M RMS   ERH   ERZ  XMAG1 FMAG1 PMAG GEOID-DEP
 2016-10-14  0002 58.34  42 39.12   13E15.77   8.06  0.11  0.36  0.52                       6.91
                                                                                          SOURCE
 NSTA NPHS  DMIN MODEL GAP ITR NFM NWR NWS NVR REMRKS-AVH  N.XMG-XMMAD-T   N.FMG-FMMAD-T  L F X
   10   17   2.5  MODS  96   5   0  17   8  17                                                 

 XMAG2-N.XMG2-XMMAD-T-S  FMAG2-N.FMG2-FMMAD-T-S  PREF.MAG-N.PMAG-PRMAD-T DEPDAT NS ZT TYP
                                                                           1151  5  M CRH

 EXTERNAL MAG= 0.04  NUMBER READINGS=    0  TYPE=L
 REGION=                          

 STA NET COM L CR DIST AZM  AN P/S WT   SEC (TOBS -TCAL -DLY  =RES)  WT   SR  INFO  CAL  DUR-W-FMAG-T -AMP-U-PER-W-XMAG-T DE
 T1299IV 001       2.5 141 159  P     59.83  1.49  1.46 0.17 -0.14  1.00     0.088                                           
        S                       S     61.11  2.77  2.76 0.23 -0.22  1.00S    0.343
 T1204IV 001       5.2  58 141  P     60.10  1.76  1.65 0.10  0.01  1.00     0.070                                           
        S                       S     61.51  3.17  3.12 0.12 -0.07  1.00S    0.365
 ED24 YR 001       5.8 275 137  P     60.08  1.74  1.72 0.00  0.02  1.00     0.194                                           
        S                       S     61.70  3.36  3.24 0.05  0.07  1.00S    0.318
 SMA1 IV 001       6.4 111 134  P     60.42  2.08  1.78 0.11  0.19  1.00     0.081                                           
        S                       S     61.98  3.64  3.36 0.05  0.23  1.00S    0.284
 ED03 YRS001       8.1 228 125  S     62.00  3.66  3.71 0.01 -0.06  1.00S    0.472                                           
 ED23 YR 001      10.3  11 116  P     60.74  2.40  2.26 0.19 -0.05  1.00     0.172                                           
        S                       S     62.82  4.48  4.25 0.38 -0.15  1.00S    0.439
 ED07 YR 001      16.8  99 100  P     61.54  3.20  3.20-0.11  0.11  1.00     0.143                                           
        S                       S     64.22  5.88  5.97-0.15  0.06  1.00S    0.231
 ED20 YR 001      17.8  52 102  P     61.49  3.15  3.35-0.17 -0.03  1.00     0.148                                           
 ED09 YR 001      21.1  38  98  P     61.95  3.61  3.86-0.15 -0.10  1.00     0.199                                           
 TERO IV 001      28.2  96  93  P     63.08  4.74  4.96-0.28  0.06  1.00     0.188                                           
        S                       S     67.04  8.70  9.13-0.35 -0.08  1.00S    0.255
 ####################################################################################
