 HYPOINVERSE 2000
 6/2014 VERSION 1.40 (geoid depth possible)                            
 RUN ON Sun Aug  1 16:03:27 2021      RUN LABEL= 
 PROCESSING DOMAIN=NC  PROCESSING VERSION=01


 TEST PARAMETERS:
   -ITERATION AND CONVERGENCE-     -WEIGHTING AND ERRORS-     -MISCELLANEOUS-
       20=ITRLIM   0.900=DAMP    50.000=DISCUT   0.160=RMSCUT       5=MINSTA
    0.040=DQUIT    0.001=DRQT     1.000=DISW1    1.500=RMSW1        0=NET
    7.000=DXFIX    0.012=EIGTOL   3.000=DISW2    3.000=RMSW2 
   30.000=DZMAX    0.020=RBACK        4=ITRDIS       4=ITRRES   8.000=ZTR
    0.500=DZAIR    0.600=BACFAC   1.000=SWT      0.100=RDERR 
                                                 1.000=ERCOF

      ------DURATION MAG CONSTANTS------       -DELAYS & MISC-    -STATIONS-
   -5.200=FMA1    -0.905=FMA2   -1.0300=DMA0         F=LMULT        F=ATTEN
    3.890=FMB1     2.026=FMB2    2.1000=DMA1         T=CODAWT       5=SITE-LET
    0.013=FMZ1     0.013=FMZ2    0.0000=DMA2         F=LJUNK        2=NET-LET
    0.004=FMD1     0.004=FMD2    0.0000=DMZ                         0=COMP-LET
    0.000=FMF1     0.000=FMF2    1.0000=DMGN  
    0.000=FMGN   210.000=FMBRK   0.0027=DMLIN 
   0.0000=DCOF1    0.000=DBRK1        1=LOGA0 
   0.0000=DCOF2    0.000=DBRK2 
   0.0000=ZCOF     0.000=ZBRK  

    --- MAGNITUDE LABELS & COMPONENTS ---
    FMAG1: LABEL=   ALL COMPS=
    FMAG2: LABEL=    NO COMPS=
    XMAG1: LABEL=   ALL  TYPE=ALL  COMPS=
    XMAG2: LABEL=    NO  TYPE=ALL  COMPS=
    FMAG1 MAGSEL=1  FMAG2 MAGSEL=1

 INPUT FILES:
 COMMANDS:    hypinst                                                     
                                                                          
 STATIONS:    station.dat                                                 STATION FORMAT CODE= 3
 DELAYS:       S.del                                                       
 ATTENUATIONS:                                                             
 CAL FACTORS:                                                              
 FMAG CORRECT:                                                             
 XMAG CORRECT:                                                             

 PHASES:       hypoinput.arc                                               
        PHASE FORMAT CODE= 3, TERMINATOR FORMAT CODE=1
 HOMOGENEOUS LAYER CRUST 1:  vel_model_P.crh                                             
 HOMOGENEOUS LAYER CRUST 2:  vel_model_S.crh                                             

 OUTPUT FILES: (T IF APPENDED TO)
 (F) PRINTOUT:    prtOut.prt                                                  
 (F) SUMMARY:     catOut.sum                                                  FORMAT CODE=3
 (F) ARCHIVE:     hypoOut.arc                                                 ARCHIVE FORMAT CODE= 1

 ####################################################################################
  14 OCT 2016,  0:00  SEQUENCE NO.    1, ID NO.         0
                                                        ADJUSTMENTS (KM)
  I ORIGIN   LAT N     LON W     Z   NWR  RMS    DT    DLAT   DLON    DZ    RR NF MOD
  1  8.49  42 51.69   13E10.98  8.00  82 1.03  0.627 -5.268 -2.198  0.000 5.708 3 MOD
 FREE DEPTH
  2  9.12  42 48.85   13E12.60  8.00  82 0.24  0.044 -0.369 -0.133 -2.182 2.217 4 MOD
  3  9.16  42 48.65   13E12.69  5.82  82 0.19 -0.070 -0.074 -0.035 -0.019 0.084 4 MOD
 BEGIN MAIN DISTANCE WEIGHTING
 BEGIN RESIDUAL WEIGHTING
  4  9.09  42 48.61   13E12.72  5.80  79 0.13 -0.042  0.190 -0.035  0.235 0.304 4 MOD
  5  9.05  42 48.71   13E12.75  6.03  78 0.11 -0.007  0.037 -0.013 -0.007 0.040 4 MOD
  6  9.04  42 48.73   13E12.76  6.03  78 0.11 -0.001  0.011 -0.005  0.005 0.013 4 MOD

              EIGENVALUES
     ( 9.072  1.547  1.287  0.850)
      EIGENVECTORS OF ADJUSTMENT                COVARIANCE             ERRORS
 OT  (-0.998 -0.048  0.022  0.016) (   0.000  -0.001   0.000  -0.000)   0.018
 LAT (-0.056  0.907 -0.355 -0.221) (  -0.001   0.011  -0.001   0.005)   0.105
 LON ( 0.003  0.360  0.933 -0.024) (   0.000  -0.001   0.013   0.001)   0.115
 Z   (-0.004 -0.215  0.058 -0.975) (  -0.000   0.005   0.001   0.030)   0.174
 ERROR ELLIPSE: <SERR AZ DIP>-<   0.18 353 77>-<   0.12 249  3>-<   0.10 158 12>
 ------------------------------------------------------------------------------------
 YEAR MO DA  --ORIGIN--  --LAT N-  --LON W--  DEPTH-M RMS   ERH   ERZ  XMAG1 FMAG1 PMAG GEOID-DEP
 2016-10-14  0000  9.04  42 48.73   13E12.76   6.03  0.11  0.12  0.17                       4.86
                                                                                          SOURCE
 NSTA NPHS  DMIN MODEL GAP ITR NFM NWR NWS NVR REMRKS-AVH  N.XMG-XMMAD-T   N.FMG-FMMAD-T  L F X
   43   82   5.3  MODS  27   6   0  78  37  82                                                 

 XMAG2-N.XMG2-XMMAD-T-S  FMAG2-N.FMG2-FMMAD-T-S  PREF.MAG-N.PMAG-PRMAD-T DEPDAT NS ZT TYP
                                                                           1164  5  M CRH

 EXTERNAL MAG= 0.91  NUMBER READINGS=    0  TYPE=L
 REGION=                          

 STA NET COM L CR DIST AZM  AN P/S WT   SEC (TOBS -TCAL -DLY  =RES)  WT   SR  INFO  CAL  DUR-W-FMAG-T -AMP-U-PER-W-XMAG-T DE
 T1245IV 001       5.3 338 135  P     10.49  1.45  1.42-0.03  0.06  1.03     0.038                                           
        S                       S     11.80  2.76  2.71 0.12 -0.07  1.03S    0.090
 T1214IV 001       5.9 184 131  P     10.60  1.56  1.48-0.01  0.09  1.03     0.036                                           
        S                       S     11.91  2.87  2.83-0.16  0.20  1.03S    0.104
 ED10 YR 001       7.0 237 126  P     10.64  1.60  1.63-0.08  0.05  1.03     0.034                                           
        S                       S     11.98  2.94  3.11-0.19  0.02  1.03S    0.095
 ED16 YR 001       8.2  70 121  P     10.92  1.88  1.79 0.07  0.02  1.03     0.039                                           
        S                       S     12.59  3.55  3.42 0.09  0.04  1.03S    0.096
 NRCA IV 001       8.4 287 120  P     10.80  1.76  1.82-0.12  0.06  1.03     0.033                                           
        S                       S     12.31  3.27  3.46-0.23  0.04  1.03S    0.080
 ED23 YR 001       9.8 141 116  P     11.20  2.16  2.02 0.19 -0.05  1.03     0.030                                           
        S                       S     13.28  4.24  3.86 0.38 -0.00  1.03S    0.079
 MC2  IVS001      11.2 351 112  S     13.91  4.87  4.26 0.43  0.18  0.00S    0.000                                           
 T1202IV 001      12.1 175 110  P     11.61  2.57  2.38 0.12  0.07  1.03     0.026                                           
        S                       S     13.89  4.85  4.52 0.25  0.08  1.03S    0.068
 ED19 YR 001      13.4 334 108  P     11.64  2.60  2.58 0.03 -0.01  1.03     0.033                                           
        S                       S     13.94  4.90  4.89-0.01  0.02  1.03S    0.069
 MMO1 IV 001      13.5  43 108  P     11.64  2.60  2.59-0.07  0.08  1.03     0.038                                           
        S                       S     13.88  4.84  4.92-0.13  0.05  1.03S    0.086
 T1212IV 001      15.3 244 105  P     11.98  2.94  2.89 0.03  0.02  1.03     0.028                                           
        S                       S     14.52  5.48  5.47-0.02  0.03  1.03S    0.072
 ED09 YR 001      17.3  94 103  P     12.14  3.10  3.22-0.15  0.03  1.03     0.033                                           
        S                       S     14.91  5.87  6.08-0.24  0.03  1.03S    0.079
 T1204IV 001      17.4 150 104  P     12.33  3.29  3.23 0.10 -0.04  1.03     0.024                                           
 ED24 YR 001      17.5 186 103  P     12.30  3.26  3.24 0.00  0.02  1.03     0.023                                           
        S                       S     15.59  6.55  6.12 0.05  0.38  0.04S    0.000
 T1218IV 001      17.7 207 103  P     12.46  3.42  3.28 0.00  0.14  1.03     0.024                                           
        S                       S     15.32  6.28  6.19 0.06  0.03  1.03S    0.063
 T1216IV 001      18.1 299 102  P     12.29  3.25  3.34-0.02 -0.07  1.03     0.031                                           
        S                       S     15.26  6.22  6.31-0.12  0.03  1.03S    0.069
 ED17 YR 001      18.8  24 102  P     12.39  3.35  3.46-0.10 -0.01  1.03     0.038                                           
        S                       S     15.59  6.55  6.52-0.13  0.16  1.03S    0.082
 ED12 YR 001      19.3 269 101  P     12.56  3.52  3.54 0.02 -0.04  1.03     0.029                                           
        S                       S     15.79  6.75  6.67-0.01  0.09  1.03S    0.071
 ED20 YR 001      19.5 111 101  P     12.44  3.40  3.58-0.17 -0.01  1.03     0.030                                           
        S                       S     15.44  6.40  6.76-0.36 -0.00  1.03S    0.071
 ED18 YR 001      20.1   7 101  P     12.78  3.74  3.67 0.07 -0.00  1.03     0.037                                           
        S                       S     15.95  6.91  6.92 0.08 -0.09  1.03S    0.078
 ED11 YR 001      20.1 227 101  P     12.83  3.79  3.68 0.08  0.03  1.03     0.026                                           
        S                       S     15.89  6.85  6.93 0.07 -0.15  1.03S    0.066
 T1299IV 001      20.6 163 100  P     12.90  3.86  3.76 0.17 -0.07  1.03     0.022                                           
        S                       S     16.30  7.26  7.08 0.23 -0.05  1.03S    0.055
 SMA1 IV 001      22.5 153  99  P     13.02  3.98  4.08 0.11 -0.21  1.03     0.022                                           
        S                       S     16.59  7.55  7.68 0.05 -0.18  1.03S    0.055
 ED03 YR 001      23.3 185  63  P     13.45  4.41  4.21 0.05  0.15  1.03     0.021                                           
        S                       S     17.04  8.00  7.90 0.01  0.09  1.03S    0.055
 ED22 YR 001      23.5  23  63  P     13.50  4.46  4.24 0.08  0.14  1.03     0.038                                           
        S                       S     17.39  8.35  7.95 0.18  0.22  0.72S    0.060
 ED21 YR 001      24.7  11  99  P     13.38  4.34  4.44-0.06 -0.04  1.03     0.037                                           
 T1217IV 001      25.6 245  63  P     13.62  4.58  4.59 0.05 -0.06  1.03     0.027                                           
        S                       S     17.79  8.75  8.54 0.07  0.14  1.03S    0.083
 FDMO IV 001      26.9 338  63  P     13.78  4.74  4.82-0.06 -0.02  1.03     0.035                                           
        S                       S     17.88  8.84  8.91 0.00 -0.07  1.03S    0.116
 T1215IV 001      28.2 268  63  P     13.93  4.89  5.02-0.06 -0.07  1.03     0.036                                           
        S                       S     18.10  9.06  9.26-0.15 -0.05  1.03S    0.094
 ED07 YR 001      29.1 134  63  P     13.93  4.89  5.16-0.11 -0.16  1.03     0.026                                           
        S                       S     18.57  9.53  9.51-0.15  0.17  1.03S    0.064
 GUMA IV 001      29.6  19  63  P     14.83  5.79  5.24 0.35  0.20  1.03     0.050                                           
        S                       S     19.96 10.92  9.65 0.81  0.46  0.00S    0.000
 CSP1 IV 001      31.1 359  63  P     14.45  5.41  5.47 0.02 -0.08  1.03     0.049                                           
        S                       S     19.70 10.66 10.07 0.00  0.59* 0.00S    0.000
 ED02 YR 001      32.8 226  63  P     14.73  5.69  5.75-0.06 -0.00  1.03     0.028                                           
        S                       S     19.56 10.52 10.56-0.22  0.18  1.03S    0.073
 CESI IV 001      33.0 311  63  P     14.69  5.65  5.78 0.05 -0.18  1.03     0.043                                           
        S                       S     19.73 10.69 10.61 0.03  0.05  1.03S    0.109
 ED01 YR 001      33.2 198  63  P     14.84  5.80  5.81-0.06  0.05  1.03     0.023                                           
        S                       S     19.71 10.67 10.67 0.00 -0.00  1.03S    0.059
 RM33 IV 001      33.7 179  63  P     15.12  6.08  5.88 0.17  0.03  1.03     0.022                                           
        S                       S     19.99 10.95 10.80-0.02  0.17  1.03S    0.054
 T1246IV 001      34.3 137  63  P     14.81  5.77  5.97-0.13 -0.07  1.03     0.026                                           
        S                       S     19.83 10.79 10.96-0.35  0.18  1.03S    0.062
 CAMP IV 001      34.7 152  63  P     14.82  5.78  6.04-0.08 -0.18  1.03     0.023                                           
        S                       S     19.84 10.80 11.07-0.32  0.05  1.03S    0.056
 TERO IV 001      38.3 123  63  P     15.37  6.33  6.61-0.28  0.00  1.03     0.029                                           
        S                       S     20.99 11.95 12.10-0.35  0.20  1.03S    0.070
 ED05 YR 001      38.6 161  63  P     15.60  6.56  6.65-0.04 -0.05  1.03     0.022                                           
        S                       S     21.42 12.38 12.17 0.09  0.12  1.03S    0.054
 ED08 YRS001      41.3 199  63  S     22.23 13.19 12.94 0.04  0.21  0.97S    0.052                                           
 ED15 YR 001      42.4 137  63  P     15.90  6.86  7.25-0.19 -0.20  1.03     0.026                                           
        S                       S     21.99 12.95 13.24-0.35  0.06  1.03S    0.062
 ED14 YR 001      44.6 156  63  P     16.38  7.34  7.60-0.07 -0.19  1.03     0.023                                           
        S                       S     22.95 13.91 13.86-0.01  0.06  1.03S    0.055
 ####################################################################################
  14 OCT 2016,  0:01  SEQUENCE NO.    2, ID NO.         0
                                                        ADJUSTMENTS (KM)
  I ORIGIN   LAT N     LON W     Z   NWR  RMS    DT    DLAT   DLON    DZ    RR NF MOD
  1 17.49  42 46.92   13E 8.17  8.00  20 0.92  0.631  2.427 -4.649  0.000 5.244 3 MOD
 FREE DEPTH
  2 18.12  42 48.23   13E11.59  8.00  20 0.26  0.061 -0.006 -0.442 -2.006 2.054 4 MOD
  3 18.18  42 48.23   13E11.91  5.99  20 0.16 -0.047 -0.019 -0.029  0.131 0.136 4 MOD
 BEGIN MAIN DISTANCE WEIGHTING
 BEGIN RESIDUAL WEIGHTING
  4 18.13  42 48.22   13E11.94  6.13  19 0.12 -0.068 -0.259 -0.028  0.346 0.433 4 MOD
  5 18.07  42 48.08   13E11.96  6.47  19 0.11 -0.029 -0.054  0.078  0.272 0.288 4 MOD
  6 18.04  42 48.05   13E11.90  6.74  19 0.11  0.017 -0.005 -0.037 -0.191 0.195 4 MOD
  7 18.05  42 48.04   13E11.93  6.55  19 0.11 -0.020  0.000  0.044  0.207 0.211 4 MOD

              EIGENVALUES
     ( 4.382  0.791  0.634  0.373)
      EIGENVECTORS OF ADJUSTMENT                COVARIANCE             ERRORS
 OT  (-0.995 -0.028  0.033  0.095) (   0.003   0.001  -0.003  -0.014)   0.050
 LAT ( 0.012  0.613  0.790  0.033) (   0.001   0.046   0.008  -0.006)   0.214
 LON ( 0.010 -0.742  0.589 -0.320) (  -0.003   0.008   0.053   0.034)   0.229
 Z   (-0.103  0.271 -0.169 -0.942) (  -0.014  -0.006   0.034   0.139)   0.373
 ERROR ELLIPSE: <SERR AZ DIP>-<   0.39 264 71>-<   0.23 143  9>-<   0.18  50 15>
 ------------------------------------------------------------------------------------
 YEAR MO DA  --ORIGIN--  --LAT N-  --LON W--  DEPTH-M RMS   ERH   ERZ  XMAG1 FMAG1 PMAG GEOID-DEP
 2016-10-14  0001 18.05  42 48.04   13E11.93   6.55  0.11  0.23  0.37                       5.39
                                                                                          SOURCE
 NSTA NPHS  DMIN MODEL GAP ITR NFM NWR NWS NVR REMRKS-AVH  N.XMG-XMMAD-T   N.FMG-FMMAD-T  L F X
   13   20   4.7  MODS  62   7   0  19  12  20                                                 

 XMAG2-N.XMG2-XMMAD-T-S  FMAG2-N.FMG2-FMMAD-T-S  PREF.MAG-N.PMAG-PRMAD-T DEPDAT NS ZT TYP
                                                                           1164  5  M CRH
 REGION=                          

 STA NET COM L CR DIST AZM  AN P/S WT   SEC (TOBS -TCAL -DLY  =RES)  WT   SR  INFO  CAL  DUR-W-FMAG-T -AMP-U-PER-W-XMAG-T DE
 T1214IV 001       4.7 169 141  P     19.49  1.44  1.41-0.01  0.04  1.00     0.092                                           
        S                       S     20.76  2.71  2.69-0.16  0.18  1.00S    0.290
 ED10 YR 001       5.4 241 137  P     19.49  1.44  1.49-0.08  0.03  1.00     0.073                                           
        S                       S     20.59  2.54  2.84-0.19 -0.11  1.00S    0.170
 T1245IV 001       6.3 352 132  P     19.65  1.60  1.59-0.03  0.04  1.00     0.080                                           
        S                       S     21.15  3.10  3.03 0.12 -0.05  1.00S    0.242
 NRCA IV 001       7.8 298 125  P     19.78  1.73  1.79-0.12  0.06  1.00     0.091                                           
        S                       S     21.24  3.19  3.41-0.23  0.01  1.00S    0.200
 ED16 YR 001       9.7  65 119  P     20.05  2.00  2.06 0.07 -0.13  1.00     0.096                                           
        S                       S     22.23  4.18  3.91 0.09  0.18  1.00S    0.279
 T1202IVS001      11.0 168 115  S     22.47  4.42  4.27 0.25 -0.10  1.00S    0.264                                           
 T1212IV 001      13.7 247 110  P     20.78  2.73  2.67 0.03  0.03  1.00     0.131                                           
        S                       S     23.09  5.04  5.06-0.02  0.00  1.00S    0.228
 ED19 YRS001      14.1 340 109  S     23.27  5.22  5.15-0.01  0.08  1.00S    0.241                                           
 MMO1 IVS001      15.2  43 108  S     23.46  5.41  5.47-0.13  0.07  1.00S    0.219                                           
 ED24 YRS001      16.1 182 106  S     24.43  6.38  5.76 0.05  0.57* 0.00S    0.000                                           
 ED11 YRS001      18.4 228 104  S     24.81  6.76  6.45 0.07  0.24  1.00S    0.259                                           
 ED20 YR 001      20.2 106  63  P     21.54  3.49  3.71-0.17 -0.05  1.00     0.129                                           
        S                       S     24.74  6.69  6.96-0.36  0.09  1.00S    0.461
 ED17 YRS001      20.4  26  63  S     24.88  6.83  7.02-0.13 -0.06  1.00S    0.446                                           
 ####################################################################################
