  14 OCT 2016,  0:03  SEQUENCE NO.    9, ID NO.         0
                                                        ADJUSTMENTS (KM)
  I ORIGIN   LAT N     LON W     Z   NWR  RMS    DT    DLAT   DLON    DZ    RR NF MOD
  1  4.35  42 45.87   13E12.22  8.00  11 1.03  0.792 -4.119  2.373  0.000 4.753 3 MOD
 FREE DEPTH
  2  5.14  42 43.65   13E10.48  8.00  11 0.38  0.418  0.681 -0.224 -4.283 4.343 4 MOD
  3  5.56  42 44.02   13E10.64  3.72  11 0.20 -0.101  0.043 -0.468  0.841 0.964 4 MOD
 BEGIN MAIN DISTANCE WEIGHTING
 BEGIN RESIDUAL WEIGHTING
  4  5.46  42 44.04   13E10.99  4.56  11 0.13 -0.023 -0.030 -0.055  0.059 0.086 4 MOD
  5  5.44  42 44.02   13E11.03  4.62  11 0.12 -0.008 -0.010  0.006  0.035 0.036 4 MOD
  6  5.43  42 44.02   13E11.02  4.65  11 0.12 -0.001 -0.009  0.015 -0.008 0.020 4 MOD

              EIGENVALUES
     ( 3.347  0.531  0.387  0.308)
      EIGENVECTORS OF ADJUSTMENT                COVARIANCE             ERRORS
 OT  (-0.991  0.007 -0.087 -0.103) (   0.006  -0.001  -0.019  -0.024)   0.079
 LAT (-0.010 -1.000  0.015  0.019) (  -0.001   0.089   0.002   0.003)   0.298
 LON (-0.105  0.019  0.976  0.189) (  -0.019   0.002   0.169   0.017)   0.411
 Z   (-0.084  0.017 -0.199  0.976) (  -0.024   0.003   0.017   0.259)   0.509
 ERROR ELLIPSE: <SERR AZ DIP>-<   0.51 277 79>-<   0.41  91 10>-<   0.30   1  0>
 ------------------------------------------------------------------------------------
 YEAR MO DA  --ORIGIN--  --LAT N-  --LON W--  DEPTH-M RMS   ERH   ERZ  XMAG1 FMAG1 PMAG GEOID-DEP
 2016-10-14  0003  5.43  42 44.02   13E11.02   4.65  0.12  0.40  0.50                       3.45
                                                                                          SOURCE
 NSTA NPHS  DMIN MODEL GAP ITR NFM NWR NWS NVR REMRKS-AVH  N.XMG-XMMAD-T   N.FMG-FMMAD-T  L F X
    7   11   3.5  MODS 121   6   0  11   6  11                                                 

 XMAG2-N.XMG2-XMMAD-T-S  FMAG2-N.FMG2-FMMAD-T-S  PREF.MAG-N.PMAG-PRMAD-T DEPDAT NS ZT TYP
                                                                           1203  5  M CRH

 EXTERNAL MAG= 0.04  NUMBER READINGS=    0  TYPE=L
 REGION=                          

 STA NET COM L CR DIST AZM  AN P/S WT   SEC (TOBS -TCAL -DLY  =RES)  WT   SR  INFO  CAL  DUR-W-FMAG-T -AMP-U-PER-W-XMAG-T DE
 T1214IV 001       3.5  35 138  P      6.35  0.92  1.04-0.01 -0.11  1.00     0.157                                           
        S                       S      7.25  1.82  2.01-0.16 -0.03  1.00S    0.434
 T1202IV 001       4.7 134 128  P      6.62  1.19  1.18 0.12 -0.11  1.00     0.121                                           
        S                       S      7.90  2.47  2.29 0.25 -0.07  1.00S    0.357
 ED23 YR 001       8.5  82 110  P      7.31  1.88  1.73 0.19 -0.04  1.00     0.112                                           
        S                       S      9.17  3.74  3.32 0.38  0.04  1.00S    0.341
 ED24 YR 001       8.7 175 109  P      7.30  1.87  1.76 0.00  0.11  1.00     0.225                                           
        S                       S      8.80  3.37  3.37 0.05 -0.05  1.00S    0.417
 ED12 YR 001      18.7 296  97  P      8.91  3.48  3.41 0.02  0.05  1.00     0.620                                           
 ED17 YRS001      27.7  21  94  S     14.69  9.26  9.24-0.13  0.15  1.00S    0.456                                           
 TERO IVS001      36.6 109  63  S     16.80 11.37 11.80-0.35 -0.08  1.00S    0.755                                           
 ####################################################################################
  14 OCT 2016,  0:03  SEQUENCE NO.   10, ID NO.         0
                                                        ADJUSTMENTS (KM)
  I ORIGIN   LAT N     LON W     Z   NWR  RMS    DT    DLAT   DLON    DZ    RR NF MOD
  1 10.39  42 45.87   13E12.22  8.00  10 0.87  0.769 -3.213  1.986  0.000 3.777 3 MOD
 FREE DEPTH
  2 11.16  42 44.14   13E10.76  8.00  10 0.29  0.374  0.614  0.006 -3.431 3.486 4 MOD
  3 11.53  42 44.47   13E10.76  4.57  10 0.12 -0.018  0.006  0.025 -0.251 0.253 4 MOD
 BEGIN MAIN DISTANCE WEIGHTING
 BEGIN RESIDUAL WEIGHTING
  4 11.51  42 44.47   13E10.74  4.32  10 0.11  0.001  0.011  0.007 -0.097 0.098 4 MOD
  5 11.52  42 44.48   13E10.73  4.22  10 0.11  0.002 -0.004 -0.002 -0.008 0.009 4 MOD

              EIGENVALUES
     ( 3.199  0.513  0.415  0.187)
      EIGENVECTORS OF ADJUSTMENT                COVARIANCE             ERRORS
 OT  (-0.988 -0.082  0.101  0.078) (   0.008  -0.002  -0.008  -0.049)   0.087
 LAT (-0.030  0.886  0.460 -0.041) (  -0.002   0.092  -0.020   0.019)   0.303
 LON (-0.117  0.456 -0.874  0.125) (  -0.008  -0.020   0.123  -0.062)   0.350
 Z   (-0.091  0.015 -0.122 -0.988) (  -0.049   0.019  -0.062   0.602)   0.776
 ERROR ELLIPSE: <SERR AZ DIP>-<   0.78  73 82>-<   0.35 241  7>-<   0.29 331  1>
 ------------------------------------------------------------------------------------
 YEAR MO DA  --ORIGIN--  --LAT N-  --LON W--  DEPTH-M RMS   ERH   ERZ  XMAG1 FMAG1 PMAG GEOID-DEP
 2016-10-14  0003 11.52  42 44.48   13E10.73   4.22  0.11  0.35  0.77                       3.06
                                                                                          SOURCE
 NSTA NPHS  DMIN MODEL GAP ITR NFM NWR NWS NVR REMRKS-AVH  N.XMG-XMMAD-T   N.FMG-FMMAD-T  L F X
    6   10   3.2  MODS 149   5   0  10   6  10                                                 

 XMAG2-N.XMG2-XMMAD-T-S  FMAG2-N.FMG2-FMMAD-T-S  PREF.MAG-N.PMAG-PRMAD-T DEPDAT NS ZT TYP
                                                                           1156  5  M CRH
 REGION=                          

 STA NET COM L CR DIST AZM  AN P/S WT   SEC (TOBS -TCAL -DLY  =RES)  WT   SR  INFO  CAL  DUR-W-FMAG-T -AMP-U-PER-W-XMAG-T DE
 T1214IV 001       3.2  50 138  P     12.39  0.87  0.94-0.01 -0.06  1.00     0.185                                           
        S                       S     13.31  1.79  1.83-0.16  0.12  1.00S    0.722
 T1202IV 001       5.6 138 118  P     12.82  1.30  1.26 0.12 -0.08  1.00     0.130                                           
        S                       S     14.07  2.55  2.44 0.25 -0.14  1.00S    0.325
 ED23 YR 001       8.9  88 105  P     13.53  2.01  1.76 0.19  0.06  1.00     0.166                                           
        S                       S     15.31  3.79  3.38 0.38  0.03  1.00S    0.327
 ED24 YR 001       9.6 173 103  P     13.28  1.76  1.87 0.00 -0.11  1.00     0.265                                           
        S                       S     15.21  3.69  3.59 0.05  0.05  1.00S    0.483
 ED20 YRS001      21.0  87  94  S     18.32  6.80  7.14-0.36  0.02  1.00S    0.553                                           
 T1216IVS001      21.1 322  94  S     18.72  7.20  7.17-0.12  0.15  1.00S    0.838                                           
 ####################################################################################
  14 OCT 2016,  0:03  SEQUENCE NO.   11, ID NO.         0
                                                        ADJUSTMENTS (KM)
  I ORIGIN   LAT N     LON W     Z   NWR  RMS    DT    DLAT   DLON    DZ    RR NF MOD
  1 18.97  42 46.92   13E 8.17  8.00  41 0.84  0.628  3.404 -0.949  0.000 3.534 3 MOD
 FREE DEPTH
  2 19.60  42 48.76   13E 8.87  8.00  41 0.15  0.076  0.223 -0.156 -1.225 1.255 4 MOD
  3 19.67  42 48.88   13E 8.98  6.77  41 0.12 -0.025 -0.006  0.003  0.208 0.208 4 MOD
 BEGIN MAIN DISTANCE WEIGHTING
 BEGIN RESIDUAL WEIGHTING
  4 19.65  42 48.87   13E 8.98  6.98  41 0.12 -0.007  0.016 -0.042 -0.154 0.161 4 MOD
  5 19.64  42 48.88   13E 9.01  6.83  41 0.11 -0.003  0.022  0.018  0.107 0.110 4 MOD
  6 19.64  42 48.89   13E 9.00  6.93  41 0.11  0.001  0.008  0.015  0.035 0.039 4 MOD

              EIGENVALUES
     ( 6.415  1.108  0.934  0.789)
      EIGENVECTORS OF ADJUSTMENT                COVARIANCE             ERRORS
 OT  (-1.000  0.009 -0.025  0.009) (   0.001  -0.000  -0.001  -0.000)   0.024
 LAT (-0.006  0.837  0.547 -0.018) (  -0.000   0.021   0.003  -0.001)   0.145
 LON (-0.027 -0.511  0.769 -0.383) (  -0.001   0.003   0.026   0.005)   0.161
 Z   ( 0.002  0.196 -0.330 -0.924) (  -0.000  -0.001   0.005   0.035)   0.187
 ERROR ELLIPSE: <SERR AZ DIP>-<   0.19 272 67>-<   0.16 126 19>-<   0.14  31 11>
 ------------------------------------------------------------------------------------
 YEAR MO DA  --ORIGIN--  --LAT N-  --LON W--  DEPTH-M RMS   ERH   ERZ  XMAG1 FMAG1 PMAG GEOID-DEP
 2016-10-14  0003 19.64  42 48.89   13E 9.00   6.93  0.11  0.15  0.18                       6.11
                                                                                          SOURCE
 NSTA NPHS  DMIN MODEL GAP ITR NFM NWR NWS NVR REMRKS-AVH  N.XMG-XMMAD-T   N.FMG-FMMAD-T  L F X
   24   41   3.6  MODS  47   6   0  41  23  41                                                 

 XMAG2-N.XMG2-XMMAD-T-S  FMAG2-N.FMG2-FMMAD-T-S  PREF.MAG-N.PMAG-PRMAD-T DEPDAT NS ZT TYP
                                                                            822  5  M CRH

 EXTERNAL MAG= 0.09  NUMBER READINGS=    0  TYPE=L
 REGION=                          

 STA NET COM L CR DIST AZM  AN P/S WT   SEC (TOBS -TCAL -DLY  =RES)  WT   SR  INFO  CAL  DUR-W-FMAG-T -AMP-U-PER-W-XMAG-T DE
 NRCA IV 001       3.6 306 150  P     20.97  1.33  1.37-0.12  0.08  1.01     0.069                                           
        S                       S     22.05  2.41  2.60-0.23  0.04  1.01S    0.166
 ED10 YR 001       4.3 190 146  P     20.97  1.33  1.43-0.08 -0.02  1.01     0.061                                           
        S                       S     22.08  2.44  2.72-0.19 -0.09  1.01S    0.147
 T1214IV 001       7.8 142 127  P     21.45  1.81  1.83-0.01 -0.01  1.01     0.058                                           
        S                       S     23.01  3.37  3.48-0.16  0.05  1.01S    0.147
 T1212IV 001      11.1 231 117  P     21.93  2.29  2.30 0.03 -0.04  1.01     0.056                                           
        S                       S     23.90  4.26  4.35-0.02 -0.07  1.01S    0.122
 MC2  IVS001      11.2  16 117  S     24.47  4.83  4.37 0.43  0.03  0.65S    0.055                                           
 ED19 YR 001      11.7 356 116  P     22.21  2.57  2.38 0.03  0.16  1.01     0.060                                           
        S                       S     24.19  4.55  4.51-0.01  0.05  1.01S    0.138
 ED16 YRS001      13.1  79 113  S     24.62  4.98  4.91 0.09 -0.02  1.01S    0.136                                           
 T1216IV 001      13.6 309 112  P     22.26  2.62  2.68-0.02 -0.04  1.01     0.068                                           
        S                       S     24.71  5.07  5.06-0.12  0.13  1.01S    0.156
 ED23 YRS001      13.8 125 111  S     25.19  5.55  5.10 0.38  0.07  0.98S    0.130                                           
 T1202IV 001      13.8 153 111  P     22.49  2.85  2.70 0.12  0.03  1.01     0.053                                           
        S                       S     25.11  5.47  5.12 0.25  0.10  1.01S    0.128
 ED12 YR 001      14.2 267 112  P     22.35  2.71  2.76 0.02 -0.07  1.01     0.065                                           
 ED11 YRS001      17.0 215  63  S     25.81  6.17  6.00 0.07  0.10  1.01S    0.141                                           
 MMO1 IV 001      17.2  56  63  P     22.81  3.17  3.25-0.07 -0.01  1.01     0.051                                           
        S                       S     25.55  5.91  6.08-0.13 -0.04  1.01S    0.104
 ED24 YR 001      18.0 168  63  P     22.92  3.28  3.37 0.00 -0.09  1.01     0.052                                           
        S                       S     25.96  6.32  6.30 0.05 -0.03  1.01S    0.126
 ED18 YR 001      21.0  21  63  P     23.62  3.98  3.85 0.07  0.06  1.01     0.050                                           
        S                       S     26.92  7.28  7.14 0.08  0.06  1.01S    0.113
 ED17 YR 001      21.2  37  63  P     23.40  3.76  3.87-0.10 -0.01  1.01     0.047                                           
        S                       S     26.50  6.86  7.18-0.13 -0.19  1.01S    0.106
 T1217IVS001      21.2 238  63  S     26.87  7.23  7.20 0.07 -0.04  1.01S    0.158                                           
 ED09 YR 001      22.4  94  63  P     23.49  3.85  4.06-0.15 -0.06  1.01     0.047                                           
        S                       S     26.88  7.24  7.53-0.24 -0.05  1.01S    0.115
 T1215IV 001      23.1 267  63  P     23.70  4.06  4.16-0.06 -0.04  1.01     0.074                                           
        S                       S     27.20  7.56  7.71-0.15 -0.00  1.01S    0.177
 ED03 YR 001      23.8 171  63  P     24.05  4.41  4.27 0.05  0.09  1.01     0.052                                           
        S                       S     27.67  8.03  7.90 0.01  0.12  1.01S    0.126
 ED20 YR 001      24.5 107  63  P     23.81  4.17  4.38-0.17 -0.04  1.01     0.048                                           
        S                       S     27.42  7.78  8.10-0.36  0.04  1.01S    0.119
 ED22 YR 001      25.7  33  63  P     24.53  4.89  4.57 0.08  0.24  1.01     0.047                                           
        S                       S     28.02  8.38  8.43 0.18 -0.23  1.01S    0.107
 ED21 YR 001      25.9  22  63  P     24.29  4.65  4.60-0.06  0.11  1.01     0.050                                           
        S                       S     28.16  8.52  8.50-0.12  0.14  1.01S    0.113
 ED02 YRS001      29.7 218  63  S     29.22  9.58  9.55-0.22  0.25  1.01S    0.143                                           
 ####################################################################################
  14 OCT 2016,  0:03  SEQUENCE NO.   12, ID NO.         0
                                                        ADJUSTMENTS (KM)
  I ORIGIN   LAT N     LON W     Z   NWR  RMS    DT    DLAT   DLON    DZ    RR NF MOD
  1 42.09  42 51.69   13E10.98  8.00  22 0.80  0.648 -5.049 -2.268  0.000 5.535 3 MOD
 FREE DEPTH
  2 42.74  42 48.97   13E12.65  8.00  22 0.25  0.068 -0.161 -0.132 -2.289 2.298 4 MOD
  3 42.81  42 48.88   13E12.75  5.71  22 0.15 -0.036 -0.020  0.041  0.053 0.070 4 MOD
 BEGIN MAIN DISTANCE WEIGHTING
 BEGIN RESIDUAL WEIGHTING
  4 42.77  42 48.87   13E12.72  5.76  22 0.11 -0.019 -0.015  0.138  0.038 0.144 4 MOD
  5 42.75  42 48.86   13E12.61  5.80  22 0.10  0.002  0.014  0.095 -0.030 0.101 4 MOD
  6 42.75  42 48.87   13E12.54  5.77  21 0.10  0.003  0.005  0.032 -0.029 0.044 4 MOD
  7 42.76  42 48.87   13E12.52  5.74  21 0.10  0.001  0.001  0.021 -0.006 0.022 4 MOD

              EIGENVALUES
     ( 4.896  0.844  0.750  0.328)
      EIGENVECTORS OF ADJUSTMENT                COVARIANCE             ERRORS
 OT  (-0.996 -0.015 -0.046 -0.079) (   0.002  -0.001   0.000  -0.015)   0.045
 LAT (-0.012 -0.879  0.475  0.046) (  -0.001   0.030   0.002   0.007)   0.173
 LON (-0.037  0.467  0.875 -0.123) (   0.000   0.002   0.036  -0.019)   0.190
 Z   (-0.084  0.098  0.084  0.988) (  -0.015   0.007  -0.019   0.181)   0.425
 ERROR ELLIPSE: <SERR AZ DIP>-<   0.43  70 82>-<   0.19 298  5>-<   0.17 209  5>
 ------------------------------------------------------------------------------------
 YEAR MO DA  --ORIGIN--  --LAT N-  --LON W--  DEPTH-M RMS   ERH   ERZ  XMAG1 FMAG1 PMAG GEOID-DEP
 2016-10-14  0003 42.76  42 48.87   13E12.52   5.74  0.10  0.19  0.42                       4.47
                                                                                          SOURCE
 NSTA NPHS  DMIN MODEL GAP ITR NFM NWR NWS NVR REMRKS-AVH  N.XMG-XMMAD-T   N.FMG-FMMAD-T  L F X
   13   22   5.0  MODS  91   7   0  21  12  22                                                 

 XMAG2-N.XMG2-XMMAD-T-S  FMAG2-N.FMG2-FMMAD-T-S  PREF.MAG-N.PMAG-PRMAD-T DEPDAT NS ZT TYP
                                                                           1273  5  M CRH
 REGION=                          

 STA NET COM L CR DIST AZM  AN P/S WT   SEC (TOBS -TCAL -DLY  =RES)  WT   SR  INFO  CAL  DUR-W-FMAG-T -AMP-U-PER-W-XMAG-T DE
 T1245IV 001       5.0 341 135  P     44.09  1.33  1.34-0.03  0.02  1.09     0.110                                           
        S                       S     45.40  2.64  2.56 0.12 -0.04  1.09S    0.383
 T1214IV 001       6.1 181 128  P     44.21  1.45  1.48-0.01 -0.02  1.09     0.089                                           
        S                       S     45.51  2.75  2.83-0.16  0.08  1.09S    0.316
 ED16 YR 001       8.4  72 118  P     44.56  1.80  1.80 0.07 -0.07  1.09     0.075                                           
        S                       S     46.20  3.44  3.43 0.09 -0.08  1.09S    0.178
 ED23 YR 001      10.2 140 113  P     44.86  2.10  2.06 0.19 -0.15  1.09     0.081                                           
        S                       S     46.96  4.20  3.93 0.38 -0.11  1.09S    0.193
 T1202IV 001      12.4 173 108  P     45.29  2.53  2.41 0.12 -0.00  1.09     0.089                                           
        S                       S     47.63  4.87  4.58 0.25  0.04  1.09S    0.198
 ED19 YR 001      13.0 335 107  P     45.26  2.50  2.50 0.03 -0.03  1.09     0.126                                           
        S                       S     47.50  4.74  4.75-0.01  0.00  1.09S    0.263
 MMO1 IVS001      13.5  45 106  S     47.57  4.81  4.90-0.13  0.04  1.09S    0.192                                           
 T1212IV 001      15.1 243 104  P     45.62  2.86  2.85 0.03 -0.02  1.09     0.122                                           
        S                       S     48.13  5.37  5.40-0.02 -0.01  1.09S    0.265
 ED09 YR 001      17.7  95 101  P     45.77  3.01  3.26-0.15 -0.10  1.09     0.118                                           
        S                       S     48.99  6.23  6.16-0.24  0.31  1.09S    0.221
 ED17 YRS001      18.7  25 101  S     49.24  6.48  6.48-0.13  0.13  1.09S    0.229                                           
 ED20 YR 001      19.9 111 100  P     46.06  3.30  3.64-0.17 -0.17  1.09     0.123                                           
        S                       S     49.06  6.30  6.86-0.36 -0.20  0.12S    0.002
 ED11 YR 001      20.0 226 101  P     46.89  4.13  3.66 0.08  0.39  0.09     0.000                                           
 T1217IVS001      25.4 244  63  S     51.42  8.66  8.53 0.07  0.06  1.09S    0.617                                           
 ####################################################################################
