  14 OCT 2016,  0:03  SEQUENCE NO.   13, ID NO.         0
                                                        ADJUSTMENTS (KM)
  I ORIGIN   LAT N     LON W     Z   NWR  RMS    DT    DLAT   DLON    DZ    RR NF MOD
  1 55.84  42 50.31   13E 6.56  8.00  17 1.41  1.153 -3.641 -1.341  0.000 3.880 3 MOD
 FREE DEPTH
  2 56.99  42 48.35   13E 7.55  8.00  17 0.47  0.600  1.023  0.485 -5.408 5.525 4 MOD
  3 57.59  42 48.90   13E 7.19  2.59  17 0.22 -0.170 -0.068 -0.112  0.048 0.139 4 MOD
 BEGIN MAIN DISTANCE WEIGHTING
 BEGIN RESIDUAL WEIGHTING
  4 57.42  42 48.86   13E 7.27  2.64  17 0.12 -0.019 -0.014 -0.016 -0.005 0.022 4 MOD
  5 57.40  42 48.85   13E 7.28  2.64  17 0.12 -0.001  0.003  0.010  0.003 0.011 4 MOD

              EIGENVALUES
     ( 4.129  0.952  0.697  0.554)
      EIGENVECTORS OF ADJUSTMENT                COVARIANCE             ERRORS
 OT  (-0.998  0.045 -0.033 -0.010) (   0.002   0.002   0.000   0.001)   0.039
 LAT ( 0.049  0.722 -0.318 -0.613) (   0.002   0.048   0.021  -0.012)   0.219
 LON (-0.009 -0.680 -0.486 -0.549) (   0.000   0.021   0.047  -0.007)   0.217
 Z   ( 0.027  0.123 -0.813  0.568) (   0.001  -0.012  -0.007   0.058)   0.241
 ERROR ELLIPSE: <SERR AZ DIP>-<   0.28 138 34>-<   0.22 304 54>-<   0.16  44  7>
 ------------------------------------------------------------------------------------
 YEAR MO DA  --ORIGIN--  --LAT N-  --LON W--  DEPTH-M RMS   ERH   ERZ  XMAG1 FMAG1 PMAG GEOID-DEP
 2016-10-14  0003 57.40  42 48.85   13E 7.28   2.64  0.12  0.23  0.18                       1.56
                                                                                          SOURCE
 NSTA NPHS  DMIN MODEL GAP ITR NFM NWR NWS NVR REMRKS-AVH  N.XMG-XMMAD-T   N.FMG-FMMAD-T  L F X
   12   17   2.2  MODS  78   5   0  17  12  17                                                 

 XMAG2-N.XMG2-XMMAD-T-S  FMAG2-N.FMG2-FMMAD-T-S  PREF.MAG-N.PMAG-PRMAD-T DEPDAT NS ZT TYP
                                                                           1076  5  M CRH
 REGION=                          

 STA NET COM L CR DIST AZM  AN P/S WT   SEC (TOBS -TCAL -DLY  =RES)  WT   SR  INFO  CAL  DUR-W-FMAG-T -AMP-U-PER-W-XMAG-T DE
 NRCA IV 001       2.2 345 139  P     57.84  0.44  0.63-0.12 -0.07  1.00     0.155                                           
        S                       S     58.42  1.02  1.25-0.23  0.00  1.00S    0.446
 ED10 YR 001       4.4 158 120  P     58.20  0.80  0.95-0.08 -0.07  1.00     0.162                                           
        S                       S     59.30  1.90  1.87-0.19  0.22  1.00S    0.397
 T1245IV 001       7.2  49 110  P     58.86  1.46  1.40-0.03  0.09  1.00     0.099                                           
        S                       S     60.37  2.97  2.78 0.12  0.07  1.00S    0.227
 T1212IV 001       9.4 223 105  P     59.21  1.81  1.79 0.03 -0.01  1.00     0.118                                           
        S                       S     60.84  3.44  3.54-0.02 -0.08  1.00S    0.250
 ED19 YR 001      11.8   7  59  P     59.70  2.30  2.22 0.03  0.05  1.00     0.105                                           
        S                       S     61.78  4.38  4.31-0.01  0.08  1.00S    0.208
 ED12 YRS001      11.8 266  59  S     61.83  4.43  4.32-0.01  0.12  1.00S    0.275                                           
 T1217IVS001      19.3 234  59  S     64.34  6.94  6.64 0.07  0.23  1.00S    0.269                                           
 T1215IVS001      20.7 267  59  S     64.30  6.90  7.10-0.15 -0.05  1.00S    0.276                                           
 ED17 YRS001      22.7  42  59  S     65.03  7.63  7.73-0.13  0.03  1.00S    0.193                                           
 ED20 YRS001      26.7 105  59  S     66.02  8.62  8.96-0.36  0.02  1.00S    0.439                                           
 ED21 YRS001      27.0  27  59  S     66.32  8.92  9.04-0.12  0.00  1.00S    0.185                                           
 ED22 YRS001      27.1  37  59  S     66.53  9.13  9.09 0.18 -0.14  1.00S    0.188                                           
 ####################################################################################
  14 OCT 2016,  0:04  SEQUENCE NO.   14, ID NO.         0
                                                        ADJUSTMENTS (KM)
  I ORIGIN   LAT N     LON W     Z   NWR  RMS    DT    DLAT   DLON    DZ    RR NF MOD
  1 15.94  42 36.51   12E55.43  8.00  15 1.12  0.572  5.145  5.419  0.000 7.472 3 MOD
  2 16.51  42 39.29   12E51.45  8.00  15 0.42 -0.332  0.045  0.583  0.000 0.585 3 MOD
 FREE DEPTH
  3 16.18  42 39.31   12E51.03  8.00  15 0.31  0.286  0.434 -0.446 -3.999 4.047 4 MOD
 BEGIN MAIN DISTANCE WEIGHTING
 BEGIN RESIDUAL WEIGHTING
  4 16.47  42 39.54   12E51.35  4.00  15 0.20  0.011 -0.338 -0.660 -0.321 0.808 4 MOD
  5 16.48  42 39.36   12E51.84  3.68  15 0.16  0.028 -0.000 -0.265 -0.230 0.351 4 MOD
  6 16.50  42 39.36   12E52.03  3.45  15 0.15  0.025  0.083 -0.200 -0.297 0.368 4 MOD
  7 16.53  42 39.41   12E52.18  3.15  15 0.14  0.023  0.064 -0.216 -0.390 0.450 4 MOD
  8 16.55  42 39.44   12E52.34  2.76  15 0.13 -0.011 -0.027  0.070  0.258 0.269 4 MOD
  9 16.54  42 39.43   12E52.29  3.02  15 0.13  0.016  0.044 -0.164 -0.490 0.518 4 MOD
 10 16.56  42 39.45   12E52.41  2.53  14 0.14  0.011  0.125 -0.101  0.198 0.255 4 MOD
 11 16.57  42 39.52   12E52.48  2.73  14 0.13 -0.017 -0.098  0.185  0.234 0.314 4 MOD
 12 16.55  42 39.46   12E52.34  2.96  15 0.13  0.005  0.055 -0.162 -0.223 0.281 4 MOD

              EIGENVALUES
     ( 4.064  0.639  0.431  0.221)
      EIGENVECTORS OF ADJUSTMENT                COVARIANCE             ERRORS
 OT  (-0.979  0.004  0.190 -0.068) (   0.009   0.017  -0.042  -0.000)   0.097
 LAT ( 0.075  0.926  0.287 -0.235) (   0.017   0.099  -0.098  -0.049)   0.314
 LON (-0.149  0.363 -0.501  0.771) (  -0.042  -0.098   0.372   0.189)   0.610
 Z   ( 0.113 -0.106  0.794  0.587) (  -0.000  -0.049   0.189   0.282)   0.531
 ERROR ELLIPSE: <SERR AZ DIP>-<   0.74 254 36>-<   0.37  61 53>-<   0.26 158  6>
 ------------------------------------------------------------------------------------
 YEAR MO DA  --ORIGIN--  --LAT N-  --LON W--  DEPTH-M RMS   ERH   ERZ  XMAG1 FMAG1 PMAG GEOID-DEP
 2016-10-14  0004 16.55  42 39.46   12E52.34   2.96  0.13  0.60  0.44                       2.09
                                                                                          SOURCE
 NSTA NPHS  DMIN MODEL GAP ITR NFM NWR NWS NVR REMRKS-AVH  N.XMG-XMMAD-T   N.FMG-FMMAD-T  L F X
    9   15   7.6  MODS 217  12   0  15   8  15                                                 

 XMAG2-N.XMG2-XMMAD-T-S  FMAG2-N.FMG2-FMMAD-T-S  PREF.MAG-N.PMAG-PRMAD-T DEPDAT NS ZT TYP
                                                                            875  5  M CRH

 EXTERNAL MAG= 0.15  NUMBER READINGS=    0  TYPE=L
 REGION=                          

 STA NET COM L CR DIST AZM  AN P/S WT   SEC (TOBS -TCAL -DLY  =RES)  WT   SR  INFO  CAL  DUR-W-FMAG-T -AMP-U-PER-W-XMAG-T DE
 ED02 YR 001       7.6 142  59  P     17.94  1.39  1.49-0.06 -0.04  1.06     0.451                                           
        S                       S     19.52  2.97  2.93-0.22  0.26  1.06S    0.529
 T1217IV 001       7.7  38  59  P     18.30  1.75  1.51 0.05  0.19  1.06     0.372                                           
        S                       S     19.96  3.41  2.97 0.07  0.37  0.11S    0.002
 ED11 YR 001      13.6  75  59  P     18.97  2.42  2.52 0.08 -0.18  1.06     0.107                                           
        S                       S     21.43  4.88  4.82 0.07 -0.01  1.06S    0.321
 T1215IV 001      16.0 359  59  P     19.36  2.81  2.93-0.06 -0.06  1.06     0.286                                           
        S                       S     22.06  5.51  5.56-0.15  0.10  1.06S    0.551
 T1212IV 001      17.5  53  59  P     19.54  2.99  3.19 0.03 -0.23  1.06     0.097                                           
        S                       S     22.52  5.97  6.04-0.02 -0.05  1.06S    0.281
 ED12 YR 001      18.6  27  59  P     19.88  3.33  3.37 0.02 -0.06  1.06     0.120                                           
        S                       S     23.16  6.61  6.37-0.01  0.25  1.06S    0.238
 NRCA IV 001      27.8  45  69  P     21.48  4.93  4.93-0.12  0.12  1.06     0.097                                           
 ED07 YRS001      48.7  93  50  S     31.82 15.27 15.43-0.15 -0.01  1.06S    0.236                                           
 ED14 YRS001      51.8 116  50  S     32.91 16.36 16.29-0.01  0.08  1.06S    0.303                                           
 ####################################################################################
  14 OCT 2016,  0:04  SEQUENCE NO.   15, ID NO.         0
                                                        ADJUSTMENTS (KM)
  I ORIGIN   LAT N     LON W     Z   NWR  RMS    DT    DLAT   DLON    DZ    RR NF MOD
  1 25.94  42 34.76   13E17.53  8.00  56 0.38  0.244  0.263  0.803  0.000 0.845 3 MOD
 FREE DEPTH
  2 26.18  42 34.90   13E16.94  8.00  56 0.25 -0.171 -0.048  0.018  3.271 3.271 4 MOD
  3 26.01  42 34.88   13E16.93 11.27  56 0.15 -0.116 -0.017 -0.039  0.445 0.447 4 MOD
 BEGIN MAIN DISTANCE WEIGHTING
 BEGIN RESIDUAL WEIGHTING
  4 25.90  42 34.87   13E16.96 11.72  56 0.12 -0.005  0.080  0.011 -0.053 0.097 4 MOD
  5 25.89  42 34.91   13E16.95 11.66  56 0.12  0.003  0.027 -0.005 -0.057 0.063 4 MOD
  6 25.89  42 34.93   13E16.95 11.61  55 0.11  0.003  0.009 -0.002 -0.042 0.043 4 MOD

              EIGENVALUES
     ( 7.601  1.127  0.872  0.411)
      EIGENVECTORS OF ADJUSTMENT                COVARIANCE             ERRORS
 OT  (-0.993 -0.022  0.030  0.108) (   0.002   0.002   0.001  -0.014)   0.045
 LAT ( 0.046 -0.391  0.915  0.090) (   0.002   0.029  -0.004  -0.010)   0.171
 LON ( 0.013 -0.917 -0.396  0.042) (   0.001  -0.004   0.020  -0.005)   0.143
 Z   (-0.103 -0.077  0.069 -0.989) (  -0.014  -0.010  -0.005   0.134)   0.366
 ERROR ELLIPSE: <SERR AZ DIP>-<   0.37 154 84>-<   0.17  23  3>-<   0.13 293  4>
 ------------------------------------------------------------------------------------
 YEAR MO DA  --ORIGIN--  --LAT N-  --LON W--  DEPTH-M RMS   ERH   ERZ  XMAG1 FMAG1 PMAG GEOID-DEP
 2016-10-14  0004 25.89  42 34.93   13E16.95  11.61  0.11  0.17  0.37                      10.50
                                                                                          SOURCE
 NSTA NPHS  DMIN MODEL GAP ITR NFM NWR NWS NVR REMRKS-AVH  N.XMG-XMMAD-T   N.FMG-FMMAD-T  L F X
   30   56   1.5  MODS  40   6   0  55  28  56                                                 

 XMAG2-N.XMG2-XMMAD-T-S  FMAG2-N.FMG2-FMMAD-T-S  PREF.MAG-N.PMAG-PRMAD-T DEPDAT NS ZT TYP
                                                                           1109  5  M CRH

 EXTERNAL MAG= 0.70  NUMBER READINGS=    0  TYPE=L
 REGION=                          

 STA NET COM L CR DIST AZM  AN P/S WT   SEC (TOBS -TCAL -DLY  =RES)  WT   SR  INFO  CAL  DUR-W-FMAG-T -AMP-U-PER-W-XMAG-T DE
 ED04 YR 001       1.5 125 171  P     27.94  2.05  1.96 0.15 -0.06  1.03     0.035                                           
        S                       S     29.71  3.82  3.65 0.14  0.03  1.03S    0.193
 T1299IV 001       5.8   0 150  P     28.15  2.26  2.17 0.17 -0.08  1.03     0.027                                           
        S                       S     30.08  4.19  4.04 0.23 -0.08  1.03S    0.159
 SMA1 IV 001       6.9  38 145  P     28.31  2.42  2.26 0.11  0.05  1.03     0.027                                           
        S                       S     30.52  4.63  4.21 0.05  0.37  0.70S    0.065
 ED03 YR 001       7.9 288 141  P     28.25  2.36  2.36 0.05 -0.05  1.03     0.027                                           
        S                       S     30.30  4.41  4.38 0.01  0.02  1.03S    0.129
 RM33 IV 001       9.9 215 134  P     28.43  2.54  2.55 0.17 -0.18  1.03     0.046                                           
        S                       S     30.60  4.71  4.74-0.02 -0.01  1.03S    0.133
 T1204IV 001      10.8  15 131  P     28.63  2.74  2.66 0.10 -0.02  1.03     0.026                                           
        S                       S     30.86  4.97  4.93 0.12 -0.08  1.03S    0.109
 ED24 YR 001      11.0 318 131  P     28.66  2.77  2.68 0.00  0.09  1.03     0.023                                           
        S                       S     31.04  5.15  4.98 0.05  0.12  1.03S    0.096
 CAMP IV 001      11.6 116 129  P     28.62  2.73  2.75-0.08  0.06  1.03     0.040                                           
        S                       S     30.87  4.98  5.10-0.32  0.20  1.03S    0.090
 ED05 YR 001      12.9 148 126  P     28.90  3.01  2.90-0.04  0.15  1.03     0.051                                           
        S                       S     31.38  5.49  5.38 0.09  0.02  1.03S    0.104
 T1202IV 001      14.3 341 122  P     29.27  3.38  3.08 0.12  0.18  1.03     0.026                                           
        S                       S     32.12  6.23  5.71 0.25  0.27  0.08S    0.000
 T1247IVS001      15.7 175 119  S     31.96  6.07  6.04-0.01  0.04  1.03S    0.124                                           
 ED07 YR 001      15.8  71 119  P     29.16  3.27  3.28-0.11  0.10  1.03     0.041                                           
        S                       S     31.83  5.94  6.07-0.15  0.02  1.03S    0.081
 ED01 YR 001      16.8 249 117  P     29.29  3.40  3.41-0.06  0.05  1.03     0.051                                           
        S                       S     32.16  6.27  6.30 0.00 -0.03  1.03S    0.100
 T1218IV 001      16.8 306 117  P     29.29  3.40  3.42 0.00 -0.02  1.03     0.029                                           
        S                       S     32.15  6.26  6.32 0.06 -0.12  1.03S    0.065
 T1246IV 001      17.3  89 116  P     29.31  3.42  3.48-0.13  0.07  1.03     0.047                                           
        S                       S     32.14  6.25  6.43-0.35  0.17  1.03S    0.080
 ED23 YR 001      17.9   1 115  P     29.63  3.74  3.57 0.19 -0.02  1.03     0.034                                           
        S                       S     32.72  6.83  6.59 0.38 -0.14  1.03S    0.081
 ED14 YR 001      19.6 140 113  P     29.66  3.77  3.81-0.07  0.03  1.03     0.070                                           
        S                       S     32.92  7.03  7.03-0.01  0.01  1.03S    0.109
 T1214IVS001      20.6 343 111  S     33.39  7.50  7.28-0.16  0.38  1.03S    0.072                                           
 ED20 YR 001      22.4  34 109  P     29.93  4.04  4.20-0.17  0.01  1.03     0.049                                           
        S                       S     33.36  7.47  7.74-0.36  0.09  1.03S    0.092
 ED08 YR 001      23.2 234 108  P     30.40  4.51  4.33-0.03  0.21  1.03     0.075                                           
        S                       S     33.88  7.99  7.97 0.04 -0.02  1.03S    0.127
 ED15 YR 001      23.4 104 108  P     30.02  4.13  4.36-0.19 -0.04  1.03     0.067                                           
        S                       S     33.49  7.60  8.02-0.35 -0.07  1.03S    0.096
 ED11 YR 001      23.6 301 108  P     30.50  4.61  4.38 0.08  0.15  1.03     0.041                                           
        S                       S     33.88  7.99  8.07 0.07 -0.15  1.03S    0.063
 TERO IV 001      26.8  80 105  P     30.51  4.62  4.85-0.28  0.05  1.03     0.067                                           
        S                       S     34.38  8.49  8.91-0.35 -0.07  1.03S    0.099
 ED09 YR 001      26.8  25 105  P     30.57  4.68  4.86-0.15 -0.03  1.03     0.055                                           
        S                       S     34.54  8.65  8.93-0.24 -0.04  1.03S    0.097
 T1212IV 001      27.1 315 105  P     31.12  5.23  4.90 0.03  0.30  0.78     0.025                                           
        S                       S     34.74  8.85  9.00-0.02 -0.13  1.03S    0.065
 ED02 YR 001      29.1 275 103  P     30.98  5.09  5.21-0.06 -0.06  1.03     0.060                                           
        S                       S     35.32  9.43  9.55-0.22  0.10  1.03S    0.087
 T1217IVS001      32.2 297 102  S     36.13 10.24 10.39 0.07 -0.22  1.03S    0.073                                           
 ED12 YR 001      35.3 315 100  P     32.13  6.24  6.15 0.02  0.07  1.03     0.054                                           
        S                       S     37.23 11.34 11.24-0.01  0.11  1.03S    0.073
 T1215IV 001      41.8 306  98  P     32.94  7.05  7.15-0.06 -0.04  1.03     0.061                                           
        S                       S     38.76 12.87 13.03-0.15 -0.01  1.03S    0.080
 ED22 YR 001      47.3   4  97  P     34.07  8.18  8.00 0.08  0.10  1.03     0.070                                           
 ####################################################################################
