  14 OCT 2016,  0:04  SEQUENCE NO.   16, ID NO.         0
                                                        ADJUSTMENTS (KM)
  I ORIGIN   LAT N     LON W     Z   NWR  RMS    DT    DLAT   DLON    DZ    RR NF MOD
  1 52.07  42 54.99   13E11.04  8.00  63 0.89  0.773 -1.469 -4.144  0.000 4.396 3 MOD
 FREE DEPTH
  2 52.84  42 54.20   13E14.09  8.00  63 0.29  0.221 -0.535 -0.193 -4.066 4.106 4 MOD
  3 53.06  42 53.91   13E14.23  3.93  63 0.23 -0.112 -0.320  0.021  0.323 0.455 4 MOD
 BEGIN MAIN DISTANCE WEIGHTING
 BEGIN RESIDUAL WEIGHTING
  4 52.95  42 53.74   13E14.22  4.26  61 0.12 -0.015 -0.032 -0.005  0.058 0.066 4 MOD
  5 52.94  42 53.72   13E14.22  4.31  62 0.12 -0.011 -0.002 -0.006  0.189 0.189 4 MOD
  6 52.93  42 53.72   13E14.23  4.50  62 0.12 -0.009  0.008 -0.004  0.178 0.178 4 MOD
  7 52.92  42 53.72   13E14.23  4.68  60 0.11 -0.004  0.003 -0.002  0.053 0.053 4 MOD
  8 52.91  42 53.72   13E14.23  4.73  60 0.11 -0.003  0.001 -0.002  0.020 0.020 4 MOD

              EIGENVALUES
     ( 8.209  1.470  1.252  0.596)
      EIGENVECTORS OF ADJUSTMENT                COVARIANCE             ERRORS
 OT  (-0.997  0.068 -0.027 -0.033) (   0.000  -0.001   0.000  -0.002)   0.022
 LAT (-0.075 -0.968  0.046  0.236) (  -0.001   0.014   0.000   0.012)   0.117
 LON ( 0.024 -0.046 -0.999  0.014) (   0.000   0.000   0.015   0.001)   0.121
 Z   (-0.016  0.238  0.002  0.971) (  -0.002   0.012   0.001   0.062)   0.249
 ERROR ELLIPSE: <SERR AZ DIP>-<   0.25 356 76>-<   0.12 268  0>-<   0.10 178 13>
 ------------------------------------------------------------------------------------
 YEAR MO DA  --ORIGIN--  --LAT N-  --LON W--  DEPTH-M RMS   ERH   ERZ  XMAG1 FMAG1 PMAG GEOID-DEP
 2016-10-14  0004 52.91  42 53.72   13E14.23   4.73  0.11  0.12  0.25                       3.78
                                                                                          SOURCE
 NSTA NPHS  DMIN MODEL GAP ITR NFM NWR NWS NVR REMRKS-AVH  N.XMG-XMMAD-T   N.FMG-FMMAD-T  L F X
   38   63   4.3  MODS  50   8   0  60  34  63                                                 

 XMAG2-N.XMG2-XMMAD-T-S  FMAG2-N.FMG2-FMMAD-T-S  PREF.MAG-N.PMAG-PRMAD-T DEPDAT NS ZT TYP
                                                                            952  5  M CRH

 EXTERNAL MAG= 0.58  NUMBER READINGS=    0  TYPE=L
 REGION=                          

 STA NET COM L CR DIST AZM  AN P/S WT   SEC (TOBS -TCAL -DLY  =RES)  WT   SR  INFO  CAL  DUR-W-FMAG-T -AMP-U-PER-W-XMAG-T DE
 MC2  IV 001       4.3 295 132  P     54.07  1.16  1.14 0.15 -0.13  1.08     0.050                                           
        S                       S     55.29  2.38  2.20 0.43 -0.25  1.08S    0.137
 T1245IV 001       5.9 223 122  P     54.18  1.27  1.35-0.03 -0.05  1.08     0.045                                           
        S                       S     55.64  2.73  2.60 0.12  0.01  1.08S    0.137
 MMO1 IV 001       7.3  86 115  P     54.33  1.42  1.55-0.07 -0.06  1.08     0.051                                           
        S                       S     55.71  2.80  2.99-0.13 -0.06  1.08S    0.124
 ED19 YR 001       8.4 289 111  P     54.61  1.70  1.72 0.03 -0.05  1.08     0.039                                           
        S                       S     56.23  3.32  3.31-0.01  0.02  1.08S    0.091
 ED16 YR 001       8.6 138 110  P     54.60  1.69  1.75 0.07 -0.13  1.08     0.042                                           
        S                       S     56.24  3.33  3.36 0.09 -0.12  1.08S    0.114
 ED17 YR 001       9.8  36 107  P     54.73  1.82  1.93-0.10 -0.01  1.08     0.050                                           
        S                       S     56.42  3.51  3.69-0.13 -0.05  1.08S    0.103
 ED18 YR 001      10.7   2 105  P     55.04  2.13  2.08 0.07 -0.02  1.08     0.049                                           
        S                       S     57.07  4.16  3.97 0.08  0.11  1.08S    0.097
 NRCA IV 001      12.2 236 102  P     55.14  2.23  2.32-0.12  0.03  1.08     0.030                                           
        S                       S     57.23  4.32  4.42-0.23  0.13  1.08S    0.077
 ED22 YR 001      14.3  30 100  P     55.68  2.77  2.67 0.08  0.02  1.08     0.054                                           
        S                       S     58.07  5.16  5.07 0.18 -0.09  1.08S    0.108
 ED21 YR 001      15.2  10  99  P     55.74  2.83  2.82-0.06  0.07  1.08     0.054                                           
        S                       S     58.20  5.29  5.36-0.12  0.05  1.08S    0.106
 T1214IV 001      15.3 189  99  P     55.77  2.86  2.83-0.01  0.04  1.08     0.026                                           
        S                       S     58.38  5.47  5.37-0.16  0.26  1.08S    0.068
 ED23 YR 001      17.4 166  97  P     56.38  3.47  3.18 0.19  0.10  1.08     0.027                                           
        S                       S     59.46  6.55  6.03 0.38  0.14  0.54S    0.017
 T1216IV 001      17.8 269  97  P     56.16  3.25  3.26-0.02  0.01  1.08     0.035                                           
        S                       S     59.07  6.16  6.16-0.12  0.12  1.08S    0.080
 ED09 YR 001      18.6 124  97  P     56.08  3.17  3.38-0.15 -0.06  1.08     0.037                                           
        S                       S     59.00  6.09  6.39-0.24 -0.06  1.08S    0.087
 FDMO IV 001      19.9 323  96  P     56.44  3.53  3.60-0.06 -0.01  1.08     0.049                                           
        S                       S     59.59  6.68  6.80 0.00 -0.12  1.08S    0.101
 GUMA IVS001      20.2  23  96  S     60.44  7.53  6.91 0.81 -0.19  1.01S    0.100                                           
 T1202IV 001      21.3 183  96  P     56.98  4.07  3.85 0.12  0.10  1.08     0.024                                           
        S                       S     60.50  7.59  7.25 0.25  0.09  1.08S    0.062
 T1212IV 001      22.4 225  95  P     56.93  4.02  4.03 0.03 -0.04  1.08     0.025                                           
        S                       S     60.42  7.51  7.59-0.02 -0.06  1.08S    0.064
 ED20 YR 001      23.0 135  95  P     56.76  3.85  4.12-0.17 -0.10  1.08     0.034                                           
        S                       S     60.23  7.32  7.76-0.36 -0.08  0.98S    0.066
 ED12 YRS001      23.4 246  95  S     60.87  7.96  7.91-0.01  0.06  1.08S    0.071                                           
 T1204IV 001      25.2 165  94  P     57.50  4.59  4.50 0.10 -0.01  1.08     0.026                                           
        S                       S     61.43  8.52  8.46 0.12 -0.06  1.08S    0.064
 ED24 YR 001      26.9 188  94  P     57.90  4.99  4.78 0.00  0.21  1.08     0.023                                           
        S                       S     62.34  9.43  8.98 0.05  0.40  0.00S    0.000
 T1218IV 001      27.0 202  94  P     57.73  4.82  4.80 0.00  0.02  1.08     0.023                                           
        S                       S     61.95  9.04  9.00 0.06 -0.02  1.08S    0.058
 T1299IVS001      29.3 172  94  S     62.78  9.87  9.71 0.23 -0.07  1.08S    0.061                                           
 CESI IVS001      29.7 295  94  S     62.89  9.98  9.87 0.03  0.08  1.08S    0.094                                           
 SMA1 IVS001      30.5 164  63  S     62.76  9.85 10.09 0.05 -0.29  0.32S    0.007                                           
 T1215IV 001      31.9 252  63  P     58.47  5.56  5.63-0.06 -0.01  1.08     0.032                                           
        S                       S     63.23 10.32 10.48-0.15 -0.01  1.08S    0.137
 T1217IVS001      32.3 231  63  S     63.39 10.48 10.59 0.07 -0.18  1.08S    0.111                                           
 ED03 YRS001      32.7 187  63  S     63.66 10.75 10.71 0.01  0.03  1.08S    0.082                                           
 ED07 YRS001      35.1 147  63  S     64.25 11.34 11.36-0.15  0.13  1.08S    0.101                                           
 T1246IV 001      40.5 148  63  P     60.23  7.32  7.04-0.13  0.41  0.05     0.000                                           
        S                       S     65.58 12.67 12.88-0.35  0.14  1.08S    0.100
 ED02 YR 001      41.1 219  63  P     59.79  6.88  7.13-0.06 -0.19  1.08     0.039                                           
        S                       S     65.67 12.76 13.05-0.22 -0.07  1.08S    0.098
 TERO IV 001      42.6 135  63  P     59.96  7.05  7.37-0.28 -0.04  1.08     0.048                                           
        S                       S     66.31 13.40 13.48-0.35  0.27  1.08S    0.113
 ED01 YRS001      42.7 197  63  S     66.32 13.41 13.49 0.00 -0.08  1.08S    0.085                                           
 RM33 IVS001      43.0 183  63  S     66.79 13.88 13.57-0.02  0.33  1.08S    0.082                                           
 ED05 YRS001      46.9 167  63  S     67.96 15.05 14.68 0.09  0.28  0.05S    0.000                                           
 ED15 YR 001      48.6 147  67  P     61.23  8.32  8.30-0.19  0.21  1.08     0.042                                           
 ED14 YR 001      52.6 162  67  P     62.08  9.17  8.92-0.07  0.32  0.63     0.013                                           
 ####################################################################################
  14 OCT 2016,  0:05  SEQUENCE NO.   17, ID NO.         0
                                                        ADJUSTMENTS (KM)
  I ORIGIN   LAT N     LON W     Z   NWR  RMS    DT    DLAT   DLON    DZ    RR NF MOD
  1 16.22  42 46.92   13E 8.17  8.00  44 1.24  1.158 -4.469 -3.241  0.000 5.521 3 MOD
 FREE DEPTH
  2 17.38  42 44.51   13E10.55  8.00  44 0.29  0.205 -0.166 -0.093 -3.876 3.881 4 MOD
  3 17.58  42 44.42   13E10.62  4.12  44 0.21 -0.136  0.127 -0.176  0.584 0.623 4 MOD
 BEGIN MAIN DISTANCE WEIGHTING
 BEGIN RESIDUAL WEIGHTING
  4 17.45  42 44.49   13E10.75  4.71  43 0.12 -0.008 -0.052  0.083  0.080 0.127 4 MOD
  5 17.44  42 44.46   13E10.69  4.79  43 0.12 -0.001 -0.028  0.046  0.026 0.060 4 MOD
  6 17.44  42 44.44   13E10.65  4.81  43 0.12 -0.001 -0.013  0.017  0.015 0.026 4 MOD
  7 17.44  42 44.44   13E10.64  4.83  43 0.12 -0.001 -0.004  0.007  0.011 0.014 4 MOD

              EIGENVALUES
     ( 6.863  1.345  1.049  0.521)
      EIGENVECTORS OF ADJUSTMENT                COVARIANCE             ERRORS
 OT  (-0.998 -0.043 -0.042 -0.027) (   0.001  -0.001  -0.000  -0.002)   0.025
 LAT (-0.058  0.645  0.759 -0.067) (  -0.001   0.018  -0.005  -0.004)   0.134
 LON (-0.009  0.762 -0.639  0.105) (  -0.000  -0.005   0.017   0.007)   0.131
 Z   (-0.030 -0.039  0.118  0.992) (  -0.002  -0.004   0.007   0.085)   0.291
 ERROR ELLIPSE: <SERR AZ DIP>-<   0.29 238 82>-<   0.15  40  6>-<   0.11 130  2>
 ------------------------------------------------------------------------------------
 YEAR MO DA  --ORIGIN--  --LAT N-  --LON W--  DEPTH-M RMS   ERH   ERZ  XMAG1 FMAG1 PMAG GEOID-DEP
 2016-10-14  0005 17.44  42 44.44   13E10.64   4.83  0.12  0.14  0.29                       3.67
                                                                                          SOURCE
 NSTA NPHS  DMIN MODEL GAP ITR NFM NWR NWS NVR REMRKS-AVH  N.XMG-XMMAD-T   N.FMG-FMMAD-T  L F X
   28   44   3.3  MODS  38   7   0  43  27  44                                                 

 XMAG2-N.XMG2-XMMAD-T-S  FMAG2-N.FMG2-FMMAD-T-S  PREF.MAG-N.PMAG-PRMAD-T DEPDAT NS ZT TYP
                                                                           1158  5  M CRH

 EXTERNAL MAG= 0.19  NUMBER READINGS=    0  TYPE=L
 REGION=                          

 STA NET COM L CR DIST AZM  AN P/S WT   SEC (TOBS -TCAL -DLY  =RES)  WT   SR  INFO  CAL  DUR-W-FMAG-T -AMP-U-PER-W-XMAG-T DE
 T1214IV 001       3.3  50 143  P     18.36  0.92  1.04-0.01 -0.11  1.08     0.104                                           
 ED10 YR 001       5.0 324 128  P     18.22  0.78  1.24-0.08 -0.38  0.17     0.001                                           
        S                       S     19.66  2.22  2.39-0.19  0.02  1.08S    0.200
 T1202IV 001       5.7 136 124  P     18.80  1.36  1.32 0.12 -0.08  1.08     0.056                                           
        S                       S     20.07  2.63  2.55 0.25 -0.17  1.08S    0.156
 ED23 YR 001       9.0  88 110  P     19.46  2.02  1.81 0.19  0.02  1.08     0.062                                           
        S                       S     21.35  3.91  3.48 0.38  0.05  1.08S    0.151
 T1218IV 001       9.4 214 109  P     19.34  1.90  1.87 0.00  0.03  1.08     0.042                                           
        S                       S     21.36  3.92  3.58 0.06  0.28  0.40S    0.014
 ED24 YR 001       9.5 172 108  P     19.19  1.75  1.90 0.00 -0.15  1.08     0.037                                           
        S                       S     21.12  3.68  3.63 0.05 -0.00  1.08S    0.089
 T1212IV 001      10.9 277 105  P     19.56  2.12  2.12 0.03 -0.03  1.08     0.048                                           
        S                       S     21.62  4.18  4.05-0.02  0.15  1.08S    0.103
 ED11 YR 001      13.1 244 102  P     19.93  2.49  2.48 0.08 -0.07  1.08     0.046                                           
        S                       S     22.28  4.84  4.72 0.07  0.05  1.08S    0.106
 T1204IVS001      13.5 122 101  S     22.38  4.94  4.83 0.12 -0.01  1.08S    0.086                                           
 T1299IV 001      14.6 143 100  P     20.41  2.97  2.72 0.17  0.08  1.08     0.034                                           
        S                       S     22.99  5.55  5.18 0.23  0.14  1.08S    0.073
 ED03 YR 001      15.3 176  99  P     20.30  2.86  2.84 0.05 -0.03  1.08     0.035                                           
        S                       S     22.98  5.54  5.39 0.01  0.14  1.08S    0.080
 SMA1 IVS001      17.8 133  98  S     23.79  6.35  6.16 0.05  0.14  1.08S    0.074                                           
 ED12 YR 001      17.9 295  97  P     20.70  3.26  3.28 0.02 -0.04  1.08     0.052                                           
        S                       S     23.63  6.19  6.20-0.01 -0.00  1.08S    0.102
 T1217IVS001      20.4 262  96  S     24.58  7.14  6.96 0.07  0.11  1.08S    0.107                                           
 T1216IVS001      21.1 323  96  S     24.75  7.31  7.18-0.12  0.25  1.08S    0.113                                           
 MMO1 IVS001      21.5  34  96  S     24.55  7.11  7.29-0.13 -0.05  1.08S    0.161                                           
 ED01 YR 001      24.8 197  95  P     21.90  4.46  4.43-0.06  0.09  1.08     0.042                                           
        S                       S     25.71  8.27  8.33 0.00 -0.06  1.08S    0.097
 ED02 YR 001      25.4 234  95  P     22.35  4.91  4.54-0.06  0.43  0.01     0.000                                           
        S                       S     25.85  8.41  8.53-0.22  0.10  1.08S    0.112
 RM33 IVS001      25.9 173  94  S     26.21  8.77  8.68-0.02  0.11  1.08S    0.080                                           
 T1215IV 001      26.2 286  94  P     21.97  4.53  4.67-0.06 -0.08  1.08     0.053                                           
        S                       S     25.91  8.47  8.76-0.15 -0.14  1.08S    0.104
 ED07 YR 001      26.7 117  94  P     21.99  4.55  4.75-0.11 -0.09  1.08     0.040                                           
        S                       S     26.27  8.83  8.92-0.15  0.06  1.08S    0.082
 ED18 YRS001      28.4  10  94  S     26.95  9.51  9.45 0.08 -0.02  1.08S    0.152                                           
 T1246IV 001      31.2 123  63  P     22.71  5.27  5.52-0.13 -0.12  1.08     0.039                                           
        S                       S     27.22  9.78 10.28-0.35 -0.15  0.23S    0.007
 ED22 YRS001      31.9  22  63  S     28.18 10.74 10.48 0.18  0.08  1.08S    0.225                                           
 ED05 YRS001      32.4 151  63  S     28.07 10.63 10.62 0.09 -0.08  1.08S    0.181                                           
 FDMO IVS001      33.7 348  63  S     28.51 11.07 10.97 0.00  0.10  1.08S    0.224                                           
 TERO IV 001      37.3 110  63  P     23.42  5.98  6.53-0.28 -0.27  1.02     0.063                                           
        S                       S     28.96 11.52 11.99-0.35 -0.12  1.08S    0.172
 ED14 YRS001      39.0 147  63  S     29.78 12.34 12.45-0.01 -0.10  1.08S    0.178                                           
 ####################################################################################
